{"type":"FeatureCollection","features":[{"type":"Feature","geometry":{"type":"Point","coordinates":[-89.8493,35.073]},"properties":{"identifier":"TDECWPC-NONCO4T0.5SH","navigation":"https://api.water.usgs.gov/nldi/linked-data/wqp/TDECWPC-NONCO4T0.5SH/navigation","name":"NONCONNAH CK - UT 1","source":"WQP","sourceName":"Water Quality Portal","comid":14199407,"type":"varies","uri":"https://www.waterqualitydata.us/provider/STORET/TDECWPC/TDECWPC-NONCO4T0.5SH/","reachcode":null,"measure":null,"mainstem":null},"id":"TDECWPC-NONCO4T0.5SH"},{"type":"Feature","geometry":{"type":"Point","coordinates":[-89.8493,35.073]},"properties":{"identifier":"TDECWR_WQX-TNW000004523","navigation":"https://api.water.usgs.gov/nldi/linked-data/wqp/TDECWR_WQX-TNW000004523/navigation","name":"Nonconnah Creek  Unnamed Tributary","source":"WQP","sourceName":"Water Quality Portal","comid":14199407,"type":"varies","uri":"https://www.waterqualitydata.us/provider/STORET/TDECWR_WQX/TDECWR_WQX-TNW000004523/","reachcode":null,"measure":null,"mainstem":null},"id":"TDECWR_WQX-TNW000004523"},{"type":"Feature","geometry":{"type":"Point","coordinates":[-89.807308,35.0798134]},"properties":{"identifier":"USGS-350447089482601","navigation":"https://api.water.usgs.gov/nldi/linked-data/wqp/USGS-350447089482601/navigation","name":"Sh:L-067","source":"WQP","sourceName":"Water Quality Portal","comid":14199399,"type":"varies","uri":"https://www.waterqualitydata.us/provider/NWIS/USGS-TN/USGS-350447089482601/","reachcode":null,"measure":null,"mainstem":null},"id":"USGS-350447089482601"},{"type":"Feature","geometry":{"type":"Point","coordinates":[-89.805919,35.0817578]},"properties":{"identifier":"USGS-350454089482101","navigation":"https://api.water.usgs.gov/nldi/linked-data/wqp/USGS-350454089482101/navigation","name":"Sh:L-065","source":"WQP","sourceName":"Water Quality Portal","comid":14199399,"type":"varies","uri":"https://www.waterqualitydata.us/provider/NWIS/USGS-TN/USGS-350454089482101/","reachcode":null,"measure":null,"mainstem":null},"id":"USGS-350454089482101"},{"type":"Feature","geometry":{"type":"Point","coordinates":[-89.8561443,35.0711779]},"properties":{"identifier":"NARS_WQX-NRS_TN-10118","navigation":"https://api.water.usgs.gov/nldi/linked-data/wqp/NARS_WQX-NRS_TN-10118/navigation","name":"None","source":"WQP","sourceName":"Water Quality Portal","comid":14199409,"type":"varies","uri":"https://www.waterqualitydata.us/provider/STORET/NARS_WQX/NARS_WQX-NRS_TN-10118/","reachcode":null,"measure":null,"mainstem":null},"id":"NARS_WQX-NRS_TN-10118"},{"type":"Feature","geometry":{"type":"Point","coordinates":[-89.85614,35.07118]},"properties":{"identifier":"NARS_WQX-TNSS-1064","navigation":"https://api.water.usgs.gov/nldi/linked-data/wqp/NARS_WQX-TNSS-1064/navigation","name":"Loess Plains","source":"WQP","sourceName":"Water Quality Portal","comid":14199409,"type":"varies","uri":"https://www.waterqualitydata.us/provider/STORET/NARS_WQX/NARS_WQX-TNSS-1064/","reachcode":null,"measure":null,"mainstem":null},"id":"NARS_WQX-TNSS-1064"}]}