{"type":"FeatureCollection","features":[{"type":"Feature","geometry":{"type":"Point","coordinates":[-89.85614,35.07118]},"properties":{"identifier":"TNSS-1064_2013","navigation":"https://api.water.usgs.gov/nldi/linked-data/epa_nrsa/TNSS-1064_2013/navigation","name":"","source":"epa_nrsa","sourceName":"EPA National Rivers and Streams Assessment","comid":14199409,"type":"hydrolocation","uri":null,"reachcode":"08010211000331","measure":69.0216,"mainstem":null},"id":"TNSS-1064_2013"},{"type":"Feature","geometry":{"type":"Point","coordinates":[-89.85614426,35.07117788]},"properties":{"identifier":"NRS18_TN_10011_2018","navigation":"https://api.water.usgs.gov/nldi/linked-data/epa_nrsa/NRS18_TN_10011_2018/navigation","name":"None","source":"epa_nrsa","sourceName":"EPA National Rivers and Streams Assessment","comid":14199409,"type":"hydrolocation","uri":null,"reachcode":"08010211000331","measure":69.0216,"mainstem":null},"id":"NRS18_TN_10011_2018"}]}