{"type":"FeatureCollection","features":[{"type":"Feature","geometry":{"type":"LineString","coordinates":[[-89.854565807,35.070162699],[-89.854565807,35.070254296],[-89.8542317,35.070391499],[-89.854315206,35.070574597],[-89.854899704,35.070574693],[-89.855011106,35.070643298],[-89.855011001,35.070895098],[-89.855484203,35.0712156],[-89.855790302,35.071329996],[-89.856068701,35.071169898],[-89.856291406,35.071192697],[-89.856374905,35.071810596],[-89.856597401,35.072268397],[-89.8572376,35.072794795],[-89.8572933,35.073069394],[-89.857237503,35.073641494],[-89.857488006,35.073778898],[-89.858044706,35.073916197],[-89.858350903,35.073847599],[-89.858740702,35.073161095],[-89.859575905,35.072794996],[-89.859770805,35.072428897]]},"properties":{"nhdplus_comid":14199409},"id":14199409},{"type":"Feature","geometry":{"type":"LineString","coordinates":[[-89.851837903,35.070253894],[-89.852255404,35.070139498],[-89.852422401,35.069979295],[-89.8527565,35.069910698],[-89.852923505,35.070047997],[-89.853201903,35.070048094],[-89.853452504,35.069910794],[-89.854009204,35.069819398],[-89.854370907,35.069956698],[-89.854565807,35.070162699]]},"properties":{"nhdplus_comid":14199415},"id":14199415},{"type":"Feature","geometry":{"type":"LineString","coordinates":[[-89.841953002,35.079337396],[-89.842899606,35.079223096],[-89.8432336,35.078925796],[-89.843345203,35.078262098],[-89.843512505,35.077964596],[-89.846881501,35.076065898],[-89.847744502,35.075676896],[-89.847828105,35.0754252],[-89.847438507,35.075036094],[-89.847438604,35.074898794],[-89.847772703,35.074418299],[-89.847410902,35.074097797],[-89.847411007,35.073800296],[-89.847661607,35.073594399],[-89.847689502,35.073411293],[-89.847299807,35.073342599],[-89.846798703,35.073456995],[-89.846659705,35.072610095],[-89.847606301,35.072266996],[-89.848079503,35.072335795],[-89.848497003,35.072724894],[-89.848858804,35.072816499],[-89.849053703,35.072564796],[-89.849777505,35.072450496],[-89.849944502,35.072541997],[-89.8499723,35.0728167],[-89.850306302,35.0728167],[-89.850389801,35.072656594],[-89.850389905,35.072381899],[-89.850195102,35.072267495],[-89.850195102,35.072061494],[-89.850390002,35.071901299],[-89.850668401,35.071855694],[-89.850779802,35.071718298],[-89.850529306,35.071558096],[-89.850557104,35.071466595],[-89.850974701,35.071466699],[-89.850863405,35.071191996],[-89.851030402,35.071123399],[-89.851253003,35.0713294],[-89.851503603,35.071306594],[-89.851475805,35.071009099],[-89.851810001,35.070574194],[-89.851837903,35.070253894]]},"properties":{"nhdplus_comid":14199407},"id":14199407}]}