{"type":"Feature","properties":{"id":"fletchers-fork","name":"Fletchers Fork","waterbodyType":"creek","throughLakeIds":["lake-taal"],"allowOpenEnds":false,"source":"nhd-hu8-05130206","approximate":false,"labelAnchor":[-87.50262,36.57468],"bounds":[-87.60977,36.53366,-87.42316,36.60047],"crs":"EPSG:4326","coordinateOrder":"longitude,latitude","partCount":1,"vertexCount":268,"lengthKm":24.47,"sourceIds":["54400150","54400175","54400207","54400314","54400454","54400476","54400479","54400526","54400589","54400652","54400657","54400673","54400694","54400710","54400728","54400769","54400773","54400794","54400813","54400835","54400830","54400844","54400843","54400865","54400904","54400944","54400129","54400109","54400096","54400095","54400065","54400034","54399922","54399912","54399901","54399870","54399862","54399788","54399748","54399737","54399736","54399623"],"sourceRetrieved":"2026-09-11","geometrySource":"nhd","hu8":"05130206","simplification":{"toleranceM":10,"verticesBefore":1057,"verticesAfter":268,"budgetBytes":81920},"trace":{"anchor":{"lat":36.5747,"lon":-87.5026,"snapDistM":2.5},"up":{"spec":"headwater","reason":"headwater","terminus":[-87.609774,36.534401],"distKmFromAnchor":13.32},"down":{"spec":"mouth","reason":"name-change","terminus":[-87.423163,36.60047],"enteredNames":["Little West Fork"],"distKmFromAnchor":10.97},"vaaUsed":false,"toleranceM":12}},"geometry":{"type":"MultiLineString","coordinates":[[[-87.60977,36.5344],[-87.60859,36.53389],[-87.60754,36.53366],[-87.60667,36.53419],[-87.60533,36.5339],[-87.60434,36.53441],[-87.60321,36.53463],[-87.60134,36.53474],[-87.59861,36.53629],[-87.59737,36.53668],[-87.59543,36.53776],[-87.59502,36.53783],[-87.59331,36.53761],[-87.59254,36.53788],[-87.59189,36.53764],[-87.59149,36.53818],[-87.58941,36.53782],[-87.58832,36.53839],[-87.58638,36.53892],[-87.58593,36.53936],[-87.58535,36.53903],[-87.585,36.53902],[-87.58466,36.53955],[-87.58407,36.53975],[-87.58384,36.53997],[-87.58239,36.54022],[-87.58113,36.54069],[-87.58061,36.54048],[-87.57968,36.54058],[-87.57951,36.54109],[-87.57869,36.54109],[-87.57837,36.54136],[-87.57756,36.54142],[-87.57695,36.54092],[-87.5766,36.54126],[-87.57623,36.54102],[-87.57585,36.54102],[-87.57538,36.54148],[-87.57444,36.54099],[-87.57377,36.54099],[-87.57344,36.54118],[-87.57308,36.54099],[-87.57303,36.54113],[-87.57251,36.54131],[-87.57216,36.54068],[-87.57146,36.54087],[-87.57122,36.54046],[-87.57099,36.54054],[-87.57082,36.54093],[-87.57037,36.54078],[-87.56991,36.5409],[-87.56977,36.54135],[-87.56941,36.5414],[-87.56936,36.54165],[-87.56881,36.54131],[-87.56898,36.54062],[-87.56866,36.54052],[-87.56807,36.54096],[-87.56766,36.54084],[-87.56758,36.54114],[-87.56738,36.54122],[-87.56656,36.54108],[-87.56491,36.54114],[-87.56385,36.54158],[-87.56371,36.54185],[-87.56304,36.54209],[-87.56277,36.54246],[-87.56257,36.54246],[-87.56208,36.54207],[-87.56048,36.54248],[-87.55964,36.54246],[-87.559,36.54272],[-87.55835,36.5427],[-87.55796,36.54311],[-87.55736,36.54332],[-87.55676,36.54336],[-87.55613,36.543],[-87.55489,36.54337],[-87.55386,36.54343],[-87.55319,36.54393],[-87.55258,36.544],[-87.55218,36.54423],[-87.55218,36.54515],[-87.55188,36.54575],[-87.55057,36.54598],[-87.54988,36.54696],[-87.5495,36.54715],[-87.54863,36.54724],[-87.54811,36.54757],[-87.5476,36.54767],[-87.54706,36.54768],[-87.54636,36.54731],[-87.54574,36.5472],[-87.54355,36.54797],[-87.54277,36.54796],[-87.54188,36.54773],[-87.5406,36.54783],[-87.53979,36.54803],[-87.53905,36.54843],[-87.53799,36.54838],[-87.53641,36.54889],[-87.53567,36.54882],[-87.53479,36.54831],[-87.53419,36.54848],[-87.53307,36.54827],[-87.53265,36.54837],[-87.53248,36.54847],[-87.53233,36.54951],[-87.53173,36.55006],[-87.53126,36.55101],[-87.5301,36.55174],[-87.5302,36.55222],[-87.53088,36.55284],[-87.53069,36.55328],[-87.53019,36.55351],[-87.52945,36.55332],[-87.52865,36.55328],[-87.52843,36.55339],[-87.5279,36.55407],[-87.52783,36.55481],[-87.52641,36.55765],[-87.52609,36.5578],[-87.52562,36.55778],[-87.52362,36.55727],[-87.52291,36.55744],[-87.52225,36.55912],[-87.5213,36.56013],[-87.5211,36.56082],[-87.52057,36.56144],[-87.52012,36.56238],[-87.51987,36.56572],[-87.5197,36.56624],[-87.5184,36.56752],[-87.51713,36.56848],[-87.5174,36.56872],[-87.5176,36.57004],[-87.51833,36.57127],[-87.51826,36.57162],[-87.51623,36.57254],[-87.51491,36.57411],[-87.51371,36.57504],[-87.5128,36.57515],[-87.51234,36.57486],[-87.51188,36.57428],[-87.51061,36.57417],[-87.51002,36.57386],[-87.50881,36.57361],[-87.50832,36.5733],[-87.50725,36.57297],[-87.50632,36.57292],[-87.5055,36.57316],[-87.50262,36.57468],[-87.50508,36.57325],[-87.50425,36.57376],[-87.50309,36.57477],[-87.50258,36.57466],[-87.5024,36.5741],[-87.50194,36.57408],[-87.50102,36.57472],[-87.50046,36.57541],[-87.49964,36.57576],[-87.49921,36.5761],[-87.49915,36.57636],[-87.49879,36.57649],[-87.49788,36.5764],[-87.49617,36.57655],[-87.49443,36.5763],[-87.49299,36.57585],[-87.49225,36.57607],[-87.49183,36.57669],[-87.49149,36.57691],[-87.49012,36.57678],[-87.48921,36.57639],[-87.48869,36.57641],[-87.4883,36.57657],[-87.48775,36.5771],[-87.48704,36.57741],[-87.48669,36.57806],[-87.48644,36.57905],[-87.48598,36.57948],[-87.48162,36.58135],[-87.48045,36.58199],[-87.47854,36.5841],[-87.47871,36.58453],[-87.47853,36.58493],[-87.47733,36.58603],[-87.47701,36.58652],[-87.47592,36.58684],[-87.47504,36.5868],[-87.47436,36.58656],[-87.47382,36.58668],[-87.47344,36.58725],[-87.47266,36.58776],[-87.4726,36.58828],[-87.47199,36.58894],[-87.47106,36.58899],[-87.47002,36.58845],[-87.46851,36.58826],[-87.46809,36.58838],[-87.46787,36.58893],[-87.46763,36.58908],[-87.46643,36.58872],[-87.46527,36.58858],[-87.46461,36.58888],[-87.46395,36.58955],[-87.46362,36.58968],[-87.46298,36.58966],[-87.46171,36.58926],[-87.4611,36.58932],[-87.45982,36.59037],[-87.45964,36.5912],[-87.45885,36.59166],[-87.45865,36.59232],[-87.45839,36.59252],[-87.45661,36.59226],[-87.45569,36.59249],[-87.45329,36.59262],[-87.45226,36.5925],[-87.45169,36.59211],[-87.45141,36.59216],[-87.45092,36.59265],[-87.44955,36.59299],[-87.44784,36.59294],[-87.44688,36.59336],[-87.44504,36.59359],[-87.44439,36.59395],[-87.44429,36.59478],[-87.44394,36.59559],[-87.44335,36.59597],[-87.4429,36.59668],[-87.44226,36.5969],[-87.4411,36.59658],[-87.44013,36.59716],[-87.43937,36.59735],[-87.43825,36.59706],[-87.43773,36.59723],[-87.43696,36.59806],[-87.43616,36.59982],[-87.43559,36.60004],[-87.43476,36.60001],[-87.43429,36.59989],[-87.43352,36.5994],[-87.43226,36.59932],[-87.43188,36.59909],[-87.43178,36.59864],[-87.43227,36.59766],[-87.43253,36.59636],[-87.43347,36.59515],[-87.43365,36.59457],[-87.43326,36.59416],[-87.4312,36.59353],[-87.43045,36.59353],[-87.43009,36.59374],[-87.43004,36.59441],[-87.43031,36.59505],[-87.43118,36.59605],[-87.43129,36.59642],[-87.43125,36.59674],[-87.43068,36.59753],[-87.42989,36.59782],[-87.42841,36.59787],[-87.42698,36.59757],[-87.42619,36.59765],[-87.42562,36.59727],[-87.42526,36.59731],[-87.42466,36.5978],[-87.42386,36.5996],[-87.42316,36.60047]]]}}
