{"type":"Feature","properties":{"id":"bradley-creek","name":"Bradley Creek","waterbodyType":"creek","throughLakeIds":[],"allowOpenEnds":false,"source":"nhd-hu8-06030003","approximate":false,"labelAnchor":[-85.98494,35.39722],"bounds":[-86.00134,35.32562,-85.89604,35.4748],"crs":"EPSG:4326","coordinateOrder":"longitude,latitude","partCount":1,"vertexCount":287,"lengthKm":27.26,"sourceIds":["138652786","138652787","138652788","138652789","138652790","138652792","138652791","138652793","138652794","138652795","138652796","138652797","138652798","138652799","138652800","138652801","138652785","138653747","138652783","138652782","138652781","138652779","138652780","138652778","138652777","138652776","138652775","138652774","138623618"],"sourceRetrieved":"2026-09-11","geometrySource":"nhd","hu8":"06030003","simplification":{"toleranceM":10,"verticesBefore":1367,"verticesAfter":287,"budgetBytes":81920},"trace":{"anchor":{"lat":35.3972,"lon":-85.9849,"snapDistM":3.8},"up":{"spec":"headwater","reason":"headwater","terminus":[-85.896042,35.474803],"distKmFromAnchor":16.14},"down":{"spec":"mouth","reason":"terminal-node","terminus":[-86.001337,35.325623],"enteredNames":null,"distKmFromAnchor":11.57},"vaaUsed":false,"toleranceM":12}},"geometry":{"type":"MultiLineString","coordinates":[[[-85.89604,35.4748],[-85.89829,35.47412],[-85.90026,35.4721],[-85.90103,35.47045],[-85.90083,35.4694],[-85.90092,35.4689],[-85.90198,35.46788],[-85.90214,35.46736],[-85.90263,35.46674],[-85.90394,35.46597],[-85.90453,35.46543],[-85.90491,35.46531],[-85.9054,35.46544],[-85.90593,35.46491],[-85.90729,35.46532],[-85.90747,35.46554],[-85.90885,35.46551],[-85.90987,35.46483],[-85.91035,35.46407],[-85.911,35.46359],[-85.91243,35.46309],[-85.91308,35.46312],[-85.91366,35.46285],[-85.91456,35.46302],[-85.91547,35.46345],[-85.91611,35.46334],[-85.9169,35.46299],[-85.91752,35.46233],[-85.91849,35.46163],[-85.91859,35.46124],[-85.91879,35.46114],[-85.91878,35.46081],[-85.91924,35.4605],[-85.91941,35.46046],[-85.9196,35.46066],[-85.92149,35.46063],[-85.92191,35.46024],[-85.92263,35.45997],[-85.92317,35.45923],[-85.92341,35.45935],[-85.9239,35.45916],[-85.92422,35.45858],[-85.92398,35.45841],[-85.92545,35.45741],[-85.92618,35.45759],[-85.92708,35.4573],[-85.92876,35.45787],[-85.92956,35.45761],[-85.93105,35.45631],[-85.93261,35.45638],[-85.93282,35.45626],[-85.93315,35.45558],[-85.93412,35.45558],[-85.93584,35.45439],[-85.93611,35.45329],[-85.93812,35.45258],[-85.93816,35.45214],[-85.9385,35.4517],[-85.93933,35.45163],[-85.94005,35.45132],[-85.9406,35.45133],[-85.94126,35.45082],[-85.94173,35.45093],[-85.94217,35.45066],[-85.94279,35.45071],[-85.94333,35.45023],[-85.94339,35.44975],[-85.94423,35.44957],[-85.94453,35.44933],[-85.94566,35.44927],[-85.94645,35.44895],[-85.94708,35.4489],[-85.94883,35.44795],[-85.94989,35.44807],[-85.95132,35.44796],[-85.95241,35.44675],[-85.95303,35.44643],[-85.95415,35.44544],[-85.95664,35.44427],[-85.95711,35.44371],[-85.95779,35.44365],[-85.95971,35.44285],[-85.96006,35.44247],[-85.9601,35.442],[-85.95993,35.44057],[-85.96012,35.4402],[-85.95995,35.43986],[-85.96056,35.43928],[-85.96057,35.43882],[-85.96026,35.43845],[-85.96001,35.43751],[-85.96032,35.43648],[-85.96011,35.43573],[-85.96017,35.43546],[-85.96097,35.43491],[-85.96107,35.43467],[-85.96095,35.43444],[-85.95909,35.43421],[-85.95905,35.43395],[-85.95938,35.43361],[-85.95938,35.43339],[-85.95868,35.43287],[-85.95875,35.43248],[-85.95842,35.43204],[-85.95867,35.43151],[-85.95808,35.4311],[-85.95751,35.42956],[-85.95757,35.42941],[-85.95796,35.4293],[-85.95812,35.42893],[-85.95862,35.42857],[-85.95837,35.4281],[-85.95916,35.42757],[-85.95916,35.42691],[-85.95976,35.42556],[-85.95965,35.42434],[-85.95926,35.42338],[-85.95886,35.42287],[-85.95869,35.42214],[-85.95802,35.42124],[-85.95791,35.42042],[-85.95816,35.4197],[-85.95853,35.41966],[-85.95887,35.4192],[-85.95961,35.41875],[-85.96128,35.41852],[-85.96157,35.41816],[-85.96205,35.41806],[-85.96284,35.41756],[-85.96343,35.41696],[-85.96507,35.41641],[-85.96565,35.41645],[-85.96639,35.4169],[-85.96659,35.4167],[-85.96652,35.4164],[-85.96796,35.41607],[-85.96903,35.41619],[-85.97082,35.41675],[-85.97121,35.41673],[-85.97332,35.41559],[-85.97364,35.41515],[-85.97454,35.41491],[-85.97507,35.41421],[-85.97617,35.41343],[-85.97689,35.41211],[-85.97691,35.41159],[-85.9779,35.41078],[-85.98032,35.41035],[-85.98072,35.41041],[-85.98104,35.41003],[-85.98148,35.40993],[-85.9818,35.40946],[-85.98315,35.4088],[-85.98326,35.40859],[-85.98311,35.40836],[-85.98377,35.40791],[-85.98393,35.40763],[-85.98454,35.40748],[-85.98494,35.40785],[-85.98539,35.40792],[-85.98587,35.40821],[-85.98725,35.40848],[-85.9876,35.40812],[-85.98746,35.40783],[-85.98833,35.40772],[-85.98832,35.4069],[-85.98791,35.40634],[-85.98824,35.40596],[-85.98827,35.40567],[-85.98799,35.40515],[-85.98821,35.40496],[-85.98881,35.40492],[-85.98913,35.40451],[-85.9891,35.40427],[-85.98868,35.40356],[-85.98806,35.40347],[-85.98782,35.40313],[-85.98746,35.40308],[-85.98718,35.40255],[-85.98632,35.40186],[-85.98626,35.40157],[-85.98653,35.40102],[-85.98614,35.40016],[-85.98581,35.40016],[-85.98495,35.39813],[-85.98485,35.39735],[-85.98513,35.39681],[-85.98392,35.39469],[-85.98248,35.39424],[-85.98196,35.39451],[-85.98101,35.39469],[-85.98022,35.39543],[-85.9798,35.39562],[-85.97859,35.39571],[-85.97711,35.39624],[-85.97664,35.39626],[-85.97602,35.39613],[-85.97508,35.39555],[-85.97474,35.39434],[-85.9741,35.39393],[-85.97393,35.39327],[-85.97354,35.39272],[-85.97356,35.39248],[-85.97403,35.39205],[-85.97447,35.39128],[-85.97444,35.39047],[-85.9747,35.38938],[-85.97524,35.38909],[-85.97579,35.38852],[-85.97632,35.38732],[-85.9771,35.38626],[-85.97851,35.38557],[-85.97862,35.38536],[-85.97847,35.38468],[-85.97943,35.38374],[-85.97931,35.38271],[-85.97964,35.38229],[-85.97988,35.38015],[-85.9798,35.37859],[-85.97915,35.37537],[-85.97845,35.3746],[-85.97749,35.3742],[-85.97752,35.37376],[-85.97633,35.37354],[-85.97627,35.37305],[-85.97661,35.37243],[-85.97569,35.37182],[-85.97455,35.37157],[-85.97404,35.37168],[-85.97289,35.37127],[-85.97279,35.37091],[-85.97296,35.37022],[-85.97256,35.36959],[-85.97249,35.3686],[-85.97176,35.36752],[-85.97162,35.36662],[-85.97029,35.36539],[-85.97007,35.36477],[-85.97083,35.36381],[-85.97262,35.36271],[-85.97332,35.36163],[-85.97496,35.36082],[-85.9783,35.35871],[-85.97894,35.35702],[-85.9791,35.35586],[-85.98017,35.35472],[-85.98088,35.35456],[-85.98119,35.3543],[-85.98039,35.35016],[-85.97991,35.34878],[-85.97943,35.34804],[-85.97942,35.34657],[-85.97907,35.3451],[-85.97934,35.34423],[-85.98035,35.34275],[-85.98083,35.34259],[-85.98172,35.34313],[-85.98301,35.34267],[-85.98406,35.34137],[-85.98409,35.34016],[-85.98472,35.33988],[-85.98555,35.33897],[-85.98656,35.33829],[-85.98656,35.33782],[-85.98695,35.33732],[-85.98811,35.33703],[-85.98918,35.33562],[-85.99011,35.33532],[-85.99081,35.33474],[-85.99158,35.33334],[-85.99227,35.33278],[-85.99242,35.33223],[-85.99453,35.33135],[-85.99462,35.33102],[-85.99514,35.33065],[-85.99542,35.32927],[-85.9959,35.32848],[-85.9963,35.32838],[-85.99715,35.32891],[-85.99744,35.32875],[-85.99756,35.3282],[-85.99852,35.32835],[-85.9991,35.32797],[-85.99998,35.32794],[-86.00046,35.32756],[-86.00098,35.32678],[-86.00134,35.32562]]]}}
