{"type":"Feature","properties":{"id":"cosby-creek","name":"Cosby Creek","waterbodyType":"creek","throughLakeIds":[],"allowOpenEnds":false,"source":"nhd-hu8-06010106","approximate":false,"labelAnchor":[-83.22063,35.84548],"bounds":[-83.25039,35.74037,-83.18086,35.88318],"crs":"EPSG:4326","coordinateOrder":"longitude,latitude","partCount":1,"vertexCount":207,"lengthKm":24.87,"sourceIds":["{2E424961-F33B-4F6B-BAF3-ABA6C46A8F32}","{1D628838-850C-4F24-B518-A904FCFA6FEB}","{511F59F8-0B40-46E3-B6C5-0BB449972DD6}","{961E5052-A9B6-4709-A011-C9D9DEFF7ABB}","{2876DE71-1C0A-47EE-8B4F-7C0FF887571C}","{BC1BBDF2-4D02-4112-95FA-BABAB8D75AD2}","132645708","{AF6EC402-0F67-4597-88F6-DC5EF5101A33}","{16ECB8D7-C0E4-43BE-87F8-9FC9E6698026}","{622DCD57-474A-4070-A326-D0B555DC3AB3}","{29FB4645-6905-4F4C-9A3C-F83354B21F72}","132646122","{6018F0C2-2FB9-46DA-BF6F-0D1BDF779487}","{42871FF8-08B5-4D32-B676-0E487C6D944D}","132646291","132646303","132646461","132646906","{6A77390D-491E-4EFA-8EE0-BA2393836FFC}","132647075","{5BA5F7C6-1A7F-47F5-85C9-E6FB2E285B47}","132647264","132647470","132647693","{97142D8E-D9BF-46EB-B5C2-63E53F5DDA82}","132647845","132647851","132647948","132648036","132648076","132648131","132648142","132648146","{66679366-C7F2-4FA5-A72F-FFE67F1D3837}","{870955F0-3517-468B-87A6-F3215623B4BA}","132645503","132645470","{7E9DF547-DA86-4272-BE0B-DC27BE8078DA}","132645445","{7A9D1F1E-D040-49CC-84DB-CB9A6387F344}","{C3232FA0-ED39-4F39-809F-97DFBFBEC7ED}","{13C21C5C-AA50-4AAD-A7B1-DDE00AC6D227}","{E3177AB7-84B1-4498-8263-DC304945C9A9}","{4E64FE65-FD76-45A9-8B61-12C642B6BD80}","{C2491440-10FB-4B20-9EC6-17C1A90F0E49}","{2C2B9E98-C1AE-4F16-9D14-15DD08310F5A}","{82F6F8C0-2F2C-49B6-981D-4BCC508D47A0}","{8EFBEA49-450C-4FE3-A02E-3FAE1CDBC422}","{CCFCB84E-E139-457F-909E-BDB40EC1238A}","132645258","{B0629E7C-2247-41B0-B65F-A5E46B091EDF}"],"sourceRetrieved":"2026-09-11","geometrySource":"nhd","hu8":"06010106","simplification":{"toleranceM":10,"verticesBefore":3518,"verticesAfter":207,"budgetBytes":81920},"trace":{"anchor":{"lat":35.845471,"lon":-83.220629,"snapDistM":0.7},"up":{"spec":"headwater","reason":"headwater","terminus":[-83.180861,35.743925],"distKmFromAnchor":17.84},"down":{"spec":"mouth","reason":"name-change","terminus":[-83.197656,35.88292],"enteredNames":["Pigeon River"],"distKmFromAnchor":6.86},"vaaUsed":false,"toleranceM":12}},"geometry":{"type":"MultiLineString","coordinates":[[[-83.18086,35.74392],[-83.18248,35.74306],[-83.18293,35.74267],[-83.18348,35.74257],[-83.18511,35.74103],[-83.18602,35.74048],[-83.18658,35.74037],[-83.1877,35.74043],[-83.18954,35.7415],[-83.19093,35.74142],[-83.19293,35.74181],[-83.19381,35.74244],[-83.19429,35.74312],[-83.19634,35.74373],[-83.19663,35.74396],[-83.1977,35.74413],[-83.19845,35.74474],[-83.19907,35.74565],[-83.19921,35.7462],[-83.1999,35.74707],[-83.19981,35.74734],[-83.20021,35.74773],[-83.20033,35.7484],[-83.20068,35.74886],[-83.20096,35.74894],[-83.20233,35.75128],[-83.20312,35.75177],[-83.20357,35.75233],[-83.20444,35.75272],[-83.20485,35.75328],[-83.20539,35.75357],[-83.20604,35.75368],[-83.20627,35.75406],[-83.20684,35.75446],[-83.20683,35.75495],[-83.20713,35.75526],[-83.20701,35.75564],[-83.20723,35.75628],[-83.20722,35.7574],[-83.20771,35.75834],[-83.20773,35.75909],[-83.20924,35.76069],[-83.21002,35.76127],[-83.20976,35.76217],[-83.2102,35.76297],[-83.21131,35.76349],[-83.21172,35.76389],[-83.21154,35.76457],[-83.21168,35.76541],[-83.21141,35.76604],[-83.21149,35.76642],[-83.21126,35.76676],[-83.21131,35.76722],[-83.21155,35.76749],[-83.21124,35.76811],[-83.21081,35.76854],[-83.21088,35.76921],[-83.21057,35.76954],[-83.21069,35.77013],[-83.21018,35.7707],[-83.20993,35.7713],[-83.21095,35.77212],[-83.2111,35.7727],[-83.21096,35.77346],[-83.21225,35.77483],[-83.21201,35.77571],[-83.21257,35.77628],[-83.21288,35.77798],[-83.21365,35.77854],[-83.21394,35.77934],[-83.21431,35.77971],[-83.21456,35.78028],[-83.21514,35.78065],[-83.21544,35.78116],[-83.21632,35.78141],[-83.21653,35.78179],[-83.21761,35.78263],[-83.21799,35.78321],[-83.21884,35.78377],[-83.22123,35.78489],[-83.22206,35.78509],[-83.22248,35.78552],[-83.22434,35.78633],[-83.22626,35.78679],[-83.22695,35.78767],[-83.2297,35.78884],[-83.23082,35.78993],[-83.23251,35.79079],[-83.23359,35.79282],[-83.23478,35.79342],[-83.23577,35.79437],[-83.23556,35.79561],[-83.23571,35.79603],[-83.23771,35.79728],[-83.23813,35.79863],[-83.23914,35.79991],[-83.23951,35.80093],[-83.24036,35.80227],[-83.24091,35.80283],[-83.24113,35.80342],[-83.24141,35.80356],[-83.24243,35.80353],[-83.24411,35.80309],[-83.2447,35.80308],[-83.2466,35.80334],[-83.24731,35.80373],[-83.24891,35.80409],[-83.24918,35.80456],[-83.24882,35.8065],[-83.24891,35.80719],[-83.25039,35.80901],[-83.24948,35.80964],[-83.24824,35.81116],[-83.24772,35.81241],[-83.24762,35.81405],[-83.24781,35.81468],[-83.24834,35.81542],[-83.24832,35.81604],[-83.24684,35.81863],[-83.2467,35.8193],[-83.24704,35.82003],[-83.24684,35.82069],[-83.24694,35.82135],[-83.24599,35.82457],[-83.2453,35.82531],[-83.24448,35.82576],[-83.24448,35.826],[-83.24469,35.82617],[-83.24421,35.82697],[-83.24437,35.82779],[-83.24411,35.82888],[-83.24426,35.82935],[-83.24419,35.82988],[-83.24304,35.83132],[-83.24322,35.83173],[-83.24426,35.83206],[-83.24488,35.83249],[-83.24598,35.83399],[-83.24612,35.8345],[-83.24547,35.83514],[-83.24505,35.83531],[-83.24143,35.83558],[-83.24057,35.83612],[-83.23756,35.83711],[-83.23598,35.83832],[-83.23508,35.83862],[-83.23469,35.83905],[-83.23452,35.83986],[-83.2354,35.84132],[-83.23424,35.84268],[-83.23297,35.84349],[-83.23189,35.84387],[-83.23035,35.84408],[-83.22711,35.84571],[-83.22398,35.84575],[-83.22063,35.84548],[-83.22343,35.8457],[-83.22129,35.8457],[-83.22049,35.84542],[-83.21982,35.84496],[-83.21881,35.84551],[-83.21915,35.84584],[-83.21919,35.84611],[-83.219,35.84664],[-83.21846,35.84736],[-83.21778,35.84989],[-83.21787,35.85042],[-83.21839,35.85141],[-83.21816,35.85218],[-83.21826,35.85276],[-83.21867,35.85382],[-83.22016,35.8563],[-83.22094,35.85709],[-83.22208,35.85785],[-83.22222,35.85866],[-83.22195,35.85939],[-83.22253,35.86084],[-83.22274,35.86217],[-83.22403,35.86425],[-83.22402,35.86677],[-83.22349,35.8684],[-83.22401,35.87052],[-83.22397,35.87266],[-83.2238,35.87306],[-83.22327,35.87337],[-83.22057,35.87347],[-83.21909,35.87448],[-83.21817,35.87482],[-83.21713,35.87558],[-83.21647,35.87577],[-83.21573,35.87571],[-83.21419,35.87634],[-83.21398,35.87668],[-83.214,35.87744],[-83.2142,35.87791],[-83.2147,35.8783],[-83.21464,35.87877],[-83.21369,35.87928],[-83.20866,35.88273],[-83.20763,35.88309],[-83.20611,35.88318],[-83.20548,35.88297],[-83.20434,35.88201],[-83.20333,35.88179],[-83.19956,35.88201],[-83.19891,35.8822],[-83.19766,35.88292]]]}}
