{"type":"Feature","properties":{"id":"tellico-river","name":"Tellico River","waterbodyType":"river","throughLakeIds":["tellico-lake"],"allowOpenEnds":false,"source":"nhd-hu8-06010204","approximate":false,"labelAnchor":[-84.27908,35.36188],"bounds":[-84.29171,35.24641,-84.00548,35.60347],"crs":"EPSG:4326","coordinateOrder":"longitude,latitude","partCount":1,"vertexCount":713,"lengthKm":88.36,"sourceIds":["112266385","112266383","112266427","112266425","112266747","112266679","112266799","112266887","112266853","112266883","112266995","112267129","112267307","112267335","112267405","112267385","112267351","112267245","112267145","112267103","112267521","112267739","112267763","112267917","112267585","112267801","112267827","112267907","112268187","112268317","112268431","112268477","112268529","112268709","112268749","112269007","112269117","112269307","112269309","112269323","112269383","112269377","112269575","112269623","112269641","112269643","112269919","112269975","112269987","112270071","112270265","112270325","112270395","112270397","112270411","112270459","112270551","112270555","112270491","112270493","112270311","112270335","112270371","112270719","112270717","112270713","112270877","112270921","112266239","112266205","112266137","112266087","112266077","112266053","112265875","112265489","112265439","112265433","112265047","112264891","112264719","112264231","112264019","112263721","112263575","112263479","112263287","112263187","{0C6B3574-B553-4A1B-B4F7-EA5A724ECE66}","112263151","112263119","112262933","112262935","112262729","112262567","112262299","112262275","112262181","112262137","112262073","112261845","112261795","112261739","112261721","112261675","112261669","112261601","112261599","112261591","112261399","112261369","112261337","112261327","112261317","112261433","112261449","112261603","112261473","112261461","112261453","112261421","112261371","112261311","112261303","112261167","112261109","112261135","112261147","112261195","112261217","112261237","112261289","112261305","112261415","112261425","112261159","112261149","112261095","112261079","112260749","112260739","112260639","112260561","112260551","112260457","112260449","112260347","112260285","112260243","112260217","112260205","112260197","112260189","112260003","112259993","112259971","112259933","112259709","112259613","112259577","112259453","112259401","112259355","112259345","112259293","112259255","112259245","112259181","112259033","112258899","112258865","112258749","112258629","112258555","112258533","112258299","112258081","112258071","112257837","112257497","112257379","112257245","112257049","112256831","112256727","112256725"],"sourceRetrieved":"2026-09-11","geometrySource":"nhd","hu8":"06010204","simplification":{"toleranceM":10,"verticesBefore":3761,"verticesAfter":713,"budgetBytes":81920},"trace":{"anchor":{"lat":35.362,"lon":-84.279,"snapDistM":14.8},"up":{"spec":"headwater","reason":"headwater","terminus":[-84.005485,35.247478],"distKmFromAnchor":44.6},"down":{"spec":"mouth","reason":"name-change","terminus":[-84.211591,35.603474],"enteredNames":["Little Tennessee River"],"distKmFromAnchor":44.2},"vaaUsed":false,"toleranceM":12}},"geometry":{"type":"MultiLineString","coordinates":[[[-84.00548,35.24748],[-84.00712,35.24654],[-84.00817,35.24641],[-84.00936,35.2465],[-84.01031,35.24676],[-84.01187,35.24692],[-84.01239,35.24735],[-84.01284,35.24811],[-84.01415,35.24912],[-84.01509,35.24954],[-84.01555,35.24958],[-84.01731,35.24925],[-84.0189,35.2503],[-84.01957,35.25092],[-84.01976,35.25141],[-84.01936,35.25221],[-84.01942,35.25289],[-84.01988,35.25365],[-84.02201,35.25469],[-84.02266,35.25475],[-84.02372,35.25385],[-84.02448,35.25378],[-84.02509,35.25354],[-84.0273,35.25404],[-84.02806,35.25396],[-84.03024,35.25262],[-84.03053,35.25226],[-84.03207,35.25264],[-84.03239,35.25324],[-84.0324,35.254],[-84.03196,35.25489],[-84.03197,35.25526],[-84.03226,35.25576],[-84.03362,35.25716],[-84.03379,35.2576],[-84.03366,35.25902],[-84.03329,35.25943],[-84.03265,35.2608],[-84.03278,35.26166],[-84.0329,35.26196],[-84.03316,35.26211],[-84.03533,35.2626],[-84.03617,35.26263],[-84.03679,35.26227],[-84.03779,35.26213],[-84.03971,35.26292],[-84.04058,35.26296],[-84.04294,35.26366],[-84.04343,35.26268],[-84.04445,35.26246],[-84.04502,35.26168],[-84.04666,35.26121],[-84.04777,35.26025],[-84.04882,35.25995],[-84.05147,35.25793],[-84.05193,35.25779],[-84.0526,35.25782],[-84.05433,35.25847],[-84.05555,35.25841],[-84.05587,35.25857],[-84.05612,35.25853],[-84.05688,35.25831],[-84.05718,35.25754],[-84.0575,35.25729],[-84.05879,35.2571],[-84.05997,35.25626],[-84.0613,35.25584],[-84.06153,35.25589],[-84.06241,35.25668],[-84.06317,35.25817],[-84.06431,35.25876],[-84.06524,35.25891],[-84.06664,35.25877],[-84.06744,35.25889],[-84.06792,35.25877],[-84.07018,35.25934],[-84.07107,35.25928],[-84.07178,35.25954],[-84.07308,35.25959],[-84.07374,35.26006],[-84.07431,35.26026],[-84.07606,35.26001],[-84.07798,35.26036],[-84.07901,35.26029],[-84.08011,35.26063],[-84.08125,35.26128],[-84.0818,35.2614],[-84.0825,35.2612],[-84.08341,35.26064],[-84.08414,35.26065],[-84.087,35.26387],[-84.08718,35.26424],[-84.08707,35.26448],[-84.08657,35.26469],[-84.08514,35.26436],[-84.08417,35.2644],[-84.08384,35.26467],[-84.08416,35.26691],[-84.08463,35.26807],[-84.08561,35.2687],[-84.08714,35.26899],[-84.08736,35.26918],[-84.08675,35.27046],[-84.086,35.27105],[-84.08568,35.27161],[-84.08533,35.27292],[-84.08543,35.27317],[-84.08578,35.2734],[-84.08711,35.27356],[-84.09014,35.27521],[-84.09224,35.27583],[-84.09424,35.27751],[-84.09508,35.2786],[-84.09576,35.27898],[-84.09634,35.27915],[-84.099,35.27928],[-84.10007,35.27976],[-84.10006,35.28039],[-84.09967,35.28086],[-84.09777,35.28174],[-84.09667,35.28205],[-84.09636,35.28261],[-84.0963,35.28347],[-84.09412,35.28493],[-84.0937,35.28638],[-84.0938,35.28695],[-84.09419,35.28753],[-84.09448,35.28782],[-84.09589,35.28771],[-84.09732,35.28786],[-84.09906,35.28866],[-84.10131,35.28933],[-84.10197,35.28934],[-84.10339,35.289],[-84.10403,35.28901],[-84.1047,35.2892],[-84.10555,35.28955],[-84.10638,35.2902],[-84.10678,35.29094],[-84.10697,35.29184],[-84.10767,35.29242],[-84.10834,35.29257],[-84.11156,35.29269],[-84.1127,35.29333],[-84.11282,35.29383],[-84.11211,35.29451],[-84.11168,35.29528],[-84.11153,35.2958],[-84.11161,35.29637],[-84.1136,35.29647],[-84.11643,35.29808],[-84.11734,35.29923],[-84.11786,35.30051],[-84.11828,35.30226],[-84.11959,35.30347],[-84.12167,35.30497],[-84.12168,35.3058],[-84.12137,35.30654],[-84.1214,35.3078],[-84.12183,35.30901],[-84.12321,35.31027],[-84.12377,35.31109],[-84.12619,35.31329],[-84.12719,35.31455],[-84.1278,35.31507],[-84.13106,35.31576],[-84.13234,35.31643],[-84.1329,35.31652],[-84.13346,35.31685],[-84.1358,35.31762],[-84.13822,35.319],[-84.13945,35.32024],[-84.1406,35.3203],[-84.1417,35.32101],[-84.14335,35.32134],[-84.14372,35.32158],[-84.14385,35.32227],[-84.14332,35.32293],[-84.14367,35.32429],[-84.1433,35.3247],[-84.14256,35.32481],[-84.14224,35.32471],[-84.14082,35.32379],[-84.14047,35.32381],[-84.14023,35.32422],[-84.14053,35.32482],[-84.14043,35.32594],[-84.14067,35.32626],[-84.14117,35.32656],[-84.14242,35.32676],[-84.14395,35.32807],[-84.14484,35.32825],[-84.14694,35.32801],[-84.14821,35.3285],[-84.14878,35.32847],[-84.14903,35.32828],[-84.14925,35.32759],[-84.14915,35.32673],[-84.14885,35.32605],[-84.14775,35.32538],[-84.1478,35.3248],[-84.14826,35.32445],[-84.14865,35.3244],[-84.14991,35.32471],[-84.15198,35.32469],[-84.15297,35.32505],[-84.15407,35.32569],[-84.15516,35.3269],[-84.1555,35.32747],[-84.15571,35.32865],[-84.1562,35.32946],[-84.15602,35.33012],[-84.15614,35.33065],[-84.15674,35.33099],[-84.15718,35.33097],[-84.15812,35.33053],[-84.15943,35.33041],[-84.16026,35.33095],[-84.16098,35.33045],[-84.16132,35.32957],[-84.16129,35.32917],[-84.16042,35.32794],[-84.16055,35.32725],[-84.16113,35.32661],[-84.16244,35.32638],[-84.16362,35.32561],[-84.16433,35.32424],[-84.16521,35.32352],[-84.16537,35.32322],[-84.16532,35.32254],[-84.16579,35.32165],[-84.16629,35.32116],[-84.16664,35.32111],[-84.16705,35.32123],[-84.16788,35.32185],[-84.16861,35.32304],[-84.1713,35.3251],[-84.17149,35.32606],[-84.17273,35.32684],[-84.17487,35.32783],[-84.17576,35.32801],[-84.17655,35.32798],[-84.17689,35.32778],[-84.1769,35.32728],[-84.17575,35.32581],[-84.17571,35.3252],[-84.17635,35.32477],[-84.17714,35.32485],[-84.178,35.32514],[-84.18214,35.32723],[-84.18256,35.32758],[-84.1825,35.32805],[-84.18086,35.32917],[-84.17986,35.3295],[-84.17923,35.32999],[-84.17926,35.33043],[-84.17973,35.33087],[-84.18179,35.33064],[-84.18416,35.33126],[-84.18493,35.33163],[-84.18532,35.33222],[-84.18547,35.33319],[-84.18601,35.33404],[-84.18721,35.33489],[-84.18877,35.33652],[-84.18941,35.33887],[-84.18997,35.33935],[-84.19124,35.34006],[-84.19211,35.34125],[-84.19309,35.34207],[-84.19414,35.34268],[-84.19531,35.34299],[-84.19689,35.34288],[-84.19822,35.34239],[-84.19958,35.3423],[-84.20058,35.34197],[-84.20144,35.34103],[-84.20135,35.34027],[-84.20053,35.33915],[-84.20053,35.3385],[-84.20128,35.33775],[-84.2025,35.33697],[-84.20489,35.33702],[-84.20539,35.33732],[-84.20599,35.33849],[-84.2065,35.33886],[-84.20704,35.33898],[-84.20765,35.33892],[-84.20807,35.3385],[-84.20806,35.3371],[-84.20788,35.33692],[-84.20699,35.33682],[-84.20559,35.3363],[-84.20456,35.33541],[-84.20453,35.33487],[-84.20472,35.33435],[-84.20522,35.33397],[-84.2074,35.33424],[-84.20889,35.33479],[-84.21031,35.33577],[-84.21157,35.33608],[-84.21229,35.33565],[-84.21251,35.33496],[-84.21339,35.33362],[-84.2137,35.33254],[-84.21448,35.33209],[-84.21554,35.33201],[-84.216,35.33242],[-84.21656,35.33355],[-84.21746,35.33445],[-84.21823,35.33482],[-84.21911,35.33478],[-84.2193,35.33465],[-84.22045,35.33508],[-84.22078,35.33543],[-84.22105,35.33625],[-84.22113,35.3374],[-84.22152,35.33796],[-84.2227,35.33795],[-84.22375,35.33772],[-84.22528,35.33762],[-84.22596,35.33784],[-84.22683,35.33838],[-84.2284,35.34088],[-84.2299,35.34157],[-84.23174,35.34275],[-84.23277,35.34304],[-84.23403,35.34414],[-84.23483,35.34428],[-84.23834,35.34604],[-84.24027,35.34798],[-84.24112,35.34957],[-84.24168,35.35005],[-84.24218,35.35021],[-84.24293,35.35021],[-84.245,35.35096],[-84.24544,35.35086],[-84.24585,35.35045],[-84.24579,35.34951],[-84.24538,35.34866],[-84.24382,35.34768],[-84.24234,35.34652],[-84.24195,35.34603],[-84.24194,35.34574],[-84.24235,35.34533],[-84.24354,35.34528],[-84.24589,35.34619],[-84.24772,35.34661],[-84.24852,35.34737],[-84.24885,35.34916],[-84.24911,35.34966],[-84.24943,35.3499],[-84.25,35.34983],[-84.25073,35.34923],[-84.25101,35.34814],[-84.25142,35.34765],[-84.25225,35.34754],[-84.25296,35.34769],[-84.25357,35.34817],[-84.25359,35.34857],[-84.25331,35.34898],[-84.2535,35.3498],[-84.25412,35.35057],[-84.25578,35.35176],[-84.25915,35.35334],[-84.26064,35.35386],[-84.26233,35.35415],[-84.2657,35.35519],[-84.26738,35.35587],[-84.26863,35.35615],[-84.26998,35.35724],[-84.27075,35.35761],[-84.27295,35.3582],[-84.27455,35.35769],[-84.27526,35.35784],[-84.27729,35.3592],[-84.27764,35.36045],[-84.27908,35.36188],[-84.27797,35.36079],[-84.27836,35.36143],[-84.27882,35.36177],[-84.28728,35.36512],[-84.28935,35.36575],[-84.29015,35.36586],[-84.29112,35.3665],[-84.29161,35.3672],[-84.29171,35.36807],[-84.29035,35.3695],[-84.29003,35.37005],[-84.28989,35.37057],[-84.28994,35.37201],[-84.28944,35.37253],[-84.28857,35.37265],[-84.28737,35.37183],[-84.28684,35.37189],[-84.28534,35.3725],[-84.28394,35.37263],[-84.28289,35.3734],[-84.28169,35.37403],[-84.27786,35.37748],[-84.27788,35.37846],[-84.27811,35.37931],[-84.27923,35.38027],[-84.27915,35.38165],[-84.2794,35.38287],[-84.28011,35.38363],[-84.2813,35.38426],[-84.28155,35.38465],[-84.28161,35.3857],[-84.28112,35.38677],[-84.28005,35.38739],[-84.27854,35.38792],[-84.27795,35.38838],[-84.27748,35.38858],[-84.27695,35.38857],[-84.27618,35.38828],[-84.2757,35.3883],[-84.27446,35.38886],[-84.27451,35.38969],[-84.27591,35.39017],[-84.27637,35.39051],[-84.27694,35.39117],[-84.27736,35.39216],[-84.27745,35.3935],[-84.27645,35.39509],[-84.27668,35.3966],[-84.27536,35.39803],[-84.2722,35.40075],[-84.2714,35.40217],[-84.27061,35.40296],[-84.27064,35.4035],[-84.27083,35.40371],[-84.27195,35.4033],[-84.27254,35.40349],[-84.27348,35.40443],[-84.27375,35.4051],[-84.27324,35.40614],[-84.27356,35.40627],[-84.27518,35.40616],[-84.27596,35.40656],[-84.27608,35.40713],[-84.27377,35.40889],[-84.27315,35.41022],[-84.27172,35.41155],[-84.27135,35.41163],[-84.27102,35.41197],[-84.27079,35.41253],[-84.27079,35.41318],[-84.27046,35.41366],[-84.2689,35.41474],[-84.26804,35.41506],[-84.2666,35.41527],[-84.2601,35.41505],[-84.25915,35.41538],[-84.25859,35.4162],[-84.25843,35.41711],[-84.25884,35.41947],[-84.25905,35.42192],[-84.25997,35.42451],[-84.26056,35.42554],[-84.26082,35.42682],[-84.2612,35.42747],[-84.26162,35.42808],[-84.26239,35.4286],[-84.26665,35.42834],[-84.26697,35.4284],[-84.26734,35.42871],[-84.26734,35.42936],[-84.26688,35.42985],[-84.26496,35.43011],[-84.26414,35.43036],[-84.26326,35.43037],[-84.26262,35.43083],[-84.26243,35.4312],[-84.26197,35.43374],[-84.26199,35.43465],[-84.26239,35.43669],[-84.26219,35.43702],[-84.26215,35.43785],[-84.26246,35.43925],[-84.26333,35.44105],[-84.26334,35.44192],[-84.26292,35.44356],[-84.26241,35.44452],[-84.2625,35.44657],[-84.26214,35.4472],[-84.26067,35.44835],[-84.26052,35.44875],[-84.26061,35.44951],[-84.26128,35.45085],[-84.26201,35.45132],[-84.26267,35.45133],[-84.26293,35.45118],[-84.26409,35.44997],[-84.26443,35.44981],[-84.2658,35.44982],[-84.26671,35.45026],[-84.26717,35.45132],[-84.26674,35.45206],[-84.26726,35.45399],[-84.2694,35.45566],[-84.27274,35.45682],[-84.27326,35.45737],[-84.2733,35.45806],[-84.27198,35.45938],[-84.27076,35.4603],[-84.26768,35.46119],[-84.26446,35.46184],[-84.26349,35.46184],[-84.26312,35.46157],[-84.26271,35.46076],[-84.26206,35.46017],[-84.26199,35.45978],[-84.2616,35.45922],[-84.26077,35.45867],[-84.25973,35.45836],[-84.25753,35.45842],[-84.25701,35.45862],[-84.25621,35.45923],[-84.25499,35.46145],[-84.25459,35.46277],[-84.25382,35.46385],[-84.2529,35.46458],[-84.25207,35.46479],[-84.25022,35.46484],[-84.24999,35.46522],[-84.24952,35.46498],[-84.24859,35.46491],[-84.24507,35.46521],[-84.24273,35.46513],[-84.24157,35.46554],[-84.24064,35.46627],[-84.24048,35.46656],[-84.24051,35.46772],[-84.24079,35.46792],[-84.24086,35.469],[-84.24155,35.47009],[-84.24178,35.47095],[-84.2419,35.47282],[-84.24248,35.47348],[-84.24269,35.47401],[-84.24292,35.47556],[-84.24346,35.47575],[-84.24518,35.47567],[-84.24702,35.47693],[-84.24718,35.47866],[-84.24686,35.47914],[-84.24498,35.48088],[-84.24411,35.48099],[-84.24292,35.48036],[-84.24169,35.48045],[-84.24031,35.48163],[-84.24031,35.48228],[-84.23987,35.48305],[-84.23993,35.48392],[-84.23978,35.48443],[-84.23992,35.48515],[-84.24029,35.48542],[-84.24126,35.48548],[-84.24455,35.48776],[-84.24466,35.4896],[-84.24524,35.4903],[-84.24527,35.49073],[-84.24566,35.49136],[-84.24644,35.4918],[-84.24697,35.49177],[-84.24905,35.49331],[-84.24924,35.49485],[-84.24891,35.49515],[-84.24527,35.4956],[-84.24436,35.49654],[-84.24463,35.49729],[-84.24584,35.49818],[-84.24604,35.4986],[-84.24669,35.49908],[-84.24679,35.50057],[-84.24761,35.50155],[-84.24768,35.50263],[-84.24742,35.50347],[-84.24679,35.50393],[-84.24502,35.50458],[-84.24292,35.50641],[-84.24193,35.508],[-84.24217,35.50969],[-84.24179,35.51064],[-84.24137,35.5111],[-84.24091,35.5113],[-84.24028,35.51118],[-84.24007,35.51072],[-84.23994,35.50935],[-84.23894,35.50824],[-84.23887,35.50774],[-84.2373,35.50669],[-84.2361,35.50667],[-84.23562,35.50679],[-84.23517,35.50721],[-84.23474,35.50806],[-84.23383,35.50904],[-84.23133,35.51074],[-84.2302,35.51107],[-84.22756,35.51111],[-84.2264,35.51171],[-84.22569,35.51235],[-84.22555,35.51279],[-84.22558,35.51402],[-84.22508,35.51447],[-84.22486,35.51517],[-84.22428,35.5157],[-84.22366,35.5158],[-84.22241,35.51545],[-84.22102,35.51447],[-84.22082,35.51346],[-84.21702,35.51063],[-84.21565,35.51062],[-84.21491,35.51079],[-84.21333,35.51165],[-84.2127,35.51222],[-84.21236,35.51307],[-84.2124,35.51372],[-84.2121,35.51449],[-84.2121,35.51525],[-84.21256,35.51624],[-84.21276,35.51724],[-84.21263,35.51862],[-84.21243,35.51899],[-84.21143,35.5199],[-84.20991,35.52105],[-84.20892,35.5221],[-84.20856,35.52269],[-84.20859,35.52309],[-84.20725,35.5243],[-84.20716,35.52492],[-84.20756,35.5257],[-84.20798,35.52604],[-84.20771,35.52796],[-84.20717,35.52849],[-84.20626,35.52878],[-84.20528,35.52937],[-84.2042,35.53035],[-84.20393,35.53101],[-84.20336,35.53173],[-84.20341,35.53252],[-84.2025,35.53346],[-84.20228,35.53426],[-84.20244,35.53534],[-84.20417,35.53678],[-84.20624,35.53806],[-84.20655,35.53888],[-84.20863,35.54024],[-84.20922,35.54111],[-84.21011,35.54331],[-84.21105,35.54418],[-84.21174,35.54534],[-84.21177,35.54577],[-84.2121,35.54612],[-84.21214,35.54669],[-84.21311,35.54741],[-84.21334,35.54827],[-84.21408,35.54943],[-84.2145,35.54981],[-84.21454,35.55042],[-84.21524,35.55165],[-84.21737,35.55326],[-84.21739,35.55416],[-84.21875,35.55475],[-84.22348,35.55823],[-84.22481,35.55962],[-84.22483,35.5599],[-84.22534,35.56028],[-84.22535,35.5605],[-84.22582,35.56084],[-84.22583,35.56235],[-84.22549,35.56295],[-84.2257,35.56528],[-84.22587,35.56571],[-84.22644,35.56637],[-84.22737,35.56716],[-84.22742,35.56784],[-84.22709,35.56898],[-84.22496,35.57091],[-84.22361,35.57184],[-84.22288,35.57216],[-84.22192,35.57306],[-84.22149,35.57398],[-84.22148,35.57518],[-84.22037,35.57638],[-84.22064,35.57785],[-84.22141,35.57883],[-84.22173,35.57968],[-84.22295,35.58078],[-84.22297,35.58114],[-84.22515,35.58278],[-84.22521,35.58357],[-84.22544,35.58374],[-84.22558,35.58453],[-84.22573,35.58622],[-84.22547,35.58699],[-84.22523,35.58744],[-84.22326,35.58911],[-84.2233,35.58972],[-84.22251,35.59048],[-84.22189,35.59184],[-84.22044,35.59324],[-84.22013,35.59405],[-84.22016,35.59448],[-84.21991,35.5947],[-84.21973,35.59525],[-84.215,35.5995],[-84.21503,35.59986],[-84.21468,35.60067],[-84.21373,35.60237],[-84.21265,35.60339],[-84.21159,35.60347]]]}}
