{"type":"Feature","properties":{"id":"harpeth-river","name":"Harpeth River (Williamson County reaches)","waterbodyType":"river","throughLakeIds":[],"allowOpenEnds":false,"source":"nhd-hu8-05130204","approximate":false,"labelAnchor":[-86.8654,35.92075],"bounds":[-87.19425,35.73366,-86.59938,36.3048],"crs":"EPSG:4326","coordinateOrder":"longitude,latitude","partCount":1,"vertexCount":1223,"lengthKm":191.34,"sourceIds":["44693951","44694083","44694189","44694275","44694273","44694283","44694785","44694979","44695059","44695057","44695007","44695437","44695503","44695427","44695413","44695315","44695335","44695371","44695473","44695579","44695569","44695379","44695359","44695329","44695293","44695301","44695319","44695403","44695457","44695557","44695683","44695791","44695789","44695693","44695885","44696007","44696003","44695961","44695971","44696111","44696101","44696113","44696515","44696711","44696791","44696843","44696941","44696961","44697117","44697197","44697249","44697543","44697591","44697667","44697707","44697725","44697733","44697729","44697735","44697741","44697743","44697751","44697783","44697877","44693757","44693627","44693523","44693519","44693449","44693373","44693063","44692983","44692875","44693117","44693195","44693161","44692985","44692605","44692485","44692423","44692209","44692183","44691933","44691895","44691517","44691515","44691251","44691339","44691341","44691191","44691047","44690929","44690891","44690727","44690747","44690981","44691025","44690971","44690967","44690649","44690505","44690315","44690325","44690323","44689291","44689437","44689463","44689439","44688711","44689039","44689005","44689189","44688581","44688237","44688299","44688317","44688405","44688441","44688509","44688651","44688475","44688301","44688257","44688253","44688615","44688737","44688673","44688751","44688795","44688203","44688155","44687793","44687795","44687847","44687899","44687949","44687967","44688395","44688469","44688493","44688491","44688159","44688111","44688121","44688139","44687871","44687815","44687721","44687717","44687709","44687681","44687667","44687551","44687543","44687497","44687481","44687441","44687461","44687509","44687513","44687527","44687529","44687523","44687407","44687379","44687313","44687303","44687135","44687061","44687039","44687071","44687103","44687159","44687189","44687205","44687209","44687213","44687253","44687255","44687043","44687017","44687007","44686989","44686965","44686913","44686859","44686845","163760521","163760522","44686753","44686717","44686707","44686671","44686535","44686531","44686465","44686427","44686393","44686405","44686409","44686421","44686415","44686407","44686397","44686377","44686363","44686349","44686341","44686333","44686313","44686309","44686303","44686295","44686281","44686279","44686273","44686271"],"sourceRetrieved":"2026-09-11","geometrySource":"nhd","hu8":"05130204","simplification":{"toleranceM":10,"verticesBefore":2773,"verticesAfter":1223,"budgetBytes":81920},"trace":{"anchor":{"lat":35.9208,"lon":-86.8655,"snapDistM":10.8},"up":{"spec":"headwater","reason":"headwater","terminus":[-86.60147,35.733663],"distKmFromAnchor":50.91},"down":{"spec":"mouth","reason":"terminal-node","terminus":[-87.152091,36.304797],"enteredNames":null,"distKmFromAnchor":140.53},"vaaUsed":false,"toleranceM":12}},"geometry":{"type":"MultiLineString","coordinates":[[[-86.60147,35.73366],[-86.6002,35.73473],[-86.59999,35.73513],[-86.59938,35.7413],[-86.59968,35.74182],[-86.59965,35.74245],[-86.6002,35.74357],[-86.60015,35.74428],[-86.60067,35.74451],[-86.60079,35.74479],[-86.59989,35.74777],[-86.60067,35.74925],[-86.60082,35.75075],[-86.60066,35.75137],[-86.60074,35.75209],[-86.60149,35.75301],[-86.60211,35.75318],[-86.60279,35.7539],[-86.60385,35.75382],[-86.60449,35.75402],[-86.60497,35.75365],[-86.60561,35.75421],[-86.60572,35.75485],[-86.6064,35.75508],[-86.60662,35.75553],[-86.60759,35.756],[-86.60856,35.75705],[-86.6092,35.75726],[-86.61022,35.75727],[-86.61097,35.75687],[-86.61173,35.75721],[-86.61357,35.75664],[-86.61832,35.75639],[-86.62006,35.75661],[-86.62152,35.75712],[-86.62513,35.75902],[-86.62646,35.75957],[-86.62683,35.76],[-86.62706,35.76078],[-86.62804,35.76094],[-86.62928,35.76061],[-86.63063,35.76092],[-86.63084,35.76118],[-86.63046,35.76184],[-86.63063,35.76207],[-86.63227,35.76196],[-86.63473,35.76346],[-86.63625,35.764],[-86.63762,35.76412],[-86.63796,35.76439],[-86.63816,35.76529],[-86.63865,35.76561],[-86.63904,35.76558],[-86.64073,35.76474],[-86.64158,35.76412],[-86.64246,35.7638],[-86.64414,35.76152],[-86.64452,35.76146],[-86.6449,35.76171],[-86.64628,35.76324],[-86.64708,35.76372],[-86.64634,35.76477],[-86.64628,35.76539],[-86.64652,35.76592],[-86.64736,35.76666],[-86.64788,35.76779],[-86.64885,35.76843],[-86.64921,35.7689],[-86.64919,35.76918],[-86.6489,35.76942],[-86.64742,35.76973],[-86.64573,35.7704],[-86.6454,35.77122],[-86.64547,35.77164],[-86.64719,35.77281],[-86.64859,35.77348],[-86.64932,35.77434],[-86.64993,35.77434],[-86.65263,35.77378],[-86.65349,35.77407],[-86.65425,35.7749],[-86.65481,35.77516],[-86.65591,35.77522],[-86.65785,35.77485],[-86.65887,35.77517],[-86.65988,35.77615],[-86.66031,35.77741],[-86.66005,35.77834],[-86.65973,35.78148],[-86.65997,35.78173],[-86.66173,35.78261],[-86.66271,35.78222],[-86.66332,35.78216],[-86.66414,35.78273],[-86.66424,35.78325],[-86.66404,35.78368],[-86.66273,35.78483],[-86.66177,35.78539],[-86.66145,35.78601],[-86.66146,35.78661],[-86.6619,35.78764],[-86.66315,35.78883],[-86.66337,35.78942],[-86.66259,35.79151],[-86.6613,35.79372],[-86.66143,35.79415],[-86.66199,35.79441],[-86.66265,35.79675],[-86.66296,35.79695],[-86.66395,35.79714],[-86.66421,35.79798],[-86.66382,35.79889],[-86.66395,35.79957],[-86.66572,35.80056],[-86.66639,35.80058],[-86.66652,35.80072],[-86.66694,35.80209],[-86.66685,35.80273],[-86.66794,35.80332],[-86.66814,35.80381],[-86.6686,35.80428],[-86.67062,35.80488],[-86.67084,35.80505],[-86.67227,35.80705],[-86.67249,35.80829],[-86.67332,35.80865],[-86.67485,35.80861],[-86.67538,35.8083],[-86.67573,35.80741],[-86.67663,35.80697],[-86.67715,35.807],[-86.67805,35.80766],[-86.67814,35.80906],[-86.67836,35.80967],[-86.67963,35.81127],[-86.68072,35.81193],[-86.68085,35.81219],[-86.68111,35.81474],[-86.68137,35.81502],[-86.68325,35.81559],[-86.68378,35.81596],[-86.68433,35.8168],[-86.68423,35.81748],[-86.68312,35.8189],[-86.68317,35.81923],[-86.68663,35.82012],[-86.68938,35.82132],[-86.68982,35.82133],[-86.69036,35.82111],[-86.6915,35.81948],[-86.69238,35.819],[-86.69286,35.81893],[-86.69373,35.81917],[-86.69655,35.81911],[-86.69712,35.81928],[-86.69769,35.82032],[-86.69767,35.82089],[-86.6971,35.82132],[-86.69327,35.82261],[-86.69304,35.8231],[-86.69279,35.82463],[-86.69292,35.82553],[-86.69223,35.82628],[-86.69225,35.82653],[-86.69264,35.82684],[-86.69546,35.82739],[-86.69729,35.82931],[-86.69875,35.83019],[-86.69904,35.83077],[-86.69899,35.83123],[-86.69859,35.83201],[-86.69865,35.83235],[-86.69896,35.83249],[-86.70033,35.83256],[-86.70085,35.83282],[-86.70128,35.83331],[-86.70165,35.83441],[-86.70327,35.83565],[-86.70325,35.83621],[-86.7026,35.83728],[-86.70243,35.83804],[-86.70265,35.83865],[-86.70348,35.83981],[-86.70394,35.84004],[-86.70554,35.83935],[-86.70636,35.83925],[-86.70659,35.83935],[-86.7076,35.84147],[-86.70746,35.84199],[-86.70663,35.84335],[-86.70663,35.84384],[-86.70868,35.84601],[-86.70925,35.84628],[-86.70987,35.84631],[-86.7114,35.8457],[-86.71237,35.84466],[-86.71278,35.8438],[-86.71306,35.84359],[-86.71359,35.84361],[-86.71486,35.84409],[-86.71642,35.84392],[-86.71825,35.84405],[-86.71954,35.8437],[-86.72055,35.84413],[-86.7209,35.84444],[-86.7213,35.84596],[-86.72088,35.84781],[-86.72126,35.84847],[-86.72187,35.84882],[-86.72265,35.84892],[-86.72504,35.84843],[-86.72543,35.84846],[-86.72581,35.8487],[-86.72649,35.84957],[-86.727,35.8499],[-86.72735,35.84997],[-86.72822,35.84975],[-86.72907,35.84995],[-86.72933,35.85024],[-86.72927,35.85083],[-86.72943,35.85107],[-86.73153,35.85159],[-86.73272,35.85236],[-86.73381,35.85196],[-86.73665,35.8526],[-86.73877,35.85095],[-86.74006,35.85085],[-86.74288,35.85012],[-86.74542,35.84989],[-86.74587,35.85021],[-86.74656,35.85155],[-86.74688,35.85271],[-86.74925,35.85327],[-86.7499,35.85363],[-86.75042,35.85483],[-86.75127,35.85618],[-86.75134,35.85697],[-86.75068,35.8582],[-86.7501,35.85891],[-86.75008,35.85933],[-86.75028,35.85986],[-86.75062,35.86018],[-86.75226,35.86059],[-86.75271,35.86107],[-86.75245,35.86422],[-86.75193,35.86589],[-86.75207,35.86644],[-86.75234,35.86672],[-86.7527,35.86685],[-86.75355,35.86671],[-86.75473,35.86604],[-86.75597,35.86464],[-86.75768,35.86323],[-86.75848,35.86207],[-86.75893,35.86195],[-86.76183,35.86226],[-86.76288,35.86218],[-86.76362,35.86145],[-86.76479,35.85973],[-86.76524,35.85939],[-86.76599,35.85938],[-86.76696,35.8598],[-86.76747,35.86049],[-86.76827,35.86353],[-86.76819,35.86384],[-86.76765,35.86439],[-86.76778,35.86551],[-86.76826,35.86641],[-86.7694,35.86742],[-86.76973,35.86792],[-86.76976,35.86834],[-86.76958,35.86862],[-86.76809,35.86984],[-86.768,35.87004],[-86.76844,35.87052],[-86.76972,35.87113],[-86.7738,35.87165],[-86.77584,35.87332],[-86.77698,35.87399],[-86.77913,35.87392],[-86.78053,35.87338],[-86.78238,35.87291],[-86.78321,35.87278],[-86.78354,35.87289],[-86.78402,35.87396],[-86.78411,35.87455],[-86.78395,35.87573],[-86.78424,35.876],[-86.78526,35.87639],[-86.78709,35.87663],[-86.78948,35.87801],[-86.79203,35.87831],[-86.79268,35.87821],[-86.79301,35.87798],[-86.79384,35.87631],[-86.79384,35.87593],[-86.79312,35.87493],[-86.7931,35.87448],[-86.79363,35.87426],[-86.79707,35.87398],[-86.79809,35.87342],[-86.79849,35.87283],[-86.79946,35.86918],[-86.80001,35.86858],[-86.80097,35.86875],[-86.80276,35.87067],[-86.80335,35.87203],[-86.80363,35.87233],[-86.8047,35.87267],[-86.80831,35.87425],[-86.80967,35.87537],[-86.81019,35.87633],[-86.81066,35.87794],[-86.81087,35.87825],[-86.81163,35.87867],[-86.8144,35.87851],[-86.81612,35.8774],[-86.81706,35.87705],[-86.81886,35.87729],[-86.81946,35.87719],[-86.82138,35.87529],[-86.82172,35.87471],[-86.82273,35.87399],[-86.82364,35.87348],[-86.82455,35.8732],[-86.82505,35.8732],[-86.82553,35.87344],[-86.8267,35.87456],[-86.82824,35.87573],[-86.82863,35.8765],[-86.82826,35.87713],[-86.82749,35.87759],[-86.82607,35.87768],[-86.82473,35.8773],[-86.82416,35.87747],[-86.82379,35.88039],[-86.82411,35.8815],[-86.825,35.8834],[-86.82505,35.88445],[-86.82466,35.88519],[-86.8242,35.88557],[-86.82193,35.88594],[-86.82134,35.88623],[-86.82133,35.88676],[-86.82202,35.88807],[-86.82359,35.88915],[-86.82404,35.88929],[-86.8249,35.88904],[-86.82656,35.88796],[-86.82696,35.88807],[-86.8274,35.88876],[-86.82848,35.89169],[-86.82914,35.89209],[-86.83024,35.89208],[-86.83072,35.8919],[-86.83098,35.89146],[-86.83082,35.89059],[-86.83092,35.889],[-86.83123,35.88844],[-86.83436,35.8871],[-86.83594,35.88619],[-86.83665,35.88599],[-86.83899,35.88664],[-86.8408,35.88816],[-86.84142,35.88924],[-86.84373,35.89019],[-86.84406,35.89124],[-86.84385,35.89469],[-86.84339,35.89529],[-86.84195,35.89599],[-86.84153,35.89672],[-86.84167,35.89727],[-86.84273,35.89907],[-86.84307,35.90091],[-86.84451,35.90142],[-86.84542,35.90057],[-86.84589,35.9006],[-86.84618,35.90103],[-86.84637,35.90186],[-86.84621,35.90392],[-86.8464,35.90449],[-86.84835,35.90551],[-86.85031,35.9071],[-86.85127,35.90766],[-86.85275,35.90812],[-86.85568,35.90947],[-86.85615,35.90957],[-86.85753,35.90948],[-86.85867,35.91004],[-86.86162,35.91268],[-86.86299,35.91357],[-86.86392,35.91499],[-86.86561,35.91618],[-86.86627,35.91646],[-86.867,35.91729],[-86.86706,35.91802],[-86.86538,35.92077],[-86.86309,35.92207],[-86.86244,35.92273],[-86.8654,35.92075],[-86.86158,35.92358],[-86.86072,35.92451],[-86.86111,35.92543],[-86.86189,35.9261],[-86.86299,35.92671],[-86.86675,35.92772],[-86.8681,35.92898],[-86.86925,35.93043],[-86.87066,35.93071],[-86.87434,35.92983],[-86.87496,35.9299],[-86.87558,35.9304],[-86.87552,35.93113],[-86.87498,35.93197],[-86.87266,35.93362],[-86.87083,35.9346],[-86.87066,35.93599],[-86.87038,35.93662],[-86.86812,35.9381],[-86.86723,35.93997],[-86.86665,35.94028],[-86.86506,35.94056],[-86.86469,35.94076],[-86.86456,35.94115],[-86.86664,35.94277],[-86.8684,35.94338],[-86.86953,35.94428],[-86.87122,35.94529],[-86.87179,35.94608],[-86.8726,35.94832],[-86.87286,35.94869],[-86.87372,35.94882],[-86.87847,35.94786],[-86.87939,35.9479],[-86.88106,35.94823],[-86.88206,35.94788],[-86.88266,35.94736],[-86.88415,35.94518],[-86.88682,35.94257],[-86.88875,35.93962],[-86.88916,35.93953],[-86.89096,35.9399],[-86.89152,35.94042],[-86.89179,35.94109],[-86.89153,35.94369],[-86.89102,35.94566],[-86.89104,35.94665],[-86.89149,35.94791],[-86.89362,35.95124],[-86.89387,35.95246],[-86.89374,35.95309],[-86.89284,35.95359],[-86.89174,35.95363],[-86.89125,35.95347],[-86.88893,35.95209],[-86.88838,35.95194],[-86.88727,35.95205],[-86.8855,35.95271],[-86.88414,35.95411],[-86.88377,35.95509],[-86.88419,35.95574],[-86.88473,35.95604],[-86.8861,35.95634],[-86.88755,35.95654],[-86.88923,35.95646],[-86.88972,35.95662],[-86.88999,35.9572],[-86.88949,35.95965],[-86.88978,35.96018],[-86.89096,35.9602],[-86.89468,35.95937],[-86.8954,35.95969],[-86.89686,35.96115],[-86.89754,35.96149],[-86.90318,35.96103],[-86.90361,35.96121],[-86.90444,35.9624],[-86.90445,35.96307],[-86.90408,35.96428],[-86.90349,35.9651],[-86.90146,35.96618],[-86.90063,35.9668],[-86.90044,35.96747],[-86.90064,35.96797],[-86.901,35.96824],[-86.90315,35.96917],[-86.90482,35.96934],[-86.90638,35.97013],[-86.90828,35.97],[-86.91012,35.9695],[-86.91178,35.96881],[-86.91481,35.96861],[-86.91629,35.96956],[-86.9166,35.96995],[-86.91651,35.97086],[-86.91576,35.97218],[-86.91287,35.97457],[-86.91228,35.97483],[-86.91159,35.97557],[-86.91197,35.97661],[-86.91344,35.97886],[-86.91387,35.9798],[-86.91517,35.98503],[-86.91561,35.98561],[-86.91668,35.98646],[-86.91676,35.98691],[-86.91634,35.98769],[-86.91412,35.98903],[-86.91328,35.99012],[-86.91243,35.99066],[-86.91097,35.99097],[-86.90857,35.99088],[-86.9079,35.9907],[-86.90597,35.98898],[-86.90354,35.98712],[-86.90272,35.98604],[-86.90222,35.98451],[-86.90187,35.98435],[-86.90083,35.98438],[-86.89989,35.98459],[-86.89821,35.9857],[-86.89762,35.98622],[-86.89721,35.98693],[-86.89719,35.98817],[-86.89773,35.98926],[-86.8984,35.99011],[-86.8995,35.99122],[-86.90072,35.99217],[-86.9028,35.99321],[-86.90425,35.99368],[-86.90552,35.99387],[-86.9068,35.99376],[-86.90871,35.99316],[-86.90941,35.99312],[-86.91074,35.99384],[-86.9115,35.99507],[-86.91244,35.99557],[-86.91304,35.99545],[-86.91391,35.99484],[-86.91444,35.99466],[-86.91637,35.99482],[-86.91712,35.99474],[-86.91944,35.99355],[-86.92058,35.99324],[-86.92557,35.99404],[-86.92649,35.99394],[-86.92731,35.99347],[-86.92852,35.99239],[-86.93165,35.99072],[-86.93201,35.9907],[-86.93268,35.99099],[-86.93377,35.99188],[-86.93443,35.99267],[-86.9349,35.99375],[-86.93554,35.99676],[-86.93545,35.99821],[-86.93528,35.99865],[-86.93414,35.99969],[-86.9332,36.00017],[-86.93182,36.00054],[-86.93122,36.0032],[-86.93146,36.00567],[-86.93082,36.00803],[-86.93027,36.00877],[-86.92718,36.00933],[-86.9248,36.00955],[-86.92288,36.00866],[-86.92165,36.00774],[-86.92102,36.00704],[-86.91981,36.00498],[-86.91908,36.00436],[-86.91828,36.00301],[-86.91714,36.00188],[-86.91702,36.0005],[-86.91672,35.99972],[-86.91621,35.99929],[-86.91451,35.99919],[-86.9132,35.9994],[-86.91247,35.99974],[-86.91042,36.00161],[-86.90993,36.00225],[-86.90708,36.00387],[-86.90515,36.00582],[-86.90387,36.00756],[-86.90238,36.00873],[-86.90146,36.00904],[-86.89859,36.00808],[-86.89783,36.00803],[-86.89724,36.00817],[-86.89685,36.00855],[-86.89609,36.00987],[-86.89597,36.01127],[-86.89666,36.01355],[-86.89735,36.01486],[-86.89837,36.01607],[-86.90041,36.01752],[-86.90263,36.01804],[-86.90301,36.01828],[-86.90369,36.01927],[-86.90402,36.02131],[-86.90599,36.02333],[-86.90689,36.02522],[-86.908,36.02684],[-86.90838,36.02709],[-86.90926,36.02714],[-86.91073,36.02673],[-86.91236,36.02602],[-86.91308,36.02535],[-86.91319,36.02501],[-86.91259,36.02225],[-86.91286,36.0207],[-86.9134,36.02011],[-86.91624,36.02003],[-86.922,36.02065],[-86.92291,36.02095],[-86.92434,36.02262],[-86.9247,36.02349],[-86.92483,36.02533],[-86.92419,36.02791],[-86.92353,36.02961],[-86.92125,36.0328],[-86.91992,36.03626],[-86.91788,36.03866],[-86.91794,36.03932],[-86.91883,36.04125],[-86.91912,36.04249],[-86.92019,36.04366],[-86.92091,36.04485],[-86.92156,36.04546],[-86.92259,36.04568],[-86.92439,36.04543],[-86.9264,36.04461],[-86.92793,36.04249],[-86.92986,36.0404],[-86.93093,36.0396],[-86.93191,36.03941],[-86.93511,36.04038],[-86.93573,36.04073],[-86.93703,36.04225],[-86.93766,36.04346],[-86.9377,36.04527],[-86.93704,36.04718],[-86.93632,36.04843],[-86.9334,36.05078],[-86.93194,36.05138],[-86.9303,36.05152],[-86.92963,36.05172],[-86.92918,36.05205],[-86.9286,36.05289],[-86.92857,36.05392],[-86.92882,36.05464],[-86.92978,36.056],[-86.93044,36.05616],[-86.93077,36.05606],[-86.93174,36.05532],[-86.93337,36.05452],[-86.9355,36.05487],[-86.93659,36.05449],[-86.93801,36.05341],[-86.93917,36.05198],[-86.94172,36.05033],[-86.9426,36.04901],[-86.94325,36.04853],[-86.94889,36.04945],[-86.9506,36.04982],[-86.95092,36.05011],[-86.95144,36.05175],[-86.95132,36.05302],[-86.95093,36.05357],[-86.94975,36.05397],[-86.94799,36.05425],[-86.94675,36.05426],[-86.94514,36.05387],[-86.94409,36.05416],[-86.94326,36.05485],[-86.94198,36.05648],[-86.94179,36.0571],[-86.94192,36.05783],[-86.94236,36.05846],[-86.94294,36.0589],[-86.94693,36.06061],[-86.94904,36.06231],[-86.95,36.06259],[-86.95225,36.06254],[-86.95291,36.06282],[-86.9532,36.06317],[-86.95447,36.06585],[-86.95426,36.06886],[-86.95427,36.07272],[-86.95629,36.07597],[-86.95737,36.0771],[-86.959,36.07795],[-86.96054,36.07799],[-86.96217,36.07752],[-86.96354,36.07636],[-86.96411,36.07543],[-86.9642,36.07498],[-86.96419,36.07418],[-86.96349,36.07192],[-86.96488,36.06817],[-86.96609,36.06569],[-86.96654,36.06496],[-86.96685,36.06475],[-86.96935,36.06463],[-86.97046,36.06472],[-86.97147,36.06508],[-86.97237,36.06573],[-86.97313,36.066],[-86.97451,36.0668],[-86.97662,36.06858],[-86.97768,36.06877],[-86.97824,36.06849],[-86.98024,36.06692],[-86.98146,36.06574],[-86.9829,36.06479],[-86.98418,36.0624],[-86.98491,36.06152],[-86.9864,36.06139],[-86.98756,36.06146],[-86.98843,36.06161],[-86.98895,36.06195],[-86.98929,36.06311],[-86.98904,36.06598],[-86.98878,36.06666],[-86.98778,36.06805],[-86.98774,36.0695],[-86.98727,36.07061],[-86.98721,36.07089],[-86.98756,36.07192],[-86.98746,36.07259],[-86.98711,36.07313],[-86.98633,36.07372],[-86.98571,36.07399],[-86.98403,36.07435],[-86.98225,36.07529],[-86.98147,36.07612],[-86.98104,36.07686],[-86.98076,36.07794],[-86.98093,36.07874],[-86.98178,36.08006],[-86.98407,36.08185],[-86.98496,36.08244],[-86.98632,36.08275],[-86.98779,36.08264],[-86.99238,36.08159],[-86.99428,36.08143],[-86.99674,36.08053],[-86.99771,36.08093],[-86.99849,36.08212],[-86.99949,36.08458],[-86.99991,36.08637],[-86.99998,36.08726],[-86.99957,36.08853],[-86.99946,36.08988],[-86.9995,36.09412],[-86.99982,36.09477],[-87.00028,36.09498],[-87.00108,36.09521],[-87.00245,36.09524],[-87.0069,36.09448],[-87.00802,36.09407],[-87.00917,36.09328],[-87.01193,36.09237],[-87.01461,36.09068],[-87.01616,36.08889],[-87.01754,36.08695],[-87.01865,36.08583],[-87.02053,36.08482],[-87.02179,36.08462],[-87.02274,36.0848],[-87.0237,36.08532],[-87.02614,36.08707],[-87.0265,36.08751],[-87.02722,36.08953],[-87.02845,36.09101],[-87.02929,36.09293],[-87.02964,36.09338],[-87.03302,36.09517],[-87.03371,36.09533],[-87.03469,36.09529],[-87.03533,36.09492],[-87.03661,36.09369],[-87.03675,36.09277],[-87.03651,36.09129],[-87.03608,36.09051],[-87.03582,36.0895],[-87.03543,36.0866],[-87.03529,36.08273],[-87.03583,36.08224],[-87.0377,36.08198],[-87.03944,36.08228],[-87.04075,36.08273],[-87.04208,36.08344],[-87.04334,36.08446],[-87.04356,36.08505],[-87.0458,36.0873],[-87.04803,36.08923],[-87.0503,36.09083],[-87.05465,36.09515],[-87.05639,36.09567],[-87.059,36.09591],[-87.06021,36.09588],[-87.06094,36.09523],[-87.0632,36.0951],[-87.06364,36.09475],[-87.06412,36.09387],[-87.06424,36.09306],[-87.06415,36.09114],[-87.06355,36.0891],[-87.06293,36.08811],[-87.06136,36.08617],[-87.05956,36.08468],[-87.05861,36.08361],[-87.05853,36.08316],[-87.05875,36.08254],[-87.05952,36.08181],[-87.06118,36.0813],[-87.06275,36.08111],[-87.06445,36.08149],[-87.0659,36.08213],[-87.06803,36.08353],[-87.06944,36.08427],[-87.07118,36.08602],[-87.07183,36.0863],[-87.07241,36.08634],[-87.07608,36.08574],[-87.07768,36.08533],[-87.07836,36.08499],[-87.07878,36.08453],[-87.08029,36.08347],[-87.08269,36.08218],[-87.08671,36.08096],[-87.08728,36.08091],[-87.08794,36.08131],[-87.08928,36.08344],[-87.09024,36.08559],[-87.09039,36.08632],[-87.09026,36.08655],[-87.08718,36.08912],[-87.0855,36.09029],[-87.08299,36.09159],[-87.08209,36.09233],[-87.08147,36.09323],[-87.08121,36.09474],[-87.08064,36.09605],[-87.07931,36.09766],[-87.07737,36.09896],[-87.07444,36.1002],[-87.07369,36.10065],[-87.07315,36.10138],[-87.07301,36.10326],[-87.07325,36.10512],[-87.07455,36.1087],[-87.0763,36.11038],[-87.07724,36.1126],[-87.07782,36.11338],[-87.0797,36.1139],[-87.08204,36.11417],[-87.08465,36.11394],[-87.08638,36.11337],[-87.08875,36.11211],[-87.08934,36.11059],[-87.09108,36.10966],[-87.09212,36.10956],[-87.09278,36.10998],[-87.09333,36.11009],[-87.09467,36.10911],[-87.09497,36.10905],[-87.09749,36.10694],[-87.09917,36.10489],[-87.09963,36.10374],[-87.10008,36.10134],[-87.10081,36.09922],[-87.10136,36.0961],[-87.10191,36.09467],[-87.10304,36.09381],[-87.10441,36.0932],[-87.1068,36.0917],[-87.10734,36.09153],[-87.10809,36.09158],[-87.10935,36.09201],[-87.10992,36.09278],[-87.11011,36.09339],[-87.1096,36.09589],[-87.10903,36.09764],[-87.10785,36.10014],[-87.10607,36.10194],[-87.10554,36.10376],[-87.10565,36.10435],[-87.10644,36.1055],[-87.10701,36.107],[-87.10726,36.10729],[-87.1113,36.10864],[-87.11271,36.10874],[-87.11607,36.10778],[-87.12231,36.10468],[-87.12529,36.10359],[-87.1281,36.10325],[-87.12947,36.10344],[-87.13116,36.10408],[-87.13162,36.10483],[-87.13165,36.10633],[-87.13119,36.10817],[-87.13032,36.10929],[-87.12731,36.11235],[-87.12504,36.11398],[-87.12331,36.11464],[-87.12038,36.11535],[-87.11599,36.11612],[-87.11434,36.11611],[-87.11206,36.11639],[-87.11059,36.11685],[-87.10903,36.11796],[-87.10894,36.11819],[-87.10724,36.11883],[-87.10486,36.11998],[-87.10198,36.12076],[-87.10056,36.12087],[-87.09923,36.1214],[-87.09905,36.12565],[-87.10083,36.12871],[-87.10179,36.12987],[-87.10283,36.13048],[-87.10458,36.1307],[-87.10784,36.13157],[-87.10901,36.1322],[-87.10967,36.1332],[-87.10977,36.13575],[-87.10956,36.13706],[-87.10911,36.13772],[-87.1084,36.13807],[-87.10704,36.13827],[-87.10535,36.13831],[-87.10295,36.13753],[-87.1012,36.13628],[-87.09947,36.13636],[-87.09571,36.13774],[-87.09563,36.13915],[-87.09586,36.14038],[-87.09656,36.14107],[-87.09738,36.1424],[-87.09778,36.14269],[-87.09838,36.14281],[-87.1002,36.14226],[-87.10111,36.14147],[-87.10254,36.14064],[-87.10416,36.14035],[-87.10552,36.1399],[-87.10668,36.13992],[-87.10815,36.14076],[-87.1096,36.14196],[-87.11032,36.14226],[-87.11111,36.14284],[-87.11302,36.14481],[-87.11343,36.14603],[-87.11426,36.14708],[-87.11516,36.14791],[-87.11595,36.14814],[-87.11916,36.14823],[-87.11996,36.14792],[-87.12081,36.14714],[-87.1214,36.14626],[-87.12155,36.14485],[-87.1214,36.14393],[-87.12079,36.14281],[-87.12075,36.14181],[-87.12123,36.13996],[-87.1223,36.13896],[-87.12266,36.13773],[-87.12329,36.13686],[-87.12597,36.13471],[-87.12827,36.13202],[-87.12864,36.1317],[-87.13021,36.13099],[-87.13077,36.13049],[-87.1317,36.13015],[-87.1322,36.13014],[-87.13392,36.13042],[-87.13576,36.13035],[-87.1384,36.13048],[-87.13886,36.13079],[-87.14078,36.13101],[-87.14204,36.13138],[-87.14332,36.13153],[-87.14474,36.13145],[-87.14658,36.13101],[-87.14741,36.13074],[-87.14857,36.13007],[-87.14937,36.13029],[-87.14996,36.13067],[-87.15046,36.13137],[-87.15095,36.13263],[-87.15165,36.13363],[-87.15208,36.13555],[-87.15198,36.13662],[-87.15138,36.13773],[-87.1506,36.14017],[-87.14969,36.14164],[-87.14921,36.1421],[-87.14872,36.14236],[-87.14664,36.14289],[-87.14521,36.14296],[-87.14187,36.14386],[-87.13594,36.14476],[-87.13411,36.14542],[-87.13119,36.14592],[-87.12966,36.14658],[-87.12482,36.14741],[-87.12217,36.14829],[-87.12127,36.14845],[-87.12081,36.14874],[-87.11937,36.1519],[-87.11947,36.1536],[-87.11863,36.15559],[-87.11801,36.1565],[-87.11731,36.15856],[-87.11665,36.15908],[-87.11602,36.15992],[-87.11513,36.16051],[-87.11397,36.16104],[-87.11271,36.16132],[-87.11184,36.16212],[-87.11105,36.16528],[-87.11098,36.16802],[-87.11124,36.16904],[-87.11172,36.16955],[-87.11216,36.16972],[-87.11296,36.16979],[-87.11482,36.17029],[-87.11683,36.17031],[-87.11913,36.17],[-87.12381,36.16844],[-87.12671,36.16831],[-87.12853,36.16742],[-87.12986,36.16606],[-87.13132,36.16538],[-87.13519,36.16426],[-87.13924,36.16353],[-87.1401,36.16315],[-87.14135,36.16216],[-87.14234,36.15956],[-87.14329,36.15889],[-87.146,36.15849],[-87.14705,36.15849],[-87.14731,36.15836],[-87.14907,36.15868],[-87.14939,36.15894],[-87.15155,36.15942],[-87.15937,36.1591],[-87.16048,36.15872],[-87.16364,36.15699],[-87.1645,36.15617],[-87.16528,36.15513],[-87.16593,36.15461],[-87.16651,36.15459],[-87.16792,36.15512],[-87.17106,36.15861],[-87.1721,36.1605],[-87.17233,36.16188],[-87.17224,36.16273],[-87.17168,36.16427],[-87.17083,36.16595],[-87.16939,36.16759],[-87.16792,36.16882],[-87.16739,36.16963],[-87.16405,36.17176],[-87.16316,36.17208],[-87.16082,36.17237],[-87.15962,36.17226],[-87.15832,36.17243],[-87.1559,36.17316],[-87.15069,36.17592],[-87.15005,36.17651],[-87.14988,36.17688],[-87.15,36.17779],[-87.15079,36.17968],[-87.15245,36.1826],[-87.1533,36.18355],[-87.1548,36.18593],[-87.1564,36.18765],[-87.15755,36.18934],[-87.15815,36.19059],[-87.15868,36.19107],[-87.15961,36.19157],[-87.16016,36.1917],[-87.16175,36.19193],[-87.16305,36.1923],[-87.16527,36.19255],[-87.16776,36.19247],[-87.16918,36.1918],[-87.17051,36.1924],[-87.17111,36.19297],[-87.17176,36.19455],[-87.17171,36.19537],[-87.17193,36.19674],[-87.17147,36.19765],[-87.17037,36.19868],[-87.16992,36.20053],[-87.17003,36.20116],[-87.17143,36.2035],[-87.17371,36.20498],[-87.17496,36.20663],[-87.17865,36.20978],[-87.17985,36.21058],[-87.18043,36.21077],[-87.18128,36.21073],[-87.18516,36.2099],[-87.18654,36.2098],[-87.18702,36.20998],[-87.1875,36.21044],[-87.18797,36.21178],[-87.18772,36.21231],[-87.18739,36.21518],[-87.18647,36.21768],[-87.18534,36.21977],[-87.18285,36.22245],[-87.18274,36.22294],[-87.18297,36.22335],[-87.18271,36.22394],[-87.18154,36.22575],[-87.18057,36.22686],[-87.17922,36.22804],[-87.17879,36.22824],[-87.17831,36.22826],[-87.17598,36.22691],[-87.17491,36.22655],[-87.17319,36.22635],[-87.17151,36.22651],[-87.17009,36.22738],[-87.16904,36.22756],[-87.16841,36.2279],[-87.16709,36.22886],[-87.16618,36.23009],[-87.16506,36.23402],[-87.165,36.23578],[-87.1664,36.23755],[-87.16704,36.23899],[-87.16674,36.23935],[-87.16705,36.24024],[-87.17,36.24531],[-87.17119,36.24659],[-87.17294,36.24739],[-87.17405,36.24768],[-87.17548,36.24773],[-87.17698,36.24739],[-87.17813,36.24692],[-87.1835,36.24409],[-87.18407,36.24393],[-87.18614,36.24207],[-87.18666,36.24191],[-87.18766,36.24235],[-87.1887,36.24308],[-87.18924,36.24325],[-87.19013,36.2432],[-87.19136,36.24355],[-87.19198,36.24398],[-87.19266,36.2442],[-87.194,36.24531],[-87.19425,36.2459],[-87.19382,36.24787],[-87.19335,36.24887],[-87.1916,36.25098],[-87.1896,36.25289],[-87.18879,36.25333],[-87.18579,36.25561],[-87.18299,36.25704],[-87.18216,36.25814],[-87.1823,36.25921],[-87.18191,36.25988],[-87.17951,36.26055],[-87.17884,36.26102],[-87.17899,36.26173],[-87.17875,36.26241],[-87.1762,36.26496],[-87.17428,36.26587],[-87.17221,36.26645],[-87.17117,36.26666],[-87.16957,36.26674],[-87.16469,36.26853],[-87.16421,36.26889],[-87.16214,36.26946],[-87.16074,36.27011],[-87.15975,36.27084],[-87.15855,36.27126],[-87.15787,36.27172],[-87.15728,36.2723],[-87.15639,36.2737],[-87.15609,36.27452],[-87.15594,36.27555],[-87.15638,36.2759],[-87.15666,36.27703],[-87.15608,36.27752],[-87.15589,36.27792],[-87.15612,36.27959],[-87.15597,36.28044],[-87.15554,36.28137],[-87.15443,36.28284],[-87.15433,36.28369],[-87.15135,36.28476],[-87.14973,36.28507],[-87.14891,36.28493],[-87.14821,36.28515],[-87.14274,36.28517],[-87.13995,36.28571],[-87.13875,36.28578],[-87.13568,36.2867],[-87.13483,36.28748],[-87.13424,36.28885],[-87.13431,36.28963],[-87.13486,36.29051],[-87.13784,36.29186],[-87.14014,36.29361],[-87.14213,36.29471],[-87.14321,36.29515],[-87.14461,36.29527],[-87.14565,36.29553],[-87.14637,36.29589],[-87.14759,36.29655],[-87.15026,36.29872],[-87.15145,36.30031],[-87.15219,36.30188],[-87.15253,36.30368],[-87.15209,36.3048]]]}}
