{"type":"Feature","properties":{"id":"horse-creek-greene","name":"Horse Creek (Greene County)","waterbodyType":"creek","throughLakeIds":[],"allowOpenEnds":false,"source":"nhd-hu8-06010108","approximate":false,"labelAnchor":[-82.65714,36.15866],"bounds":[-82.71084,36.06826,-82.63314,36.16435],"crs":"EPSG:4326","coordinateOrder":"longitude,latitude","partCount":1,"vertexCount":150,"lengthKm":18.34,"sourceIds":["130986904","130987148","130987541","130988683","130988905","130993689","130997817","130998571","130999090","130999828","131001330","131003865","131004227","131005518","131006066","131007138","131008050","130986615","130986546","130986566","130986556","130987120","130987122","130987110","130986971","130987194","130987197","130987160","130987142","130987253","130986973"],"sourceRetrieved":"2026-09-11","geometrySource":"nhd","hu8":"06010108","simplification":{"toleranceM":10,"verticesBefore":694,"verticesAfter":150,"budgetBytes":81920},"trace":{"anchor":{"lat":36.1587,"lon":-82.6571,"snapDistM":6},"up":{"spec":"headwater","reason":"headwater","terminus":[-82.633143,36.068264],"distKmFromAnchor":12.14},"down":{"spec":"confluence:Nolichucky River","reason":"confluence","terminus":[-82.710842,36.164354],"enteredNames":["Nolichucky River"],"distKmFromAnchor":6.38},"vaaUsed":false,"toleranceM":12}},"geometry":{"type":"MultiLineString","coordinates":[[[-82.63314,36.06826],[-82.63437,36.06993],[-82.63593,36.07086],[-82.6377,36.0725],[-82.63915,36.07664],[-82.6401,36.07775],[-82.64118,36.07863],[-82.64291,36.08149],[-82.64371,36.08376],[-82.64338,36.08559],[-82.64376,36.08692],[-82.64369,36.08775],[-82.64391,36.08814],[-82.64662,36.08992],[-82.64792,36.09058],[-82.64863,36.09076],[-82.64934,36.09132],[-82.65059,36.09127],[-82.65248,36.0926],[-82.65394,36.09335],[-82.6564,36.09429],[-82.65686,36.09488],[-82.6566,36.09539],[-82.65696,36.09594],[-82.65697,36.09661],[-82.65774,36.09751],[-82.65744,36.09786],[-82.65635,36.098],[-82.65611,36.09815],[-82.6553,36.09961],[-82.65431,36.10008],[-82.65408,36.10034],[-82.65371,36.10148],[-82.65365,36.1029],[-82.6532,36.10345],[-82.65333,36.10566],[-82.65482,36.1061],[-82.65627,36.10625],[-82.65663,36.1067],[-82.6563,36.10756],[-82.65699,36.10869],[-82.65687,36.11066],[-82.65605,36.11292],[-82.65621,36.1142],[-82.65711,36.11547],[-82.65612,36.11739],[-82.6557,36.11866],[-82.65333,36.12071],[-82.65269,36.12172],[-82.6525,36.12257],[-82.65127,36.12322],[-82.65024,36.1251],[-82.65036,36.12555],[-82.65021,36.12634],[-82.65053,36.12743],[-82.65051,36.12978],[-82.64994,36.13126],[-82.64996,36.13197],[-82.65085,36.13431],[-82.65093,36.13509],[-82.65163,36.13638],[-82.65178,36.1373],[-82.6513,36.13915],[-82.65067,36.14049],[-82.65077,36.14148],[-82.65121,36.14256],[-82.64992,36.14379],[-82.64964,36.14468],[-82.65079,36.14731],[-82.65063,36.14783],[-82.6508,36.14855],[-82.65066,36.14935],[-82.65116,36.15032],[-82.65145,36.15223],[-82.65245,36.15426],[-82.65365,36.15561],[-82.65446,36.1563],[-82.65541,36.15683],[-82.65634,36.15803],[-82.65713,36.15865],[-82.65806,36.15917],[-82.65903,36.15943],[-82.65985,36.16041],[-82.66079,36.16073],[-82.66103,36.16102],[-82.66162,36.16104],[-82.66296,36.16187],[-82.66312,36.16313],[-82.66333,36.1633],[-82.66563,36.16324],[-82.6665,36.16263],[-82.66835,36.16218],[-82.66888,36.16249],[-82.66962,36.16235],[-82.67062,36.16267],[-82.67185,36.16254],[-82.67213,36.16207],[-82.67316,36.16114],[-82.67493,36.16039],[-82.67553,36.15973],[-82.6769,36.15948],[-82.67864,36.15959],[-82.67976,36.16008],[-82.68269,36.16015],[-82.68295,36.16045],[-82.68343,36.16059],[-82.68475,36.16056],[-82.68575,36.16115],[-82.68623,36.16176],[-82.68642,36.16177],[-82.68829,36.16114],[-82.68958,36.16119],[-82.69061,36.16048],[-82.69324,36.16266],[-82.69403,36.16239],[-82.69479,36.16273],[-82.69569,36.16287],[-82.69619,36.16251],[-82.69657,36.16257],[-82.69698,36.16243],[-82.69716,36.16212],[-82.69818,36.16208],[-82.69858,36.16195],[-82.6988,36.16168],[-82.70077,36.16209],[-82.70136,36.16265],[-82.70187,36.16287],[-82.70216,36.16325],[-82.70283,36.16346],[-82.70303,36.16341],[-82.70336,36.16253],[-82.70358,36.16259],[-82.7038,36.16302],[-82.70408,36.16307],[-82.70443,36.16282],[-82.70435,36.1622],[-82.70501,36.16214],[-82.70521,36.1618],[-82.70611,36.16177],[-82.70708,36.16245],[-82.70664,36.16272],[-82.70608,36.16281],[-82.70612,36.16301],[-82.70796,36.16365],[-82.70817,36.16335],[-82.70842,36.16336],[-82.70958,36.1639],[-82.70974,36.16328],[-82.70992,36.16324],[-82.71084,36.16435]]]}}
