{"type":"Feature","properties":{"id":"charles-creek","name":"Charles Creek","waterbodyType":"creek","throughLakeIds":[],"allowOpenEnds":false,"source":"nhd-hu8-05130107","approximate":false,"labelAnchor":[-85.8594,35.74679],"bounds":[-85.96055,35.71608,-85.74124,35.80122],"crs":"EPSG:4326","coordinateOrder":"longitude,latitude","partCount":1,"vertexCount":185,"lengthKm":29.4,"sourceIds":["51180165","51180057","51180075","51179989","51179913","51179931","51179881","51179829","51179809","51179741","51179723","51179707","51179671","51179663","51179647","51179649","51179645","51179631","51180181","51180189","51180215","51180229","51180223","51180197","51180205","51180237","51180241","51180269","51180273","51180249","51180261","51180279","51180301","51180289","51180365","51180377","51180387","51180393","51180391","51180379","51180351","51180319","51180311","51180299","51180293","51180331","51180329"],"sourceRetrieved":"2026-09-11","geometrySource":"nhd","hu8":"05130107","simplification":{"toleranceM":10,"verticesBefore":618,"verticesAfter":185,"budgetBytes":81920},"trace":{"anchor":{"lat":35.7468,"lon":-85.8594,"snapDistM":0.7},"up":{"spec":"headwater","reason":"headwater","terminus":[-85.960546,35.799226],"distKmFromAnchor":14.94},"down":{"spec":"mouth","reason":"name-change","terminus":[-85.741242,35.718866],"enteredNames":["Collins River"],"distKmFromAnchor":10.68},"vaaUsed":false,"toleranceM":12}},"geometry":{"type":"MultiLineString","coordinates":[[[-85.96055,35.79923],[-85.96034,35.79943],[-85.9591,35.7999],[-85.9581,35.80083],[-85.95734,35.80112],[-85.95642,35.80122],[-85.95595,35.80104],[-85.95575,35.80037],[-85.95456,35.79959],[-85.95441,35.79922],[-85.95256,35.7981],[-85.95003,35.79815],[-85.9494,35.79792],[-85.9493,35.79745],[-85.94821,35.79735],[-85.94796,35.79708],[-85.94713,35.79671],[-85.94618,35.79483],[-85.94612,35.79435],[-85.9463,35.79401],[-85.94579,35.7915],[-85.9458,35.78935],[-85.94452,35.78767],[-85.94282,35.7869],[-85.9406,35.78655],[-85.94035,35.78626],[-85.93833,35.78554],[-85.93584,35.78554],[-85.93309,35.78451],[-85.93175,35.78464],[-85.92789,35.783],[-85.9266,35.78226],[-85.9262,35.78157],[-85.92516,35.78127],[-85.92396,35.78122],[-85.92281,35.78095],[-85.92144,35.77978],[-85.9191,35.7788],[-85.91895,35.77816],[-85.91811,35.77807],[-85.91655,35.77729],[-85.91469,35.77511],[-85.91305,35.77436],[-85.91297,35.77384],[-85.91224,35.77354],[-85.91144,35.77352],[-85.91118,35.7732],[-85.91097,35.77236],[-85.90971,35.77099],[-85.90868,35.77025],[-85.90685,35.76925],[-85.90681,35.76873],[-85.90584,35.76812],[-85.90482,35.7667],[-85.90485,35.76605],[-85.90457,35.76484],[-85.90356,35.7633],[-85.90097,35.76035],[-85.89916,35.75897],[-85.89773,35.7584],[-85.89637,35.75805],[-85.89393,35.7577],[-85.89331,35.75749],[-85.89277,35.75704],[-85.89173,35.75735],[-85.89123,35.75729],[-85.89004,35.75753],[-85.8878,35.75743],[-85.8871,35.75785],[-85.88604,35.75818],[-85.88536,35.75799],[-85.88449,35.75737],[-85.88415,35.75641],[-85.88306,35.75587],[-85.88145,35.75424],[-85.88114,35.7542],[-85.88092,35.75434],[-85.8803,35.7539],[-85.87974,35.75403],[-85.87729,35.75245],[-85.87716,35.75165],[-85.87695,35.75137],[-85.87547,35.75007],[-85.87516,35.74961],[-85.87515,35.74881],[-85.87431,35.74831],[-85.87367,35.74806],[-85.87322,35.74808],[-85.8731,35.74838],[-85.87334,35.74873],[-85.8726,35.74873],[-85.87124,35.74907],[-85.87018,35.74889],[-85.86945,35.74899],[-85.86836,35.74887],[-85.8679,35.74909],[-85.86664,35.7492],[-85.86492,35.74841],[-85.86381,35.74844],[-85.86345,35.74818],[-85.86319,35.74819],[-85.86242,35.74755],[-85.86095,35.74677],[-85.85959,35.74688],[-85.85814,35.74582],[-85.8565,35.74416],[-85.85503,35.74328],[-85.85407,35.74243],[-85.85279,35.74208],[-85.85216,35.74224],[-85.84989,35.74208],[-85.84735,35.74076],[-85.8459,35.73909],[-85.84564,35.73847],[-85.84509,35.73782],[-85.84295,35.73597],[-85.84269,35.73509],[-85.8594,35.74679],[-85.84242,35.7346],[-85.83938,35.73518],[-85.83818,35.7359],[-85.83757,35.73592],[-85.83707,35.73575],[-85.83639,35.73517],[-85.83574,35.7353],[-85.83429,35.73508],[-85.83133,35.73372],[-85.83038,35.73352],[-85.82823,35.7335],[-85.82625,35.73313],[-85.82526,35.73221],[-85.82437,35.73089],[-85.82242,35.73013],[-85.82161,35.72998],[-85.82118,35.73017],[-85.82067,35.73002],[-85.82027,35.73008],[-85.8187,35.73116],[-85.81745,35.73223],[-85.81595,35.73214],[-85.81492,35.7318],[-85.81402,35.73171],[-85.80987,35.72931],[-85.80737,35.72759],[-85.8061,35.72711],[-85.80481,35.72587],[-85.80406,35.72569],[-85.8021,35.72569],[-85.79921,35.72641],[-85.79583,35.726],[-85.794,35.72536],[-85.79389,35.72514],[-85.79328,35.72498],[-85.79269,35.72458],[-85.78966,35.72353],[-85.78778,35.72395],[-85.78684,35.72432],[-85.78292,35.72428],[-85.78068,35.72458],[-85.77998,35.72452],[-85.7784,35.72186],[-85.77831,35.72053],[-85.77461,35.71823],[-85.77328,35.71793],[-85.77256,35.71803],[-85.77043,35.71753],[-85.76903,35.71691],[-85.76866,35.71627],[-85.76819,35.71608],[-85.76663,35.71745],[-85.76637,35.71799],[-85.76555,35.71828],[-85.76381,35.7185],[-85.76104,35.71775],[-85.76029,35.71763],[-85.75929,35.71769],[-85.75594,35.71855],[-85.75373,35.71957],[-85.75028,35.72014],[-85.74771,35.72036],[-85.74529,35.72022],[-85.74408,35.71978],[-85.74279,35.71908],[-85.74166,35.71879],[-85.74124,35.71887]]]}}
