{"type":"Feature","properties":{"id":"standing-rock-creek","name":"Standing Rock Creek","waterbodyType":"creek","throughLakeIds":[],"allowOpenEnds":false,"source":"nhd-hu8-06040005","approximate":false,"labelAnchor":[-87.99829,36.43672],"bounds":[-88.049,36.40988,-87.86276,36.43928],"crs":"EPSG:4326","coordinateOrder":"longitude,latitude","partCount":1,"vertexCount":164,"lengthKm":20.29,"sourceIds":["59217933","59217932","59217946","59217915","59217909","59217905","59217894","59217880","59217923","59217942","59217944","59217995","59218024","59218038","59218065","59218122","59218131","59218127","59218108","59218093","59218088","59218104","59218112","59218068","59217925","59217908","59217887","59217903","59217918","59217937","59217967","59217981","59218006","59218021","59218030","59218048","59218087","59218096","59218100","59218109","59218125"],"sourceRetrieved":"2026-09-11","geometrySource":"nhd","hu8":"06040005","simplification":{"toleranceM":10,"verticesBefore":642,"verticesAfter":164,"budgetBytes":81920},"trace":{"anchor":{"lat":36.4367,"lon":-87.9983,"snapDistM":2.2},"up":{"spec":"headwater","reason":"headwater","terminus":[-87.862765,36.41896],"distKmFromAnchor":15.06},"down":{"spec":"mouth","reason":"name-change","terminus":[-88.048999,36.41945],"enteredNames":["Tennessee River"],"distKmFromAnchor":5.42},"vaaUsed":false,"toleranceM":12}},"geometry":{"type":"MultiLineString","coordinates":[[[-87.86276,36.41896],[-87.86332,36.41833],[-87.86508,36.41707],[-87.86575,36.41611],[-87.86631,36.41565],[-87.86658,36.41506],[-87.86726,36.41473],[-87.86743,36.41445],[-87.8685,36.41419],[-87.86898,36.4139],[-87.86964,36.41387],[-87.87099,36.41326],[-87.87151,36.41324],[-87.87203,36.41275],[-87.87274,36.41255],[-87.87309,36.4123],[-87.87399,36.41222],[-87.87537,36.41104],[-87.87626,36.41102],[-87.87683,36.41066],[-87.87876,36.41024],[-87.88098,36.41006],[-87.88206,36.4105],[-87.8828,36.41055],[-87.88414,36.40988],[-87.88535,36.41045],[-87.88705,36.41046],[-87.88752,36.41067],[-87.88877,36.41081],[-87.89287,36.41304],[-87.8935,36.4132],[-87.89523,36.41416],[-87.89614,36.41437],[-87.89686,36.41433],[-87.89775,36.41391],[-87.89966,36.41394],[-87.9031,36.4136],[-87.90572,36.41387],[-87.9062,36.4141],[-87.90842,36.41419],[-87.90886,36.41449],[-87.90939,36.41452],[-87.90997,36.41484],[-87.91113,36.41459],[-87.91141,36.41502],[-87.91303,36.4147],[-87.91419,36.41532],[-87.9147,36.41494],[-87.91555,36.41487],[-87.91674,36.41439],[-87.91765,36.4137],[-87.91794,36.41371],[-87.91868,36.41411],[-87.9192,36.41414],[-87.91999,36.41317],[-87.92096,36.41268],[-87.92166,36.41258],[-87.92192,36.41194],[-87.9232,36.41127],[-87.92339,36.41125],[-87.92385,36.41168],[-87.92444,36.41189],[-87.92537,36.41201],[-87.92633,36.4118],[-87.92713,36.41141],[-87.92784,36.41141],[-87.92838,36.41112],[-87.92942,36.41094],[-87.93008,36.41127],[-87.93338,36.41181],[-87.93396,36.41206],[-87.93488,36.4121],[-87.9357,36.41255],[-87.93716,36.41271],[-87.93747,36.41298],[-87.93769,36.41391],[-87.93819,36.4146],[-87.9391,36.41519],[-87.94001,36.41551],[-87.94008,36.4158],[-87.94096,36.41686],[-87.94108,36.41772],[-87.94146,36.4179],[-87.94257,36.41805],[-87.94302,36.41902],[-87.94396,36.41917],[-87.94452,36.4195],[-87.94523,36.42023],[-87.94531,36.42117],[-87.94763,36.42196],[-87.9486,36.42281],[-87.94926,36.42386],[-87.95069,36.42451],[-87.95083,36.42527],[-87.95054,36.42607],[-87.95069,36.42647],[-87.95117,36.42692],[-87.9523,36.42722],[-87.95247,36.42758],[-87.95309,36.42801],[-87.95325,36.42831],[-87.95444,36.42877],[-87.95496,36.42957],[-87.95552,36.43013],[-87.95604,36.43038],[-87.95637,36.43091],[-87.95681,36.43122],[-87.95844,36.43156],[-87.95999,36.43207],[-87.96095,36.43274],[-87.9624,36.43413],[-87.96488,36.43446],[-87.96622,36.43495],[-87.96795,36.43592],[-87.97008,36.43756],[-87.97107,36.43771],[-87.97272,36.43686],[-87.97328,36.43671],[-87.9739,36.43678],[-87.97511,36.43731],[-87.97573,36.43738],[-87.97832,36.43643],[-87.97913,36.43655],[-87.98004,36.43693],[-87.98258,36.43681],[-87.98506,36.43606],[-87.98608,36.43509],[-87.98681,36.43474],[-87.98863,36.43451],[-87.99002,36.43412],[-87.99098,36.4347],[-87.99302,36.43552],[-87.99393,36.43617],[-87.99448,36.43679],[-87.99606,36.43656],[-87.99702,36.43602],[-87.99871,36.43693],[-88.00104,36.43848],[-88.00214,36.43894],[-88.00348,36.4392],[-88.00456,36.43902],[-88.00682,36.43928],[-88.00934,36.43877],[-88.01068,36.43811],[-88.01105,36.43788],[-88.01158,36.43702],[-88.01222,36.43652],[-88.01442,36.43603],[-88.01568,36.43598],[-88.01651,36.43563],[-88.01815,36.43542],[-88.01958,36.4348],[-88.02017,36.43427],[-88.0219,36.43358],[-88.02446,36.43219],[-88.02548,36.43187],[-88.02778,36.42996],[-88.02818,36.42922],[-88.03044,36.42707],[-88.03305,36.42581],[-88.03677,36.4222],[-88.03967,36.42186],[-88.04435,36.42099],[-88.049,36.41945]]]}}
