{"type":"Feature","properties":{"id":"holston-river","name":"Holston River","waterbodyType":"river","throughLakeIds":["cherokee-lake","fort-loudoun-lake"],"allowOpenEnds":false,"source":"nhd-hu8-06010104","approximate":false,"labelAnchor":[-83.31356,36.2814],"bounds":[-83.85764,35.95863,-82.60888,36.55418],"crs":"EPSG:4326","coordinateOrder":"longitude,latitude","partCount":1,"vertexCount":425,"lengthKm":219.48,"sourceIds":["138802839","138802844","138802865","138802882","138802898","138802904","138802905","138802889","138802890","138802914","138802949","138802701","138802910","138802911","138802682","138802673","138802670","138802671","138802672","138802952","138802968","138802977","138802971","138802962","138802953","138802950","138802939","138802934","138802644","138802645","138802924","138802626","138802925","138802936","138802940","138802956","138802960","138802965","138802976","138802986","138802989","138802992","138802998","138802999","138803001","138803005","138803008","138803013","138803015","138803019","138803021","138803023","138803025","138803027","138803028","138803030","138803033","138803034","138803035","138803038","138803040","138803042","138803044","138803046","138802598","138803049","138802592","138802593","138802594","138802596","138802595","138803063","138803060","138802591","138802590","138802589","138802582","138802583","138802584","138802585","138802586","138802587","138802581","138802580","138802578","138802577","138802579","138802569","138802570","138802571","138802572","138802573","138802574","138802575","138802565","138802566","138802567","138802564","138802563","138802562","138802561","138802559","138802560","138802539","138802540","138802541","138802542","138802544","138802545","138802546","138802547","138802548","138802549","138802550","138802552","138802553","138802556","138802558","138802557","138802555","138802554","138802551","138802537","138802536","138802535","138802534","138802533","138802532","138803099","138803106","138803109","138803117","138803121","138802524","138802525","138802526","138802527","138802528","138802529","138802530","138802531","138802521","138802520","138803128","138802493","138802494","138802495","138802496","138802497","138802498","138802499","138802500","138803136","138803138","138803140","138802501","138802502","138802503","138802504","138803155","138803158","138803160","138803162","138803154","138803148","138803144","138803143","138803145","138803150","138803152","138803157","138803166","138802505","138802506","138802507","138802508","138802509","138802510","138802511","138802512","138802513","138802515","138802518","138802517","138802516","147535012","{0D700C7C-A164-4342-947D-FE3E99BFB5B0}","147535011","138802835","138802808","138802807","138802810","138802813","138802816","{55088CEB-1FDE-49E0-A018-F13F03BCA7B2}","138803203","138802713","138802714","138802719","138802722","138802723","138802724","138802732","138802733","138802734","138802735","138802875","138802885","138802883","138803812","138803806","138803804","138803803","138803800","138803799","138803798","138803797","138803796","138803801","138803802","138803805","138803807","138803808","138803809","138803810","138803811","138803813","138803814","138803898","138803897","138803896","138803895","138803894","138803893","138803892","138803906","138803876","138803782","138803783","138803784","138803785","138803791","138803793","138803790","138803789","138803794","138803788","138803787","138803786","138803792","138803795","138803781","138803778","138803779","138803780","138803776","138803777","138803775","138803774","138803932","138803936","138803939","138803944","138803955","138803960","138803964","138803969","138803977","138803978","138803988","138804007","138803891","138803890","138803889","138803970","138803961","138803962","138803973","138803976","138803983","138803985","138803986","138803990","138804001","138803881","138803885","138803888","138803887","138803886","138803884","138803883","138803882","138803880","138803879","138803878","138803877","138803994","138803993","138803992","138803999","138804003","138804010","138804011","138804013","138804017","138804020","138804022","138804025","138804027","138803772","138803773","138803771","138803770","138803769","138803768","138803764","138803765","138803766","138803767","138803875","138803899","138803900","138803901","138803902","138803762","138803763","138803760","138803761","138804035","138804036","138804037","138804040","138804045","138804046","138804048","138804050","51627278","51627298"],"sourceRetrieved":"2026-09-11","geometrySource":"nhd","hu8":"06010104","simplification":{"toleranceM":50,"verticesBefore":8648,"verticesAfter":425,"budgetBytes":17694},"trace":{"anchor":{"lat":36.2814,"lon":-83.31355,"snapDistM":0.5},"up":{"spec":"headwater","reason":"headwater","terminus":[-82.614942,36.554176],"distKmFromAnchor":112.15},"down":{"spec":"mouth","reason":"terminal-node","terminus":[-83.850716,35.958627],"enteredNames":null,"distKmFromAnchor":109.78},"vaaUsed":false,"toleranceM":12}},"geometry":{"type":"MultiLineString","coordinates":[[[-82.61494,36.55418],[-82.61192,36.54788],[-82.61198,36.54553],[-82.60888,36.53449],[-82.60911,36.53074],[-82.61148,36.52726],[-82.62063,36.52366],[-82.63357,36.52191],[-82.63879,36.52192],[-82.65303,36.52618],[-82.65822,36.5302],[-82.66105,36.53052],[-82.66378,36.53242],[-82.67231,36.53171],[-82.67948,36.52747],[-82.68146,36.52423],[-82.68128,36.52194],[-82.67963,36.51909],[-82.68032,36.51401],[-82.67491,36.50292],[-82.67613,36.50082],[-82.67909,36.4985],[-82.68947,36.49665],[-82.69649,36.49795],[-82.70181,36.50109],[-82.70268,36.5045],[-82.70737,36.50857],[-82.71918,36.51521],[-82.72556,36.51754],[-82.73023,36.51795],[-82.74216,36.51694],[-82.74809,36.51261],[-82.75024,36.51005],[-82.75072,36.50718],[-82.75233,36.5044],[-82.75736,36.50086],[-82.75929,36.49788],[-82.76131,36.49207],[-82.76177,36.47948],[-82.76411,36.47722],[-82.76907,36.47452],[-82.77417,36.47436],[-82.78778,36.47971],[-82.79329,36.4842],[-82.79677,36.49048],[-82.80019,36.49389],[-82.80378,36.49508],[-82.80732,36.49387],[-82.80914,36.4914],[-82.8084,36.48682],[-82.79745,36.47133],[-82.79416,36.46454],[-82.79427,36.46171],[-82.79701,36.45797],[-82.80199,36.45594],[-82.80842,36.45581],[-82.81874,36.46011],[-82.82539,36.46487],[-82.83862,36.47149],[-82.84326,36.47229],[-82.84627,36.47175],[-82.84971,36.46925],[-82.85116,36.46636],[-82.85079,36.46406],[-82.84848,36.46117],[-82.84718,36.45685],[-82.84669,36.45207],[-82.84801,36.44901],[-82.85144,36.44668],[-82.86092,36.44322],[-82.86992,36.43545],[-82.87297,36.43383],[-82.87869,36.43421],[-82.88238,36.43718],[-82.88622,36.43857],[-82.88948,36.43852],[-82.89249,36.43712],[-82.89437,36.43524],[-82.89517,36.43266],[-82.89448,36.4282],[-82.89148,36.42159],[-82.89194,36.41899],[-82.89388,36.41719],[-82.89955,36.41549],[-82.90432,36.4167],[-82.92034,36.42651],[-82.92322,36.42645],[-82.93194,36.42135],[-82.93465,36.41622],[-82.93502,36.41027],[-82.93917,36.3948],[-82.94094,36.39358],[-82.94262,36.3889],[-82.94453,36.38665],[-82.95106,36.38297],[-82.95381,36.38241],[-82.9615,36.38261],[-82.96537,36.38152],[-82.96936,36.37983],[-82.97696,36.3743],[-82.98559,36.37096],[-82.99363,36.37073],[-82.99972,36.36915],[-83.00568,36.37069],[-83.01325,36.37402],[-83.01714,36.37248],[-83.02004,36.36868],[-83.0233,36.36604],[-83.02975,36.36559],[-83.03432,36.36443],[-83.03924,36.36448],[-83.04404,36.36313],[-83.04611,36.36405],[-83.04578,36.36938],[-83.04688,36.37066],[-83.05806,36.36952],[-83.06017,36.37077],[-83.06272,36.37456],[-83.06617,36.37659],[-83.06852,36.37532],[-83.06865,36.37287],[-83.06737,36.36969],[-83.06809,36.36765],[-83.07374,36.36513],[-83.07709,36.36528],[-83.08046,36.36979],[-83.08195,36.37529],[-83.08381,36.37768],[-83.09054,36.38157],[-83.09638,36.38083],[-83.09991,36.37629],[-83.09878,36.37211],[-83.10021,36.37028],[-83.1101,36.36945],[-83.11885,36.36305],[-83.12297,36.36177],[-83.12728,36.36167],[-83.13145,36.36058],[-83.14063,36.35532],[-83.14902,36.35443],[-83.1569,36.35628],[-83.16238,36.35926],[-83.16563,36.36019],[-83.17037,36.35919],[-83.1721,36.3575],[-83.17119,36.35576],[-83.1679,36.35296],[-83.16716,36.35138],[-83.16767,36.35002],[-83.16976,36.34855],[-83.17699,36.347],[-83.18369,36.34095],[-83.18332,36.33506],[-83.18074,36.32764],[-83.17881,36.32391],[-83.1739,36.31888],[-83.17419,36.31655],[-83.17637,36.31394],[-83.17953,36.31316],[-83.18561,36.31463],[-83.18963,36.3135],[-83.192,36.31125],[-83.19444,36.31022],[-83.19833,36.31059],[-83.20389,36.30794],[-83.21166,36.30644],[-83.21251,36.30839],[-83.21697,36.30926],[-83.22314,36.30765],[-83.22556,36.30847],[-83.22818,36.30777],[-83.23414,36.30774],[-83.23438,36.30449],[-83.2316,36.29884],[-83.23914,36.29713],[-83.24005,36.29431],[-83.23854,36.29229],[-83.23483,36.29089],[-83.2321,36.28754],[-83.23359,36.2838],[-83.23654,36.28298],[-83.24531,36.28752],[-83.24976,36.28698],[-83.25364,36.28786],[-83.25596,36.28746],[-83.2581,36.28843],[-83.26294,36.28908],[-83.26605,36.28773],[-83.26729,36.28618],[-83.26525,36.28388],[-83.26386,36.28025],[-83.26434,36.27823],[-83.26692,36.27654],[-83.26943,36.276],[-83.27261,36.27734],[-83.27568,36.27691],[-83.27731,36.2745],[-83.27718,36.26987],[-83.2819,36.26426],[-83.28484,36.26369],[-83.28806,36.26416],[-83.28934,36.2655],[-83.28899,36.27061],[-83.2908,36.27543],[-83.3028,36.27984],[-83.31319,36.28019],[-83.31356,36.2814],[-83.31693,36.28455],[-83.3263,36.28218],[-83.32712,36.27683],[-83.33003,36.2746],[-83.33698,36.27238],[-83.34245,36.27329],[-83.34343,36.27473],[-83.34357,36.27776],[-83.3487,36.27738],[-83.35511,36.28015],[-83.35794,36.27783],[-83.36321,36.26858],[-83.37319,36.26436],[-83.37713,36.25913],[-83.38378,36.25489],[-83.38507,36.25416],[-83.3924,36.25553],[-83.39785,36.25515],[-83.40356,36.25159],[-83.40865,36.2498],[-83.41495,36.24639],[-83.41701,36.24305],[-83.42173,36.23852],[-83.4219,36.23625],[-83.42415,36.23252],[-83.42605,36.23176],[-83.43132,36.22679],[-83.43611,36.21875],[-83.44128,36.2189],[-83.44858,36.21624],[-83.46085,36.20015],[-83.46229,36.19293],[-83.47016,36.18519],[-83.47329,36.17925],[-83.48036,36.17386],[-83.4831,36.16979],[-83.48735,36.16753],[-83.49147,36.16294],[-83.49926,36.1664],[-83.4996,36.16724],[-83.50616,36.16947],[-83.51415,36.17717],[-83.51764,36.17845],[-83.52105,36.17602],[-83.5248,36.16443],[-83.52734,36.16297],[-83.52986,36.16314],[-83.53525,36.16781],[-83.53553,36.17762],[-83.53732,36.18116],[-83.53893,36.18182],[-83.54365,36.18189],[-83.54904,36.17964],[-83.55759,36.1794],[-83.55883,36.18056],[-83.55921,36.18654],[-83.56069,36.18974],[-83.56388,36.19186],[-83.56596,36.19162],[-83.56731,36.18988],[-83.56742,36.18556],[-83.56183,36.17543],[-83.56148,36.17196],[-83.56232,36.16963],[-83.56467,36.16675],[-83.56692,36.16574],[-83.57268,36.16599],[-83.57847,36.1683],[-83.58174,36.16772],[-83.58272,36.16539],[-83.58034,36.15685],[-83.58122,36.15513],[-83.58341,36.15422],[-83.58772,36.15448],[-83.58931,36.15574],[-83.58974,36.15803],[-83.58855,36.16327],[-83.58991,36.16604],[-83.59145,36.16664],[-83.59376,36.16624],[-83.59798,36.16386],[-83.60203,36.15148],[-83.59987,36.14485],[-83.60028,36.14128],[-83.6038,36.13861],[-83.60612,36.13904],[-83.6104,36.14139],[-83.61173,36.14121],[-83.61263,36.14015],[-83.61076,36.13636],[-83.607,36.13338],[-83.60655,36.13179],[-83.60739,36.13049],[-83.61036,36.13048],[-83.61368,36.13393],[-83.61677,36.14164],[-83.61847,36.14338],[-83.62099,36.14348],[-83.62563,36.13937],[-83.62805,36.13857],[-83.62938,36.13929],[-83.63147,36.14333],[-83.63307,36.14471],[-83.63567,36.14507],[-83.63759,36.14404],[-83.63923,36.1369],[-83.6387,36.12942],[-83.63626,36.1266],[-83.6311,36.12571],[-83.62901,36.12469],[-83.62761,36.12217],[-83.62793,36.11824],[-83.63857,36.10654],[-83.63606,36.1012],[-83.63691,36.09852],[-83.64131,36.0971],[-83.6446,36.09716],[-83.6501,36.09928],[-83.65257,36.10126],[-83.65445,36.10472],[-83.65429,36.10651],[-83.65284,36.10815],[-83.6488,36.11034],[-83.64765,36.11251],[-83.65041,36.11839],[-83.66057,36.12119],[-83.66534,36.12134],[-83.67298,36.12434],[-83.67453,36.12386],[-83.67555,36.12132],[-83.67587,36.1133],[-83.675,36.11156],[-83.67075,36.10791],[-83.66858,36.10023],[-83.66015,36.0912],[-83.65921,36.08695],[-83.6612,36.08318],[-83.66374,36.08151],[-83.66681,36.08065],[-83.67494,36.08204],[-83.67738,36.08324],[-83.68931,36.09351],[-83.69483,36.09565],[-83.70326,36.09599],[-83.7072,36.09482],[-83.70909,36.09341],[-83.71032,36.08982],[-83.70809,36.08299],[-83.70626,36.08179],[-83.69907,36.06973],[-83.69232,36.06275],[-83.69233,36.06086],[-83.69499,36.05812],[-83.69742,36.05729],[-83.70035,36.05745],[-83.70662,36.05941],[-83.71234,36.06235],[-83.71755,36.06249],[-83.72102,36.06028],[-83.72265,36.05511],[-83.72516,36.05094],[-83.72893,36.04967],[-83.73603,36.05092],[-83.73942,36.05456],[-83.74386,36.05643],[-83.74611,36.05593],[-83.75095,36.052],[-83.75381,36.05164],[-83.75591,36.05322],[-83.75899,36.06018],[-83.76191,36.06134],[-83.76508,36.06101],[-83.76803,36.0597],[-83.77067,36.05601],[-83.77087,36.04779],[-83.77243,36.04404],[-83.7745,36.04152],[-83.77664,36.04066],[-83.77904,36.04075],[-83.78422,36.04613],[-83.78633,36.04681],[-83.78847,36.04655],[-83.79013,36.04497],[-83.79151,36.04022],[-83.79337,36.03775],[-83.79592,36.03723],[-83.80208,36.04029],[-83.80506,36.04039],[-83.80651,36.03858],[-83.80799,36.0315],[-83.80958,36.03091],[-83.81598,36.03152],[-83.81845,36.03095],[-83.8198,36.0293],[-83.81889,36.02584],[-83.81993,36.0229],[-83.8218,36.02223],[-83.82625,36.02307],[-83.83179,36.02062],[-83.83256,36.0179],[-83.82903,36.01255],[-83.82787,36.00848],[-83.82611,36.00662],[-83.82459,36.00081],[-83.82501,35.99879],[-83.82659,35.99763],[-83.8315,35.99688],[-83.83409,35.99067],[-83.83565,35.98905],[-83.84201,35.98763],[-83.84885,35.98948],[-83.85264,35.98969],[-83.85548,35.98834],[-83.85738,35.98538],[-83.85764,35.98145],[-83.85489,35.978],[-83.8508,35.96979],[-83.85072,35.95863]]]}}
