{"type":"Feature","properties":{"id":"boiling-fork-creek","name":"Boiling Fork Creek","waterbodyType":"creek","throughLakeIds":["tims-ford-lake"],"allowOpenEnds":false,"source":"nhd-hu8-06030003","approximate":false,"labelAnchor":[-86.03103,35.15525],"bounds":[-86.15716,35.1547,-85.92777,35.20445],"crs":"EPSG:4326","coordinateOrder":"longitude,latitude","partCount":1,"vertexCount":268,"lengthKm":31.56,"sourceIds":["138652644","138652645","138652646","138652647","138652648","138652649","138652650","138652651","138652652","138652653","138652654","138652655","138652656","138652657","138652658","138652659","138652660","138652661","138623616","138656093","138652643","{A6C7A809-6792-4964-B1CE-90BF1C03A1EF}","138652642","138656122","138656121","138656120","138656119","138656118","138656117","138656116","138656131","138656130","138655201","138655096","138655119","138655118","138655111","138655110","138655097"],"sourceRetrieved":"2026-09-11","geometrySource":"nhd","hu8":"06030003","simplification":{"toleranceM":10,"verticesBefore":2313,"verticesAfter":268,"budgetBytes":81920},"trace":{"anchor":{"lat":35.1552,"lon":-86.031,"snapDistM":5.8},"up":{"spec":"headwater","reason":"headwater","terminus":[-85.92777,35.194512],"distKmFromAnchor":12.47},"down":{"spec":"mouth","reason":"name-change","terminus":[-86.15716300000001,35.203805],"enteredNames":["Elk River"],"distKmFromAnchor":19.06},"vaaUsed":false,"toleranceM":12}},"geometry":{"type":"MultiLineString","coordinates":[[[-85.92777,35.19451],[-85.92842,35.19323],[-85.9285,35.19203],[-85.92882,35.19128],[-85.92837,35.18849],[-85.92861,35.1881],[-85.92931,35.18767],[-85.93034,35.18731],[-85.93192,35.18733],[-85.93269,35.18751],[-85.93365,35.18718],[-85.93439,35.18709],[-85.93766,35.18708],[-85.93924,35.1862],[-85.93989,35.18568],[-85.94224,35.18554],[-85.94303,35.18537],[-85.94381,35.18492],[-85.94489,35.18398],[-85.94619,35.18382],[-85.94804,35.1828],[-85.95033,35.18295],[-85.95044,35.18257],[-85.95111,35.18245],[-85.95228,35.18187],[-85.95596,35.18147],[-85.95641,35.18157],[-85.95654,35.18192],[-85.95697,35.18178],[-85.95735,35.18187],[-85.95763,35.1815],[-85.95811,35.1816],[-85.95856,35.18133],[-85.95909,35.1815],[-85.95946,35.18142],[-85.95954,35.18186],[-85.96062,35.18168],[-85.96216,35.18058],[-85.96422,35.17822],[-85.96481,35.17785],[-85.96576,35.17756],[-85.96587,35.17679],[-85.9671,35.17545],[-85.96727,35.17512],[-85.96721,35.17466],[-85.96803,35.17399],[-85.96805,35.17325],[-85.96838,35.17282],[-85.96935,35.17268],[-85.97058,35.17276],[-85.97068,35.17256],[-85.97038,35.17229],[-85.97042,35.17215],[-85.97234,35.17107],[-85.97393,35.17046],[-85.97552,35.17024],[-85.97664,35.17024],[-85.97739,35.16953],[-85.97801,35.16946],[-85.97868,35.16852],[-85.97895,35.16842],[-85.98178,35.1685],[-85.98319,35.16898],[-85.98773,35.16947],[-85.98848,35.16939],[-85.98897,35.16862],[-85.98897,35.16818],[-85.98969,35.16764],[-85.98964,35.1674],[-85.98934,35.16726],[-85.9894,35.16694],[-85.99056,35.16575],[-85.99167,35.16502],[-85.99178,35.16409],[-85.99203,35.16395],[-85.99339,35.16383],[-85.99493,35.16285],[-85.99666,35.16306],[-85.99725,35.16265],[-85.99773,35.16262],[-85.99822,35.16213],[-85.99914,35.16296],[-86.00043,35.16378],[-86.00094,35.16437],[-86.00181,35.16468],[-86.00238,35.16518],[-86.00265,35.16519],[-86.00304,35.16502],[-86.00335,35.16454],[-86.00461,35.1645],[-86.00503,35.16465],[-86.00563,35.16446],[-86.00591,35.16321],[-86.00652,35.16272],[-86.00712,35.16126],[-86.00688,35.16065],[-86.00697,35.1604],[-86.00789,35.15981],[-86.00841,35.15923],[-86.00985,35.15861],[-86.01489,35.15771],[-86.01582,35.15782],[-86.0171,35.15713],[-86.01825,35.15754],[-86.01979,35.15733],[-86.02084,35.15699],[-86.02203,35.15614],[-86.02323,35.15606],[-86.02422,35.15564],[-86.02598,35.15637],[-86.02737,35.15578],[-86.02825,35.15563],[-86.02884,35.15523],[-86.03103,35.15525],[-86.02898,35.15522],[-86.03038,35.1557],[-86.03084,35.15551],[-86.03104,35.15524],[-86.03172,35.15521],[-86.03205,35.15535],[-86.0324,35.1553],[-86.03294,35.15614],[-86.03301,35.15657],[-86.03354,35.15678],[-86.03461,35.15584],[-86.03622,35.15544],[-86.03743,35.1567],[-86.03853,35.1566],[-86.03899,35.15605],[-86.03943,35.15583],[-86.04062,35.15621],[-86.04124,35.15596],[-86.04201,35.1559],[-86.04293,35.15552],[-86.04374,35.15557],[-86.04434,35.15509],[-86.04472,35.15498],[-86.04709,35.15498],[-86.04752,35.15555],[-86.04775,35.15543],[-86.04803,35.15491],[-86.04837,35.15482],[-86.04862,35.15506],[-86.04871,35.15574],[-86.04972,35.15479],[-86.05005,35.1547],[-86.05099,35.1551],[-86.05135,35.15567],[-86.0521,35.1555],[-86.05296,35.15559],[-86.05365,35.15533],[-86.05431,35.15551],[-86.05503,35.15527],[-86.05689,35.15581],[-86.05736,35.15618],[-86.05834,35.15606],[-86.05867,35.15629],[-86.05877,35.1579],[-86.05847,35.16045],[-86.05802,35.16115],[-86.05808,35.16209],[-86.05622,35.16434],[-86.05609,35.16494],[-86.05663,35.16527],[-86.05735,35.1653],[-86.05788,35.16506],[-86.06068,35.16181],[-86.06353,35.15995],[-86.06421,35.15975],[-86.06488,35.1599],[-86.06583,35.15988],[-86.06651,35.15957],[-86.06702,35.15975],[-86.06803,35.16085],[-86.0696,35.16207],[-86.07033,35.16229],[-86.07125,35.16326],[-86.07104,35.16364],[-86.06857,35.16549],[-86.06778,35.16592],[-86.06765,35.16614],[-86.06798,35.16655],[-86.07086,35.1671],[-86.07228,35.16611],[-86.07289,35.16602],[-86.07344,35.16657],[-86.07419,35.16804],[-86.07478,35.16845],[-86.07509,35.16888],[-86.07548,35.16992],[-86.07609,35.17041],[-86.07681,35.17084],[-86.0799,35.17145],[-86.08064,35.17195],[-86.08232,35.17446],[-86.0845,35.176],[-86.08472,35.17628],[-86.08452,35.17668],[-86.08243,35.177],[-86.08231,35.17739],[-86.08255,35.17785],[-86.08302,35.17815],[-86.08471,35.17815],[-86.08583,35.17835],[-86.08804,35.17908],[-86.08818,35.17929],[-86.08704,35.18034],[-86.08694,35.18134],[-86.08903,35.18303],[-86.09113,35.18428],[-86.09139,35.18472],[-86.09194,35.18487],[-86.09329,35.1859],[-86.09421,35.1877],[-86.09496,35.1882],[-86.09588,35.18919],[-86.09763,35.1897],[-86.09842,35.18879],[-86.09929,35.18868],[-86.1007,35.18907],[-86.10167,35.18906],[-86.10362,35.18756],[-86.10434,35.18729],[-86.1047,35.1874],[-86.10577,35.18861],[-86.10678,35.18939],[-86.10712,35.18937],[-86.10735,35.18915],[-86.10789,35.18796],[-86.10841,35.18802],[-86.10914,35.18842],[-86.10972,35.18924],[-86.11213,35.1914],[-86.11355,35.19393],[-86.11612,35.19626],[-86.11635,35.19665],[-86.11627,35.1975],[-86.11647,35.1988],[-86.11692,35.19945],[-86.11787,35.20025],[-86.1185,35.20149],[-86.1194,35.20167],[-86.12132,35.20255],[-86.12229,35.20266],[-86.12352,35.20255],[-86.12392,35.20204],[-86.12635,35.20168],[-86.1268,35.20139],[-86.12707,35.20099],[-86.12764,35.1982],[-86.12911,35.19729],[-86.13222,35.19865],[-86.13499,35.19864],[-86.13874,35.19988],[-86.13902,35.20022],[-86.14125,35.2],[-86.14315,35.20066],[-86.14466,35.20141],[-86.14563,35.20219],[-86.14627,35.20336],[-86.14731,35.20433],[-86.14773,35.20445],[-86.14992,35.2037],[-86.15155,35.20367],[-86.152,35.20347],[-86.15409,35.20376],[-86.15536,35.20362],[-86.15716,35.20381]]]}}
