{"type":"Feature","properties":{"id":"boone-tailwater","name":"Boone Tailwater (South Fork Holston River)","waterbodyType":"tailrace","throughLakeIds":["fort-patrick-henry-lake","cherokee-lake"],"allowOpenEnds":false,"source":"nhd-hu8-06010102","approximate":false,"labelAnchor":[-82.43791,36.4407],"bounds":[-82.61192,36.44064,-82.43781,36.55089],"crs":"EPSG:4326","coordinateOrder":"longitude,latitude","partCount":1,"vertexCount":147,"lengthKm":29.37,"sourceIds":["43589202","43588916","43588904","43588748","43588488","43588164","43588038","43588082","43588106","43588080","43588020","43587874","43587794","43587728","43587608","43587444","43587340","43587226","43587090","43586994","43587338","43587332","43587328","43587230","43587098","43586946","43586974","43586970","43586854","43586274","43586188","43585764","43585396","43585366","43585376","147535010","{F775F337-88D9-40DA-ABDD-00B16E6B983D}"],"sourceRetrieved":"2026-09-11","geometrySource":"nhd","hu8":"06010102","simplification":{"toleranceM":10,"verticesBefore":259,"verticesAfter":147,"budgetBytes":81920},"trace":{"anchor":{"lat":36.4407,"lon":-82.4379,"snapDistM":0.8},"up":{"spec":"dam:Boone Lake","reason":"dam","terminus":[-82.437856,36.440182],"distKmFromAnchor":0.16},"down":{"spec":"mouth","reason":"terminal-node","terminus":[-82.611726,36.548095],"enteredNames":null,"distKmFromAnchor":29.25},"vaaUsed":false,"toleranceM":12}},"geometry":{"type":"MultiLineString","coordinates":[[[-82.4379,36.44064],[-82.43781,36.44466],[-82.43846,36.44583],[-82.43942,36.44667],[-82.44079,36.44722],[-82.44157,36.44776],[-82.44446,36.45035],[-82.44663,36.45198],[-82.45474,36.45661],[-82.45758,36.4595],[-82.46021,36.46173],[-82.46119,36.46219],[-82.46304,36.46246],[-82.46484,36.46237],[-82.46678,36.46191],[-82.46778,36.46184],[-82.46868,36.46224],[-82.46916,36.46319],[-82.46918,36.46559],[-82.46946,36.46711],[-82.46901,36.469],[-82.46827,36.46973],[-82.46589,36.47127],[-82.46205,36.47244],[-82.46134,36.47355],[-82.46172,36.47453],[-82.46272,36.47518],[-82.46537,36.47562],[-82.46721,36.47544],[-82.47098,36.47398],[-82.47398,36.47248],[-82.47603,36.47228],[-82.47956,36.47269],[-82.48043,36.47324],[-82.48189,36.47492],[-82.48191,36.47656],[-82.48129,36.47823],[-82.47988,36.47903],[-82.47568,36.47905],[-82.47469,36.47943],[-82.47409,36.48009],[-82.47387,36.48079],[-82.47466,36.48257],[-82.47582,36.48369],[-82.47807,36.48549],[-82.47852,36.48624],[-82.4787,36.48728],[-82.47775,36.48794],[-82.47601,36.48875],[-82.47581,36.48943],[-82.47583,36.49043],[-82.47632,36.49171],[-82.47719,36.49219],[-82.47692,36.49316],[-82.47623,36.49381],[-82.47514,36.49409],[-82.47392,36.49525],[-82.47381,36.49596],[-82.47428,36.49674],[-82.47504,36.49729],[-82.4814,36.49933],[-82.48357,36.50033],[-82.4846,36.50135],[-82.48643,36.50417],[-82.48755,36.50536],[-82.48949,36.50583],[-82.49792,36.50506],[-82.50435,36.50691],[-82.5057,36.50786],[-82.50691,36.50833],[-82.5082,36.50842],[-82.50919,36.50761],[-82.50864,36.50577],[-82.50695,36.50271],[-82.50573,36.50118],[-82.50561,36.49931],[-82.50648,36.4983],[-82.50736,36.49793],[-82.50834,36.49791],[-82.51173,36.49868],[-82.51206,36.49856],[-82.51285,36.4986],[-82.51371,36.49898],[-82.51553,36.5003],[-82.51636,36.50064],[-82.51831,36.50257],[-82.52017,36.50384],[-82.52029,36.50422],[-82.52432,36.50651],[-82.52494,36.50707],[-82.52506,36.50782],[-82.52418,36.50886],[-82.5237,36.50985],[-82.52336,36.51205],[-82.5234,36.51358],[-82.5236,36.51435],[-82.52396,36.51488],[-82.52471,36.51549],[-82.52572,36.51596],[-82.52723,36.51613],[-82.5286,36.51571],[-82.5308,36.51409],[-82.5317,36.51311],[-82.53263,36.51172],[-82.53329,36.51124],[-82.53499,36.51082],[-82.53617,36.51104],[-82.53728,36.51146],[-82.53859,36.51066],[-82.53985,36.51048],[-82.5413,36.5107],[-82.54303,36.51129],[-82.54373,36.5116],[-82.54733,36.51397],[-82.54998,36.51481],[-82.5533,36.51784],[-82.55381,36.51798],[-82.55471,36.51875],[-82.55593,36.52077],[-82.55758,36.52295],[-82.5581,36.52449],[-82.5593,36.52713],[-82.56074,36.52872],[-82.56395,36.53116],[-82.56578,36.53404],[-82.56629,36.53458],[-82.56937,36.53682],[-82.57388,36.53956],[-82.57674,36.54278],[-82.5779,36.54382],[-82.58458,36.54808],[-82.58697,36.54896],[-82.58972,36.54894],[-82.59116,36.54937],[-82.59147,36.54971],[-82.59258,36.54971],[-82.59318,36.54998],[-82.59821,36.55061],[-82.59892,36.55063],[-82.59965,36.55039],[-82.60181,36.55054],[-82.60304,36.55089],[-82.60684,36.55068],[-82.60875,36.55026],[-82.61023,36.54961],[-82.61099,36.549],[-82.61192,36.54788]]]}}
