{"type":"Feature","properties":{"id":"leconte-creek","name":"LeConte Creek","waterbodyType":"creek","throughLakeIds":[],"allowOpenEnds":false,"source":"nhd-hu8-06010107","approximate":false,"labelAnchor":[-83.50922,35.69788],"bounds":[-83.52271,35.65722,-83.44751,35.70957],"crs":"EPSG:4326","coordinateOrder":"longitude,latitude","partCount":1,"vertexCount":104,"lengthKm":10.29,"sourceIds":["{3C1C4BCD-7140-43B7-B80A-02B942B19032}","{B34EB26A-1931-4D81-91C3-E15D57D5BC3D}","51638586","51638846","51638850","51638852","51638854","51638856","{4E0770E9-91A0-41FB-A5C3-86E03B3A668E}","51638412","51638268","{F6145A3F-3D69-4C1D-BF4E-EEABAB9968D7}"],"sourceRetrieved":"2026-09-11","geometrySource":"nhd","hu8":"06010107","simplification":{"toleranceM":10,"verticesBefore":1166,"verticesAfter":104,"budgetBytes":81920},"trace":{"anchor":{"lat":35.698113,"lon":-83.509013,"snapDistM":32.1},"up":{"spec":"headwater","reason":"headwater","terminus":[-83.447506,35.657218],"distKmFromAnchor":8.03},"down":{"spec":"mouth","reason":"name-change","terminus":[-83.52269400000002,35.7095744],"enteredNames":["West Prong Little Pigeon River"],"distKmFromAnchor":2.16},"vaaUsed":false,"toleranceM":12}},"geometry":{"type":"MultiLineString","coordinates":[[[-83.44751,35.65722],[-83.44782,35.65787],[-83.44851,35.65863],[-83.45015,35.65978],[-83.45269,35.66025],[-83.45453,35.66018],[-83.45505,35.66027],[-83.45571,35.6606],[-83.45714,35.66072],[-83.45799,35.66097],[-83.45922,35.661],[-83.46006,35.66141],[-83.46075,35.66139],[-83.46137,35.66181],[-83.46294,35.66233],[-83.46507,35.66228],[-83.46656,35.66182],[-83.46694,35.662],[-83.46755,35.66204],[-83.46817,35.66227],[-83.46872,35.66269],[-83.46924,35.66271],[-83.46975,35.66311],[-83.47135,35.66345],[-83.47254,35.66324],[-83.47317,35.66364],[-83.47381,35.6637],[-83.47412,35.66391],[-83.47493,35.66406],[-83.4762,35.66501],[-83.47736,35.66557],[-83.47792,35.66606],[-83.47863,35.66628],[-83.47895,35.66662],[-83.47953,35.66679],[-83.48033,35.66782],[-83.48108,35.66916],[-83.4817,35.66971],[-83.48283,35.67022],[-83.48347,35.67161],[-83.4841,35.67209],[-83.48423,35.67256],[-83.4857,35.67396],[-83.48664,35.67429],[-83.48733,35.67518],[-83.48743,35.67561],[-83.48862,35.67662],[-83.4893,35.67779],[-83.49029,35.67813],[-83.49108,35.67917],[-83.49217,35.67965],[-83.49248,35.68026],[-83.49334,35.68093],[-83.49329,35.68152],[-83.49384,35.68207],[-83.49388,35.68249],[-83.49503,35.68321],[-83.49563,35.6842],[-83.49672,35.68454],[-83.49772,35.68517],[-83.49915,35.6856],[-83.4998,35.68652],[-83.50047,35.68669],[-83.50101,35.68666],[-83.5014,35.68696],[-83.50198,35.68697],[-83.50252,35.68731],[-83.50289,35.68735],[-83.50293,35.68765],[-83.5033,35.68802],[-83.50324,35.68895],[-83.50355,35.68943],[-83.50355,35.69033],[-83.50413,35.69117],[-83.5042,35.69203],[-83.5046,35.69229],[-83.50503,35.69228],[-83.50531,35.69305],[-83.50584,35.69324],[-83.50612,35.69374],[-83.50681,35.69403],[-83.50717,35.69494],[-83.50705,35.69551],[-83.50783,35.69592],[-83.50812,35.6964],[-83.50815,35.69687],[-83.50922,35.69788],[-83.50818,35.69693],[-83.5088,35.69729],[-83.50951,35.69808],[-83.50972,35.69908],[-83.51184,35.70114],[-83.51255,35.70142],[-83.51327,35.70142],[-83.514,35.70199],[-83.51579,35.70247],[-83.51726,35.7032],[-83.51797,35.70429],[-83.51914,35.7048],[-83.51877,35.7064],[-83.51965,35.70723],[-83.51993,35.708],[-83.52136,35.70939],[-83.52271,35.70957]]]}}
