{"type":"Feature","properties":{"id":"ft-patrick-henry-tailwater","name":"Fort Patrick Henry Tailwater (South Fork Holston River)","waterbodyType":"tailrace","throughLakeIds":["cherokee-lake"],"allowOpenEnds":false,"source":"nhd-hu8-06010102","approximate":false,"labelAnchor":[-82.50905,36.49805],"bounds":[-82.61192,36.49802,-82.50887,36.55089],"crs":"EPSG:4326","coordinateOrder":"longitude,latitude","partCount":1,"vertexCount":68,"lengthKm":13.1,"sourceIds":["43587332","43587328","43587230","43587098","43586946","43586974","43586970","43586854","43586274","43586188","43585764","43585396","43585366","43585376","147535010","{F775F337-88D9-40DA-ABDD-00B16E6B983D}"],"sourceRetrieved":"2026-09-11","geometrySource":"nhd","hu8":"06010102","simplification":{"toleranceM":10,"verticesBefore":153,"verticesAfter":68,"budgetBytes":81920},"trace":{"anchor":{"lat":36.4982,"lon":-82.509,"snapDistM":16.6},"up":{"spec":"dam:Fort Patrick Henry Lake","reason":"dam","terminus":[-82.5088105,36.4980065],"distKmFromAnchor":0.04},"down":{"spec":"confluence:Holston River","reason":"terminal-node","terminus":[-82.611726,36.548095],"enteredNames":null,"distKmFromAnchor":13.1},"vaaUsed":false,"toleranceM":12}},"geometry":{"type":"MultiLineString","coordinates":[[[-82.50887,36.49802],[-82.51173,36.49868],[-82.51264,36.49855],[-82.51371,36.49898],[-82.51553,36.5003],[-82.51636,36.50064],[-82.51831,36.50257],[-82.52017,36.50384],[-82.52029,36.50422],[-82.52432,36.50651],[-82.52494,36.50707],[-82.52506,36.50782],[-82.52418,36.50886],[-82.5237,36.50985],[-82.52336,36.51205],[-82.5234,36.51358],[-82.5236,36.51435],[-82.52396,36.51488],[-82.52471,36.51549],[-82.52572,36.51596],[-82.52723,36.51613],[-82.5286,36.51571],[-82.5308,36.51409],[-82.5317,36.51311],[-82.53263,36.51172],[-82.53329,36.51124],[-82.53499,36.51082],[-82.53617,36.51104],[-82.53728,36.51146],[-82.53859,36.51066],[-82.53985,36.51048],[-82.5413,36.5107],[-82.54303,36.51129],[-82.54373,36.5116],[-82.54733,36.51397],[-82.54998,36.51481],[-82.5533,36.51784],[-82.55381,36.51798],[-82.55471,36.51875],[-82.55593,36.52077],[-82.55758,36.52295],[-82.5581,36.52449],[-82.5593,36.52713],[-82.56074,36.52872],[-82.56395,36.53116],[-82.56578,36.53404],[-82.56629,36.53458],[-82.56937,36.53682],[-82.57388,36.53956],[-82.57674,36.54278],[-82.5779,36.54382],[-82.58458,36.54808],[-82.58697,36.54896],[-82.58972,36.54894],[-82.59116,36.54937],[-82.59147,36.54971],[-82.59258,36.54971],[-82.59318,36.54998],[-82.59821,36.55061],[-82.59892,36.55063],[-82.59965,36.55039],[-82.60181,36.55054],[-82.60304,36.55089],[-82.60684,36.55068],[-82.60875,36.55026],[-82.61023,36.54961],[-82.61099,36.549],[-82.61192,36.54788]]]}}
