{"type":"Feature","properties":{"id":"stoney-creek-carter","name":"Stoney Creek (Carter County)","waterbodyType":"creek","throughLakeIds":[],"allowOpenEnds":false,"source":"nhd-hu8-06010103","approximate":false,"labelAnchor":[-82.13516,36.38331],"bounds":[-82.15684,36.36776,-81.97598,36.49949],"crs":"EPSG:4326","coordinateOrder":"longitude,latitude","partCount":1,"vertexCount":191,"lengthKm":27.55,"sourceIds":["89945257","89944725","89944639","89944629","89944405","89944341","89944327","89944153","89944121","89944045","89943895","89943777","89943571","89943573","89943401","89943383","89943109","89943081","89942827","89942825","89942727","89942559","89942519","89942503","89942333","89942181","89942059","89942045","89941811","89941753","89941679","89941523","89941397","89941301","89941133","89941065","{532EC515-F5D7-4D30-B2D4-D9F0209F4D9E}","89940909","89940735","89940519","89940487","89940447","89940299","89940265","89940211","89940141","89940115","89939741","89939627","89939613","89939575","89939571","89939537","89939483","89939397","89939335","89939329","89939185","89939169","89939145","89939019","89938989","89938961","89938891","89938777","89938493","89938043","89937993","89945335","89945435","89945637","89946139"],"sourceRetrieved":"2026-09-11","geometrySource":"nhd","hu8":"06010103","simplification":{"toleranceM":10,"verticesBefore":1078,"verticesAfter":191,"budgetBytes":81920},"trace":{"anchor":{"lat":36.383309,"lon":-82.135158,"snapDistM":0},"up":{"spec":"headwater","reason":"headwater","terminus":[-81.984784,36.499485],"distKmFromAnchor":21.86},"down":{"spec":"mouth","reason":"name-change","terminus":[-82.15601,36.367764],"enteredNames":["Watauga River"],"distKmFromAnchor":4.07},"vaaUsed":false,"toleranceM":12}},"geometry":{"type":"MultiLineString","coordinates":[[[-81.98478,36.49949],[-81.98534,36.49783],[-81.98445,36.49639],[-81.98337,36.49553],[-81.98311,36.49512],[-81.9825,36.49278],[-81.98014,36.48869],[-81.97959,36.48616],[-81.97963,36.48442],[-81.9789,36.48213],[-81.97853,36.48008],[-81.97705,36.47857],[-81.97654,36.47474],[-81.97598,36.47348],[-81.97613,36.47268],[-81.97607,36.47157],[-81.97686,36.47079],[-81.97742,36.47049],[-81.97949,36.47017],[-81.97989,36.46996],[-81.9812,36.46971],[-81.98324,36.46891],[-81.985,36.46842],[-81.98758,36.46886],[-81.9902,36.46868],[-81.99336,36.4689],[-81.99495,36.46862],[-81.99558,36.46814],[-81.99712,36.46777],[-81.99965,36.46687],[-82.00235,36.46526],[-82.00295,36.46451],[-82.00415,36.4643],[-82.00536,36.46356],[-82.00716,36.46351],[-82.0086,36.46302],[-82.00989,36.46296],[-82.01052,36.46241],[-82.01212,36.46164],[-82.01392,36.46151],[-82.01436,36.46127],[-82.01503,36.46055],[-82.01809,36.4594],[-82.01955,36.45917],[-82.02083,36.45811],[-82.0219,36.4576],[-82.02241,36.45708],[-82.02343,36.45667],[-82.02509,36.45663],[-82.0256,36.45649],[-82.02633,36.45594],[-82.02739,36.45593],[-82.02822,36.4557],[-82.02931,36.45494],[-82.03036,36.45456],[-82.03087,36.45323],[-82.03229,36.45224],[-82.03593,36.45207],[-82.03654,36.45179],[-82.03717,36.45175],[-82.03849,36.45129],[-82.0399,36.45105],[-82.04085,36.44976],[-82.04133,36.4496],[-82.04178,36.44922],[-82.04279,36.44887],[-82.04336,36.44847],[-82.04345,36.44746],[-82.04392,36.44688],[-82.04401,36.44535],[-82.04453,36.44495],[-82.04471,36.44419],[-82.04565,36.44318],[-82.04571,36.44276],[-82.0451,36.44214],[-82.04523,36.44099],[-82.0464,36.43991],[-82.04708,36.43885],[-82.04761,36.43866],[-82.04833,36.43865],[-82.04988,36.43801],[-82.05096,36.43611],[-82.0516,36.4355],[-82.05212,36.43456],[-82.0534,36.4341],[-82.05518,36.43283],[-82.05627,36.43133],[-82.05644,36.42989],[-82.05679,36.42929],[-82.05758,36.4285],[-82.05881,36.42788],[-82.0592,36.42752],[-82.05907,36.42683],[-82.05834,36.42577],[-82.05915,36.42539],[-82.06174,36.42464],[-82.06203,36.42288],[-82.06283,36.42171],[-82.06368,36.42131],[-82.06555,36.42135],[-82.06606,36.42125],[-82.06674,36.42089],[-82.0673,36.42029],[-82.06791,36.41994],[-82.07031,36.42021],[-82.07179,36.41963],[-82.07231,36.41907],[-82.07255,36.41792],[-82.07342,36.41677],[-82.07464,36.41603],[-82.07608,36.41568],[-82.07625,36.41546],[-82.07684,36.4153],[-82.07847,36.4144],[-82.07894,36.41372],[-82.07931,36.41218],[-82.07969,36.41186],[-82.08106,36.41112],[-82.08156,36.41101],[-82.0823,36.41114],[-82.0837,36.41181],[-82.08428,36.41189],[-82.08591,36.41094],[-82.08639,36.41005],[-82.08747,36.40923],[-82.08932,36.40745],[-82.08977,36.40626],[-82.09125,36.40508],[-82.09195,36.40391],[-82.0931,36.40314],[-82.09385,36.40302],[-82.09472,36.4022],[-82.09551,36.4019],[-82.09737,36.40212],[-82.09832,36.40192],[-82.09898,36.40125],[-82.10008,36.40087],[-82.10181,36.39975],[-82.10252,36.39964],[-82.1047,36.39985],[-82.10678,36.39898],[-82.10853,36.39895],[-82.10941,36.39818],[-82.10987,36.39705],[-82.11109,36.39612],[-82.1116,36.39609],[-82.11296,36.39653],[-82.11348,36.3964],[-82.11437,36.39572],[-82.11501,36.3957],[-82.11647,36.39603],[-82.11723,36.39585],[-82.11867,36.39508],[-82.1194,36.3943],[-82.11987,36.39329],[-82.12044,36.39263],[-82.12177,36.39191],[-82.12277,36.39091],[-82.12354,36.39045],[-82.12752,36.38906],[-82.13516,36.38331],[-82.12783,36.38881],[-82.12904,36.38707],[-82.1309,36.38586],[-82.13277,36.38438],[-82.13303,36.38349],[-82.13321,36.38334],[-82.13411,36.38345],[-82.13549,36.38319],[-82.13783,36.38236],[-82.13961,36.38108],[-82.1406,36.38063],[-82.14121,36.38041],[-82.14265,36.38025],[-82.14357,36.37978],[-82.14463,36.37981],[-82.14779,36.3795],[-82.14818,36.37931],[-82.14889,36.37856],[-82.14938,36.37732],[-82.14964,36.37713],[-82.1539,36.37625],[-82.15468,36.37592],[-82.15555,36.37493],[-82.1556,36.37468],[-82.155,36.37375],[-82.15551,36.37121],[-82.15639,36.37015],[-82.15684,36.36916],[-82.15605,36.36806],[-82.15601,36.36776]]]}}
