{"type":"Feature","properties":{"id":"mississippi-river","name":"Mississippi River","waterbodyType":"river","throughLakeIds":[],"allowOpenEnds":false,"source":"nhd-hu8-08010100","approximate":false,"labelAnchor":[-89.659,35.8993],"bounds":[-90.30426,34.9499,-89.09949,36.98254],"crs":"EPSG:4326","coordinateOrder":"longitude,latitude","partCount":1,"vertexCount":963,"lengthKm":404,"sourceIds":["160756030","141195563","{42148DCC-713F-4D27-99B4-5551FE2696EF}","141195561","141195559","141195501","141195456","141195455","141195454","141195453","{E4775CEA-148B-434E-9FA7-347FC3ABD228}","141195516","141195500","{DEE6EB89-27A5-4C52-BECA-C6F9D4CB4917}","{756AEFD7-AFEE-4311-A025-A7BDFF5D34EE}","141195485","{A5B5C615-A1C3-4D1B-80E9-E2DBF67C0DE8}","141195484","141195539","{576BFDB2-3CC8-464B-9E8F-E7ABF0D64457}","141195540","141195544","141195459","141195458","141195457","141195517","141195535","141195460","54366093","{05A4C088-FEEC-4D44-BDAE-DD1AD8B7B41B}","{55C7AAE2-61BE-46C5-9B71-E7A8BDDC71EE}","54366056","{893B415E-5A56-497B-ABD6-8CDE99F62779}","54366003","54366004","{457275B8-2F16-46A6-8EE4-AC2D7C752DCE}","160756018","160756017","{959BA1D6-D669-4077-AF39-F9741618EAC7}","54366075","54366095","54366094","{94286C45-625E-4E8F-923B-4C88F6059BC9}","54366057","{A63DB32A-FDC2-46ED-B55E-CA891C4B3E74}","54365998","54365981","160755997","{08F643ED-1D5E-4895-ABFD-9AF5A1FBB4EE}","160755998","54365985","{2658E0FA-F5F1-42B1-9D81-AB35BC13A9E5}","54366000","{6DD06D9B-0733-4AE4-B87F-BF76AE9CECA9}","54365999","54365987","{22ED5417-248E-41D7-ADED-44506FF2F4C0}","54365979","54365976","{2E2051F5-B19D-47F2-AA61-91D406913600}","{13FFB714-3722-43F7-AA12-7D3929C5D407}","54365961","{4461DDEE-F101-4952-B7F5-AA4600368E34}","54365952","54365940","54365933","54365931","54365862","{DC018BD4-8728-4B88-91CB-7A52782712C8}","{ABFF7B65-14A4-46BF-9CD1-B79E91E53A3F}","54365861","{9EA65669-F009-418E-97E7-0AD426D864BC}","54365860","54365858","54365856","54365840","54365838","54365830","44745135","160756031","141195502","141195487","141195452","141195450","141195451","141195488","141195489","141195490","141195503","141195504","141195505","141195491","160756037","160756038","141195448","141195446","141195447","141195506","141195577","141195582","141195507","141195508","141195515","141195444","141195443","141195442","141195439","{9C553585-6584-433D-87B7-88A8B11195E3}","141195440","141195441","141195594","160756034","160756033","141195510","141199435","141195511","141195512","141195513","141195514","141195603","141195436","141195437","141195498","{bde27d2a-2440-489e-a086-e162a63ad330}","{5901083f-6815-4f79-ba6d-ead5d23521b0}","{ca5cf42c-4b18-411b-877e-fb71e4f28430}","{d9142e76-47ed-4bca-96a8-c58a12bf5a62}","{4f3240da-6a71-44aa-a16d-00f2fe475273}","141195499","{9e9ff951-858f-47bb-8e5d-119c1e8a215d}"],"sourceRetrieved":"2026-09-11","geometrySource":"nhd","hu8":"08010100","simplification":{"toleranceM":10,"verticesBefore":4324,"verticesAfter":963,"budgetBytes":81920},"trace":{"anchor":{"lat":35.8993,"lon":-89.659,"snapDistM":0.3},"up":{"spec":"headwater","reason":"headwater","terminus":[-89.175452,36.970957],"distKmFromAnchor":222.31},"down":{"spec":"mouth","reason":"terminal-node","terminus":[-90.247914,34.9499],"enteredNames":null,"distKmFromAnchor":175.33},"vaaUsed":false,"toleranceM":12}},"geometry":{"type":"MultiLineString","coordinates":[[[-89.17545,36.97096],[-89.16745,36.97073],[-89.16619,36.97098],[-89.1642,36.97159],[-89.16306,36.97223],[-89.16221,36.97242],[-89.16133,36.97304],[-89.15843,36.97451],[-89.15751,36.97481],[-89.15663,36.97481],[-89.1538,36.97618],[-89.15002,36.97702],[-89.14851,36.97814],[-89.1479,36.97831],[-89.14542,36.97866],[-89.14293,36.97871],[-89.125,36.98254],[-89.11928,36.98202],[-89.11262,36.97854],[-89.10962,36.9764],[-89.10758,36.97422],[-89.10133,36.9658],[-89.09975,36.96183],[-89.09999,36.95974],[-89.09949,36.95924],[-89.101,36.94243],[-89.10138,36.9417],[-89.10182,36.9399],[-89.10331,36.93659],[-89.10437,36.93497],[-89.10951,36.9285],[-89.11008,36.92724],[-89.11081,36.92628],[-89.11146,36.9241],[-89.11315,36.9058],[-89.11372,36.904],[-89.11838,36.90037],[-89.11916,36.89279],[-89.1197,36.89135],[-89.11986,36.88968],[-89.12067,36.88629],[-89.12159,36.88473],[-89.12284,36.88344],[-89.12424,36.88055],[-89.12593,36.87846],[-89.12731,36.87632],[-89.12757,36.87351],[-89.12878,36.87018],[-89.12956,36.86918],[-89.13187,36.86717],[-89.13225,36.86651],[-89.1333,36.86356],[-89.13443,36.86105],[-89.13522,36.85988],[-89.13534,36.85906],[-89.13586,36.85791],[-89.13635,36.85454],[-89.1398,36.84815],[-89.14186,36.8279],[-89.13955,36.81274],[-89.1317,36.79939],[-89.12306,36.7873],[-89.1186,36.77946],[-89.11855,36.77903],[-89.11804,36.77821],[-89.11796,36.77757],[-89.11732,36.77663],[-89.11726,36.77627],[-89.11804,36.76787],[-89.11986,36.76286],[-89.1205,36.76175],[-89.12115,36.7601],[-89.1219,36.75889],[-89.12309,36.74941],[-89.12661,36.74456],[-89.12804,36.74335],[-89.12899,36.73345],[-89.13007,36.73112],[-89.13085,36.73055],[-89.13095,36.72941],[-89.13152,36.72862],[-89.13173,36.72781],[-89.13208,36.72547],[-89.13431,36.72388],[-89.13633,36.71773],[-89.13684,36.71314],[-89.13748,36.7121],[-89.139,36.71029],[-89.14083,36.70864],[-89.14189,36.70741],[-89.14317,36.70437],[-89.14473,36.70264],[-89.14602,36.69999],[-89.14672,36.69928],[-89.1486,36.69799],[-89.14923,36.69115],[-89.1498,36.68929],[-89.15025,36.68834],[-89.15106,36.68739],[-89.15192,36.68543],[-89.15242,36.68399],[-89.15272,36.68118],[-89.15393,36.67785],[-89.15459,36.67703],[-89.15537,36.67543],[-89.15735,36.67311],[-89.1582,36.6718],[-89.1604,36.66952],[-89.161,36.66841],[-89.16218,36.66737],[-89.16364,36.66477],[-89.16516,36.66342],[-89.16807,36.66037],[-89.17213,36.65752],[-89.17458,36.65501],[-89.17886,36.65178],[-89.18707,36.64616],[-89.18744,36.643],[-89.18833,36.64018],[-89.18951,36.63767],[-89.19197,36.63352],[-89.19431,36.63064],[-89.19748,36.62764],[-89.19829,36.62625],[-89.20067,36.62442],[-89.2019,36.61081],[-89.20222,36.60986],[-89.20269,36.6091],[-89.20286,36.60775],[-89.20348,36.60635],[-89.20387,36.60459],[-89.20411,36.60192],[-89.20451,36.60008],[-89.2049,36.59917],[-89.2053,36.59525],[-89.20555,36.59452],[-89.20576,36.5927],[-89.20779,36.59131],[-89.20835,36.59056],[-89.20848,36.58971],[-89.20899,36.58855],[-89.20921,36.5871],[-89.20949,36.58647],[-89.21,36.58585],[-89.21102,36.58512],[-89.21304,36.58327],[-89.21323,36.58117],[-89.22699,36.57114],[-89.2356,36.56686],[-89.23816,36.56701],[-89.23893,36.56648],[-89.23929,36.5665],[-89.23968,36.56623],[-89.24004,36.56625],[-89.24042,36.56599],[-89.2415,36.56605],[-89.24189,36.56578],[-89.24225,36.5658],[-89.24263,36.56554],[-89.24299,36.56556],[-89.24377,36.56503],[-89.24413,36.56505],[-89.24451,36.56479],[-89.24519,36.56482],[-89.24557,36.56456],[-89.2485,36.56472],[-89.24936,36.5642],[-89.25107,36.5643],[-89.25145,36.56403],[-89.25496,36.56423],[-89.25859,36.56468],[-89.25892,36.56499],[-89.25968,36.56503],[-89.26002,36.56534],[-89.26074,36.56538],[-89.26107,36.56568],[-89.26179,36.56572],[-89.26213,36.56603],[-89.2628,36.56607],[-89.26314,36.56637],[-89.2635,36.56639],[-89.26421,36.567],[-89.26457,36.56702],[-89.26491,36.56733],[-89.26527,36.56735],[-89.26593,36.56796],[-89.26629,36.56798],[-89.2673,36.5689],[-89.26766,36.56892],[-89.27038,36.57136],[-89.27069,36.57138],[-89.28809,36.58724],[-89.28845,36.58726],[-89.29079,36.5894],[-89.29115,36.58942],[-89.29216,36.59034],[-89.29247,36.59035],[-89.29385,36.59158],[-89.29421,36.5916],[-89.29455,36.5919],[-89.29491,36.59192],[-89.29658,36.59345],[-89.29694,36.59347],[-89.29828,36.59469],[-89.2986,36.5947],[-89.29895,36.59501],[-89.30228,36.60393],[-89.30668,36.61468],[-89.32209,36.62997],[-89.33107,36.63312],[-89.34115,36.63294],[-89.35307,36.6302],[-89.36321,36.6262],[-89.37037,36.62108],[-89.37612,36.61068],[-89.38026,36.6003],[-89.38246,36.58896],[-89.38559,36.57629],[-89.38695,36.57309],[-89.38854,36.57199],[-89.38871,36.57104],[-89.38934,36.56953],[-89.39361,36.56318],[-89.39658,36.55927],[-89.40097,36.55149],[-89.40173,36.54956],[-89.40209,36.54751],[-89.40254,36.54592],[-89.40298,36.54509],[-89.40331,36.54335],[-89.40499,36.53865],[-89.40539,36.53666],[-89.40593,36.53566],[-89.40731,36.53434],[-89.4099,36.53058],[-89.41161,36.51156],[-89.41251,36.5096],[-89.41381,36.50767],[-89.41675,36.5055],[-89.41695,36.5033],[-89.41744,36.50128],[-89.4187,36.4977],[-89.41959,36.49632],[-89.41977,36.49479],[-89.42021,36.49338],[-89.42063,36.49265],[-89.42133,36.49194],[-89.42642,36.48842],[-89.42772,36.48699],[-89.42888,36.48616],[-89.42898,36.48506],[-89.42936,36.48379],[-89.43119,36.48092],[-89.43635,36.47558],[-89.45023,36.46507],[-89.46535,36.45962],[-89.46947,36.45905],[-89.48283,36.4615],[-89.49022,36.46638],[-89.49356,36.47422],[-89.49159,36.48315],[-89.48876,36.49074],[-89.48616,36.49709],[-89.48485,36.49971],[-89.48466,36.50131],[-89.48253,36.50302],[-89.48237,36.50433],[-89.48128,36.50807],[-89.48057,36.50896],[-89.48002,36.51058],[-89.47895,36.51245],[-89.4756,36.51674],[-89.47412,36.5192],[-89.47378,36.52047],[-89.47257,36.52191],[-89.47075,36.52364],[-89.46957,36.52579],[-89.46793,36.5441],[-89.46808,36.54454],[-89.46837,36.5448],[-89.46839,36.54513],[-89.46868,36.54539],[-89.4687,36.54571],[-89.46899,36.54598],[-89.46901,36.5463],[-89.4693,36.54657],[-89.46932,36.54689],[-89.46961,36.54716],[-89.46963,36.54748],[-89.46992,36.54775],[-89.46994,36.54807],[-89.47023,36.54834],[-89.47025,36.54866],[-89.47054,36.54893],[-89.47056,36.54925],[-89.47085,36.54952],[-89.47087,36.54984],[-89.47116,36.55011],[-89.47118,36.55043],[-89.47147,36.5507],[-89.47149,36.55102],[-89.47178,36.55129],[-89.4718,36.55161],[-89.47212,36.55209],[-89.47769,36.55819],[-89.47771,36.55852],[-89.478,36.55878],[-89.47802,36.55911],[-89.47831,36.55937],[-89.47833,36.5597],[-89.47863,36.55996],[-89.479,36.56088],[-89.48427,36.56632],[-89.48892,36.57054],[-89.48928,36.57056],[-89.48962,36.57087],[-89.48993,36.57088],[-89.49065,36.5715],[-89.49101,36.57152],[-89.49134,36.57182],[-89.4917,36.57184],[-89.49204,36.57215],[-89.4924,36.57217],[-89.49307,36.57277],[-89.49343,36.57279],[-89.49376,36.5731],[-89.49412,36.57312],[-89.49515,36.57375],[-89.49588,36.57379],[-89.49621,36.57409],[-89.49657,36.57411],[-89.4976,36.57474],[-89.49828,36.57477],[-89.49861,36.57508],[-89.49902,36.5751],[-89.49935,36.57541],[-89.50007,36.57544],[-89.50041,36.57575],[-89.50417,36.57617],[-89.5066,36.57626],[-89.50673,36.57638],[-89.51479,36.57681],[-89.51516,36.57716],[-89.5162,36.57718],[-89.51654,36.57748],[-89.52014,36.57768],[-89.52328,36.57743],[-89.53567,36.57228],[-89.55509,36.55984],[-89.56052,36.55609],[-89.56122,36.5548],[-89.56215,36.55188],[-89.56377,36.53296],[-89.56266,36.53165],[-89.56219,36.53073],[-89.56195,36.5299],[-89.56198,36.5285],[-89.56076,36.52693],[-89.56018,36.52572],[-89.55875,36.52346],[-89.55564,36.51964],[-89.55424,36.51706],[-89.55165,36.51409],[-89.55089,36.51237],[-89.55037,36.51163],[-89.54659,36.50819],[-89.54003,36.4999],[-89.53703,36.49126],[-89.53659,36.48848],[-89.53596,36.48691],[-89.53424,36.48528],[-89.53202,36.48276],[-89.5313,36.48172],[-89.52866,36.47928],[-89.52769,36.47801],[-89.52725,36.47735],[-89.52656,36.47538],[-89.52578,36.4739],[-89.5251,36.4714],[-89.522,36.46858],[-89.52226,36.46735],[-89.52354,36.46423],[-89.52398,36.46201],[-89.52588,36.45866],[-89.52653,36.45703],[-89.52728,36.45597],[-89.52782,36.45477],[-89.53073,36.45164],[-89.5385,36.44521],[-89.53964,36.44416],[-89.54037,36.44321],[-89.54077,36.44212],[-89.54141,36.4413],[-89.54225,36.43956],[-89.54296,36.43717],[-89.54348,36.43467],[-89.54378,36.43089],[-89.5437,36.43037],[-89.54186,36.42653],[-89.53989,36.42316],[-89.53741,36.41985],[-89.53612,36.41852],[-89.5354,36.41741],[-89.53168,36.40862],[-89.52694,36.40223],[-89.52271,36.39819],[-89.51989,36.39492],[-89.5181,36.39244],[-89.51802,36.39174],[-89.51678,36.38968],[-89.51524,36.3861],[-89.50995,36.37533],[-89.51052,36.37161],[-89.51158,36.36789],[-89.51116,36.3631],[-89.51484,36.35492],[-89.51882,36.34888],[-89.52446,36.3427],[-89.53165,36.33864],[-89.54045,36.33794],[-89.55061,36.33679],[-89.55724,36.33734],[-89.56503,36.33881],[-89.57535,36.34152],[-89.58298,36.34193],[-89.58905,36.34183],[-89.5907,36.34202],[-89.59252,36.34278],[-89.59571,36.34341],[-89.59741,36.34352],[-89.60017,36.34323],[-89.60129,36.34328],[-89.60333,36.34297],[-89.60696,36.34215],[-89.60805,36.34135],[-89.60878,36.34058],[-89.61564,36.33599],[-89.61723,36.33373],[-89.61816,36.33268],[-89.61973,36.32999],[-89.62003,36.32884],[-89.62024,36.32639],[-89.61945,36.32088],[-89.6172,36.31675],[-89.61285,36.31073],[-89.61071,36.30862],[-89.60935,36.30759],[-89.60593,36.30568],[-89.60459,36.30474],[-89.59687,36.30138],[-89.59505,36.2999],[-89.59324,36.29911],[-89.59007,36.29736],[-89.58914,36.29675],[-89.58787,36.29559],[-89.5847,36.29367],[-89.58186,36.29092],[-89.57976,36.28964],[-89.57793,36.28766],[-89.5761,36.28681],[-89.57489,36.28654],[-89.5683,36.28264],[-89.56652,36.2818],[-89.56527,36.28088],[-89.56397,36.27934],[-89.5629,36.27761],[-89.56155,36.27242],[-89.56124,36.26443],[-89.56289,36.25156],[-89.56956,36.24645],[-89.58203,36.241],[-89.59392,36.23906],[-89.60419,36.2396],[-89.61835,36.24],[-89.63316,36.24506],[-89.64081,36.25006],[-89.64272,36.25025],[-89.64386,36.25058],[-89.64776,36.25111],[-89.64894,36.25093],[-89.65177,36.25004],[-89.65924,36.24589],[-89.66855,36.24477],[-89.67313,36.24375],[-89.67782,36.24112],[-89.68174,36.23551],[-89.68488,36.22884],[-89.68656,36.22483],[-89.6851,36.22181],[-89.68364,36.22005],[-89.68172,36.21811],[-89.67795,36.21496],[-89.67237,36.21131],[-89.67135,36.21046],[-89.67024,36.20985],[-89.66712,36.20844],[-89.66582,36.20757],[-89.6637,36.20649],[-89.66044,36.20532],[-89.65898,36.20443],[-89.65669,36.20345],[-89.65496,36.20243],[-89.65306,36.20101],[-89.65125,36.19926],[-89.64659,36.19597],[-89.64161,36.19138],[-89.63803,36.18755],[-89.63582,36.18576],[-89.63235,36.1833],[-89.62687,36.18092],[-89.61722,36.17761],[-89.60939,36.17251],[-89.60238,36.16612],[-89.59921,36.15993],[-89.59608,36.15518],[-89.59551,36.1525],[-89.59481,36.15047],[-89.59311,36.14694],[-89.593,36.14562],[-89.59251,36.14388],[-89.59231,36.14139],[-89.59233,36.13778],[-89.59315,36.13283],[-89.59379,36.13024],[-89.59473,36.12854],[-89.59546,36.12656],[-89.5985,36.12324],[-89.60149,36.12064],[-89.60244,36.11961],[-89.61096,36.11553],[-89.61191,36.11513],[-89.61287,36.11495],[-89.61605,36.11341],[-89.61659,36.11294],[-89.61901,36.1118],[-89.62088,36.11057],[-89.62191,36.10946],[-89.62309,36.10858],[-89.62497,36.10767],[-89.62978,36.10577],[-89.63244,36.10497],[-89.63382,36.1049],[-89.63596,36.1045],[-89.63945,36.1033],[-89.64437,36.10221],[-89.65541,36.10034],[-89.65817,36.09924],[-89.66157,36.09824],[-89.66476,36.0971],[-89.66907,36.09513],[-89.67006,36.09452],[-89.67212,36.09259],[-89.67278,36.09154],[-89.67392,36.09044],[-89.67495,36.08894],[-89.67656,36.08769],[-89.67742,36.08665],[-89.67903,36.08427],[-89.68011,36.08208],[-89.68069,36.08029],[-89.68068,36.07797],[-89.68225,36.07154],[-89.68219,36.0668],[-89.68248,36.06359],[-89.68288,36.06222],[-89.68484,36.05808],[-89.68522,36.05654],[-89.68517,36.05106],[-89.68492,36.05026],[-89.68434,36.04934],[-89.68762,36.03537],[-89.69275,36.02218],[-89.71121,36.00329],[-89.71191,36.00217],[-89.71309,35.99884],[-89.71424,35.99664],[-89.71478,35.9952],[-89.71689,35.99222],[-89.71729,35.99079],[-89.71861,35.98402],[-89.71974,35.98031],[-89.71979,35.97857],[-89.72014,35.9767],[-89.72009,35.97352],[-89.71974,35.97082],[-89.71824,35.96683],[-89.71737,35.96554],[-89.71314,35.96177],[-89.70902,35.95876],[-89.70753,35.95785],[-89.70614,35.95727],[-89.70444,35.95595],[-89.70176,35.95435],[-89.7004,35.95373],[-89.69695,35.95175],[-89.69546,35.95111],[-89.69243,35.95004],[-89.69042,35.94972],[-89.68845,35.94896],[-89.67455,35.93777],[-89.6633,35.93024],[-89.659,35.8993],[-89.66322,35.93018],[-89.65945,35.92755],[-89.65657,35.92586],[-89.65571,35.92513],[-89.65133,35.91904],[-89.65011,35.91399],[-89.64909,35.90856],[-89.64977,35.90674],[-89.65407,35.9034],[-89.65896,35.89931],[-89.66369,35.89796],[-89.6684,35.89779],[-89.67221,35.89597],[-89.67778,35.89258],[-89.68328,35.89007],[-89.68765,35.89042],[-89.69154,35.89178],[-89.69397,35.8933],[-89.69606,35.89433],[-89.69794,35.89506],[-89.70245,35.8965],[-89.70536,35.89687],[-89.70944,35.89846],[-89.7116,35.89954],[-89.71371,35.90098],[-89.71585,35.90389],[-89.7173,35.90445],[-89.71951,35.90503],[-89.7235,35.90653],[-89.72863,35.90778],[-89.73184,35.90932],[-89.73741,35.90998],[-89.74074,35.90968],[-89.74262,35.90937],[-89.74886,35.90516],[-89.75488,35.90083],[-89.75944,35.89801],[-89.76506,35.89238],[-89.76714,35.88831],[-89.76872,35.88433],[-89.77165,35.87897],[-89.77303,35.87432],[-89.77331,35.86888],[-89.7717,35.86527],[-89.76901,35.86154],[-89.76578,35.85938],[-89.75989,35.85707],[-89.75082,35.85513],[-89.74263,35.85264],[-89.73252,35.84918],[-89.72473,35.84578],[-89.71299,35.8399],[-89.70766,35.83696],[-89.70243,35.83334],[-89.70172,35.83039],[-89.70173,35.82664],[-89.70195,35.82523],[-89.70241,35.82389],[-89.7034,35.82183],[-89.70822,35.81639],[-89.71088,35.81443],[-89.71174,35.81335],[-89.71308,35.8121],[-89.71708,35.80921],[-89.71951,35.80764],[-89.72115,35.80677],[-89.72325,35.80599],[-89.72505,35.80547],[-89.72716,35.80515],[-89.73095,35.80321],[-89.73759,35.79752],[-89.74235,35.79407],[-89.74526,35.79151],[-89.74817,35.78999],[-89.75241,35.78857],[-89.75604,35.78768],[-89.7602,35.78586],[-89.76375,35.78395],[-89.76592,35.78257],[-89.76726,35.78201],[-89.77187,35.77891],[-89.78558,35.77087],[-89.78613,35.76963],[-89.78698,35.76829],[-89.7887,35.76666],[-89.79006,35.76585],[-89.79353,35.76435],[-89.80712,35.75538],[-89.81404,35.75121],[-89.81616,35.75055],[-89.8204,35.74889],[-89.84816,35.7415],[-89.8675,35.73505],[-89.87987,35.73423],[-89.88727,35.73357],[-89.89305,35.73274],[-89.90015,35.73298],[-89.90535,35.73233],[-89.90678,35.73181],[-89.90792,35.73083],[-89.9132,35.72743],[-89.91916,35.72464],[-89.92511,35.72141],[-89.93144,35.71973],[-89.93478,35.71781],[-89.93623,35.71611],[-89.93714,35.71387],[-89.93794,35.71005],[-89.93976,35.70353],[-89.9411,35.70007],[-89.943,35.6967],[-89.94478,35.68876],[-89.9446,35.68687],[-89.94184,35.68062],[-89.93144,35.66986],[-89.92848,35.66575],[-89.92654,35.66081],[-89.92556,35.65933],[-89.92431,35.65784],[-89.92289,35.65666],[-89.92119,35.6557],[-89.91823,35.65488],[-89.91324,35.65386],[-89.90576,35.65292],[-89.89804,35.65165],[-89.89298,35.64973],[-89.88732,35.6468],[-89.88315,35.64406],[-89.88,35.64059],[-89.87807,35.6373],[-89.87666,35.63437],[-89.87618,35.63181],[-89.87655,35.62886],[-89.87699,35.62762],[-89.87868,35.62546],[-89.88006,35.62409],[-89.88398,35.62146],[-89.88574,35.62063],[-89.88717,35.6195],[-89.8939,35.61538],[-89.8967,35.61345],[-89.89723,35.61235],[-89.89944,35.60917],[-89.90167,35.6039],[-89.90221,35.60129],[-89.90212,35.59876],[-89.90271,35.5973],[-89.90305,35.59561],[-89.90295,35.5944],[-89.90531,35.55884],[-89.90336,35.55476],[-89.90276,35.55268],[-89.90186,35.55077],[-89.90012,35.54801],[-89.8999,35.54659],[-89.89989,35.54441],[-89.90012,35.54198],[-89.90047,35.54077],[-89.90119,35.53963],[-89.90219,35.53854],[-89.90299,35.53808],[-89.90389,35.53795],[-89.90412,35.53754],[-89.90434,35.53584],[-89.90398,35.53154],[-89.90412,35.5299],[-89.90461,35.52755],[-89.90521,35.52607],[-89.90711,35.52276],[-89.90789,35.52185],[-89.91019,35.51977],[-89.91262,35.51691],[-89.91409,35.51552],[-89.91612,35.51394],[-89.92193,35.51423],[-89.92494,35.51486],[-89.92608,35.51526],[-89.93043,35.51748],[-89.932,35.51808],[-89.9338,35.51849],[-89.93837,35.51897],[-89.94338,35.51928],[-89.95076,35.52021],[-89.95859,35.52198],[-89.96297,35.52188],[-89.96702,35.52076],[-89.97732,35.51826],[-89.98354,35.51715],[-89.99591,35.51597],[-89.99846,35.51541],[-90.00082,35.51438],[-90.00306,35.51309],[-90.0055,35.51097],[-90.0068,35.5097],[-90.00768,35.50826],[-90.00935,35.50624],[-90.01088,35.50402],[-90.01231,35.49912],[-90.01284,35.4963],[-90.0128,35.49516],[-90.01095,35.48897],[-90.00846,35.48457],[-90.00359,35.47732],[-89.99917,35.46389],[-89.99885,35.45777],[-89.99655,35.44102],[-89.99684,35.43728],[-89.99995,35.43202],[-90.00749,35.42715],[-90.01249,35.42549],[-90.01684,35.42344],[-90.01997,35.42091],[-90.02302,35.41888],[-90.02342,35.41876],[-90.02672,35.41871],[-90.02787,35.41845],[-90.03491,35.41498],[-90.038,35.41421],[-90.04183,35.41363],[-90.04554,35.41335],[-90.04886,35.41125],[-90.05327,35.40805],[-90.05967,35.40279],[-90.06675,35.40084],[-90.06863,35.39958],[-90.07031,35.39715],[-90.07523,35.38666],[-90.07731,35.38283],[-90.07846,35.3799],[-90.08169,35.37302],[-90.08763,35.36446],[-90.08935,35.36225],[-90.09111,35.35893],[-90.09218,35.35618],[-90.09299,35.35463],[-90.09392,35.35147],[-90.09445,35.34846],[-90.09485,35.34434],[-90.09569,35.34068],[-90.09623,35.33917],[-90.09704,35.33782],[-90.09915,35.33229],[-90.10183,35.32976],[-90.10837,35.30457],[-90.10815,35.30312],[-90.10815,35.27978],[-90.1071,35.27422],[-90.10271,35.26656],[-90.097,35.26],[-90.09606,35.2575],[-90.08947,35.24322],[-90.08511,35.23576],[-90.08199,35.23313],[-90.08126,35.232],[-90.07964,35.23053],[-90.07848,35.22901],[-90.07539,35.22561],[-90.07448,35.22402],[-90.07344,35.22181],[-90.07194,35.21704],[-90.07068,35.21399],[-90.06996,35.21103],[-90.06663,35.20476],[-90.0648,35.2004],[-90.06448,35.19884],[-90.06465,35.19624],[-90.0643,35.19426],[-90.06428,35.19298],[-90.06361,35.19061],[-90.06321,35.18609],[-90.06317,35.18216],[-90.06198,35.17899],[-90.06554,35.16052],[-90.06482,35.15797],[-90.06445,35.15452],[-90.06462,35.15307],[-90.06498,35.15189],[-90.0657,35.1448],[-90.06608,35.14316],[-90.06607,35.14173],[-90.06717,35.1392],[-90.06949,35.13559],[-90.07299,35.13163],[-90.07613,35.12873],[-90.08031,35.12544],[-90.08329,35.12342],[-90.087,35.12155],[-90.09113,35.1203],[-90.09188,35.12025],[-90.09366,35.12053],[-90.09632,35.12054],[-90.09917,35.12083],[-90.10297,35.12086],[-90.10613,35.1212],[-90.1079,35.12154],[-90.11434,35.12365],[-90.11603,35.12406],[-90.12052,35.12614],[-90.12363,35.1273],[-90.12817,35.12944],[-90.13514,35.1313],[-90.13793,35.13138],[-90.14195,35.13184],[-90.14874,35.13062],[-90.15523,35.12859],[-90.16164,35.12519],[-90.16404,35.1242],[-90.16509,35.1236],[-90.16632,35.12268],[-90.16728,35.12217],[-90.17115,35.11898],[-90.17283,35.11714],[-90.17391,35.11547],[-90.17565,35.11183],[-90.17648,35.10941],[-90.17741,35.10426],[-90.18042,35.09839],[-90.18151,35.09464],[-90.18189,35.09277],[-90.18255,35.08217],[-90.17891,35.0764],[-90.17892,35.07417],[-90.17929,35.07282],[-90.18062,35.0706],[-90.18046,35.06753],[-90.18181,35.05948],[-90.18349,35.05384],[-90.18586,35.0486],[-90.19233,35.04117],[-90.19842,35.03525],[-90.20445,35.03019],[-90.21264,35.02603],[-90.21887,35.02417],[-90.22702,35.02297],[-90.23386,35.02237],[-90.2432,35.0208],[-90.24922,35.02059],[-90.26396,35.01972],[-90.27102,35.01876],[-90.27557,35.01768],[-90.27946,35.01599],[-90.29003,35.01223],[-90.29613,35.00963],[-90.29832,35.00793],[-90.30083,35.00544],[-90.30229,35.00269],[-90.30407,34.99691],[-90.30426,34.99521],[-90.30396,34.9939],[-90.30312,34.99228],[-90.30115,34.99003],[-90.29978,34.98738],[-90.29721,34.98331],[-90.29311,34.97805],[-90.28894,34.97472],[-90.28588,34.97192],[-90.27879,34.96608],[-90.26969,34.9596],[-90.26074,34.95429],[-90.25943,34.95328],[-90.24791,34.9499]]]}}
