{"type":"Feature","properties":{"id":"little-west-fork-creek","name":"Little West Fork Creek","waterbodyType":"creek","throughLakeIds":[],"allowOpenEnds":false,"source":"nhd-hu8-05130206","approximate":false,"labelAnchor":[-87.38296,36.59539],"bounds":[-87.75775,36.5819,-87.36394,36.64808],"crs":"EPSG:4326","coordinateOrder":"longitude,latitude","partCount":1,"vertexCount":452,"lengthKm":51.03,"sourceIds":["54399698","54399613","54399644","54399625","54399615","54399618","54399619","54399507","54399486","54399463","54399539","54399512","54399495","{5A5A9AC1-BC65-4147-BCA1-9056632CEC29}","{41E3C290-B707-4ADF-95CF-E709A61C5C19}","54399485","54399479","54399471","54399450","54399478","{866C8F77-0D37-4812-8704-704A6A61B8D8}","{6D49CD1B-0919-4CD7-B280-D7EB36FAB00B}","54408190","54408187","54408164","{07329B56-C674-4FD3-B10E-6D3DB32DDEF8}","54408137","54408146","54408145","54408111","54408110","54408107","54408127","54408131","54408132","54408130","54408129","54408117","54408118","54408143","54408144","54408136","54408148","54408155","54408162","54408175","54408183","54408186","54408192","54408194","54408197","54399502","54399516","54399575","54399608","54399621","54399650","54399675","54399676","54399688","54399754","54399803","54399821","54399849","54399893","54399727","54399741","54399766","54399855","54399854","54399826"],"sourceRetrieved":"2026-09-11","geometrySource":"nhd","hu8":"05130206","simplification":{"toleranceM":10,"verticesBefore":1632,"verticesAfter":452,"budgetBytes":81920},"trace":{"anchor":{"lat":36.5954,"lon":-87.383,"snapDistM":4.1},"up":{"spec":"headwater","reason":"headwater","terminus":[-87.757755,36.606857],"distKmFromAnchor":45.72},"down":{"spec":"mouth","reason":"name-change","terminus":[-87.36394860000001,36.5831084],"enteredNames":["West Fork Red River"],"distKmFromAnchor":4.91},"vaaUsed":false,"toleranceM":12}},"geometry":{"type":"MultiLineString","coordinates":[[[-87.75775,36.60686],[-87.75652,36.60709],[-87.75518,36.60761],[-87.75395,36.60882],[-87.75302,36.60927],[-87.75146,36.61057],[-87.74791,36.61057],[-87.74611,36.61083],[-87.74475,36.61026],[-87.74394,36.61018],[-87.74254,36.61077],[-87.74136,36.61107],[-87.73812,36.61111],[-87.73629,36.61199],[-87.73606,36.61273],[-87.73526,36.61368],[-87.73438,36.61391],[-87.73362,36.61371],[-87.73327,36.61496],[-87.73273,36.61582],[-87.73256,36.61719],[-87.73168,36.61772],[-87.73143,36.61817],[-87.72871,36.61821],[-87.72721,36.61795],[-87.72624,36.61795],[-87.72514,36.61818],[-87.72387,36.61917],[-87.72153,36.61941],[-87.72064,36.62003],[-87.71974,36.62026],[-87.71777,36.6212],[-87.71676,36.62202],[-87.71586,36.62241],[-87.71577,36.62288],[-87.71493,36.62433],[-87.71392,36.62456],[-87.71306,36.62433],[-87.71223,36.62468],[-87.71141,36.62475],[-87.71096,36.62505],[-87.7105,36.6258],[-87.70988,36.62618],[-87.70864,36.62669],[-87.70778,36.62658],[-87.70664,36.62665],[-87.70547,36.62718],[-87.70473,36.62781],[-87.70388,36.62781],[-87.70211,36.62751],[-87.70109,36.62693],[-87.70013,36.62686],[-87.69856,36.6271],[-87.69745,36.62772],[-87.6963,36.62778],[-87.69571,36.62763],[-87.69479,36.6281],[-87.69348,36.62835],[-87.69267,36.6289],[-87.69202,36.6291],[-87.69091,36.63009],[-87.68952,36.63053],[-87.6892,36.63085],[-87.68909,36.63123],[-87.6883,36.63121],[-87.68791,36.63192],[-87.68609,36.63192],[-87.68567,36.63232],[-87.68465,36.63219],[-87.68421,36.63229],[-87.68399,36.63327],[-87.68309,36.63394],[-87.68302,36.63478],[-87.68241,36.6356],[-87.68191,36.63606],[-87.68121,36.63599],[-87.68111,36.63631],[-87.68082,36.63651],[-87.68037,36.63632],[-87.67866,36.63637],[-87.67828,36.63671],[-87.67556,36.6374],[-87.67428,36.63722],[-87.67245,36.6364],[-87.67179,36.63639],[-87.67085,36.63716],[-87.67074,36.63795],[-87.66965,36.6382],[-87.66952,36.63885],[-87.66774,36.63936],[-87.66689,36.63917],[-87.66663,36.63872],[-87.66635,36.63861],[-87.66612,36.63809],[-87.66528,36.63739],[-87.66477,36.6373],[-87.6644,36.63707],[-87.66409,36.63739],[-87.66374,36.63744],[-87.66301,36.63718],[-87.66243,36.63774],[-87.66197,36.63789],[-87.66203,36.63831],[-87.66134,36.63855],[-87.66121,36.639],[-87.65992,36.63913],[-87.65953,36.63958],[-87.65903,36.63953],[-87.65874,36.63909],[-87.65812,36.63886],[-87.65724,36.6392],[-87.65723,36.63967],[-87.65703,36.63985],[-87.65671,36.63984],[-87.65647,36.63943],[-87.65604,36.63943],[-87.65465,36.63978],[-87.65405,36.64013],[-87.65306,36.64025],[-87.65259,36.64057],[-87.65196,36.6407],[-87.651,36.64153],[-87.65076,36.64205],[-87.65044,36.64211],[-87.64969,36.64187],[-87.64873,36.64246],[-87.64871,36.64273],[-87.64896,36.64296],[-87.64868,36.64314],[-87.64857,36.64383],[-87.64809,36.64403],[-87.64802,36.64435],[-87.64726,36.64495],[-87.64654,36.64485],[-87.64576,36.64497],[-87.64531,36.64532],[-87.64385,36.64572],[-87.64301,36.64555],[-87.64257,36.6453],[-87.64216,36.6455],[-87.64167,36.64541],[-87.6409,36.6448],[-87.64017,36.64492],[-87.63974,36.64475],[-87.63953,36.64518],[-87.63922,36.64501],[-87.63838,36.64531],[-87.63734,36.64532],[-87.63673,36.6463],[-87.63594,36.64625],[-87.63579,36.647],[-87.63492,36.64713],[-87.63448,36.64773],[-87.63413,36.64764],[-87.63349,36.64715],[-87.63265,36.64714],[-87.63134,36.64727],[-87.62911,36.64799],[-87.6281,36.64792],[-87.6276,36.64808],[-87.62658,36.64774],[-87.62575,36.64781],[-87.62515,36.64736],[-87.62508,36.64699],[-87.6242,36.64694],[-87.62416,36.64675],[-87.625,36.64646],[-87.62518,36.64613],[-87.62489,36.64593],[-87.62391,36.64602],[-87.62355,36.64538],[-87.62332,36.64529],[-87.62242,36.6453],[-87.62154,36.64553],[-87.6216,36.64625],[-87.62107,36.64639],[-87.61973,36.64564],[-87.61952,36.64568],[-87.61942,36.64596],[-87.61916,36.64609],[-87.61781,36.64577],[-87.61798,36.64534],[-87.61858,36.64496],[-87.61816,36.64458],[-87.61684,36.64449],[-87.6162,36.64506],[-87.61578,36.64514],[-87.61474,36.64459],[-87.61383,36.64476],[-87.61302,36.64424],[-87.61273,36.64422],[-87.61225,36.64483],[-87.61218,36.64572],[-87.61114,36.64581],[-87.6107,36.64664],[-87.6105,36.6467],[-87.60946,36.64636],[-87.60859,36.64519],[-87.60734,36.6444],[-87.60593,36.64448],[-87.60561,36.64479],[-87.60564,36.64502],[-87.60475,36.64506],[-87.60432,36.64474],[-87.60428,36.64413],[-87.6038,36.64404],[-87.60243,36.64444],[-87.6017,36.64521],[-87.60121,36.64604],[-87.60053,36.64611],[-87.60014,36.64558],[-87.59957,36.64561],[-87.59905,36.64598],[-87.5989,36.64669],[-87.59623,36.64724],[-87.59586,36.6471],[-87.59482,36.64608],[-87.59461,36.64551],[-87.59432,36.64532],[-87.59346,36.64523],[-87.59209,36.64532],[-87.59043,36.64497],[-87.59002,36.64579],[-87.58923,36.646],[-87.58657,36.64572],[-87.58603,36.64552],[-87.58534,36.64502],[-87.58507,36.64462],[-87.58497,36.64379],[-87.58525,36.64293],[-87.58516,36.64264],[-87.58463,36.64214],[-87.58466,36.64139],[-87.58438,36.64106],[-87.58377,36.64077],[-87.58314,36.6407],[-87.58254,36.64084],[-87.58189,36.64183],[-87.58067,36.6421],[-87.57941,36.64279],[-87.57894,36.64283],[-87.57792,36.64214],[-87.57657,36.64202],[-87.57569,36.64143],[-87.57248,36.64073],[-87.57175,36.64043],[-87.57057,36.64031],[-87.56855,36.63926],[-87.5665,36.63936],[-87.56409,36.63901],[-87.56296,36.63931],[-87.56207,36.6391],[-87.56174,36.63882],[-87.56041,36.63874],[-87.55935,36.63833],[-87.55676,36.63879],[-87.5553,36.63799],[-87.55002,36.63728],[-87.54963,36.63696],[-87.54972,36.63632],[-87.54958,36.63592],[-87.54821,36.63555],[-87.54637,36.63558],[-87.5456,36.63479],[-87.54481,36.63474],[-87.54386,36.6349],[-87.5419,36.63424],[-87.53994,36.63424],[-87.53956,36.63385],[-87.53926,36.63381],[-87.5384,36.63383],[-87.53714,36.63416],[-87.53549,36.63402],[-87.53368,36.63328],[-87.533,36.63237],[-87.53248,36.63215],[-87.53104,36.6321],[-87.52751,36.63239],[-87.52734,36.63163],[-87.52706,36.63123],[-87.52535,36.63117],[-87.52269,36.63083],[-87.52222,36.63058],[-87.5217,36.62986],[-87.52095,36.62987],[-87.52093,36.63057],[-87.52076,36.63076],[-87.52028,36.63076],[-87.51953,36.63035],[-87.51881,36.63026],[-87.51854,36.62977],[-87.51869,36.62928],[-87.51827,36.62797],[-87.51672,36.62725],[-87.5165,36.62695],[-87.51653,36.62599],[-87.51713,36.62484],[-87.51718,36.6244],[-87.5169,36.62344],[-87.51598,36.62306],[-87.51513,36.62308],[-87.51434,36.62287],[-87.51377,36.62311],[-87.51321,36.62299],[-87.513,36.62262],[-87.51322,36.62188],[-87.51258,36.62124],[-87.51101,36.62032],[-87.51096,36.61997],[-87.5095,36.61978],[-87.50799,36.62013],[-87.50691,36.62026],[-87.50626,36.62017],[-87.50588,36.6194],[-87.50401,36.61842],[-87.5031,36.61777],[-87.50138,36.61624],[-87.5006,36.61517],[-87.49901,36.61389],[-87.49808,36.6134],[-87.49726,36.6132],[-87.49561,36.6132],[-87.49425,36.61296],[-87.49282,36.61245],[-87.49128,36.61222],[-87.48991,36.61222],[-87.48719,36.61263],[-87.48387,36.61397],[-87.48206,36.6142],[-87.48073,36.61406],[-87.47476,36.6123],[-87.46986,36.61046],[-87.46895,36.61033],[-87.46695,36.61034],[-87.4641,36.61056],[-87.46236,36.61089],[-87.46144,36.61056],[-87.46026,36.61064],[-87.45858,36.61018],[-87.45708,36.60943],[-87.45314,36.60886],[-87.45119,36.60844],[-87.44855,36.60757],[-87.44448,36.6068],[-87.44068,36.60732],[-87.43942,36.60807],[-87.4387,36.60825],[-87.43698,36.60836],[-87.43536,36.6092],[-87.43366,36.6092],[-87.43098,36.60838],[-87.42871,36.60718],[-87.42755,36.60673],[-87.42739,36.60589],[-87.42792,36.60473],[-87.42831,36.60321],[-87.42826,36.60258],[-87.42771,36.60197],[-87.42484,36.60114],[-87.42316,36.60047],[-87.4224,36.60043],[-87.42002,36.60071],[-87.41878,36.60008],[-87.41761,36.59901],[-87.41434,36.59778],[-87.40992,36.59792],[-87.40715,36.59831],[-87.40479,36.59909],[-87.40384,36.59923],[-87.4034,36.59938],[-87.40301,36.59985],[-87.40223,36.60144],[-87.40171,36.60181],[-87.40106,36.60176],[-87.39968,36.60126],[-87.3992,36.60095],[-87.39871,36.60033],[-87.39804,36.60044],[-87.39773,36.60105],[-87.39799,36.60207],[-87.39853,36.60259],[-87.39936,36.60282],[-87.39968,36.60347],[-87.39944,36.6046],[-87.39867,36.60507],[-87.39752,36.60522],[-87.39615,36.60513],[-87.39415,36.60434],[-87.3935,36.60372],[-87.39343,36.60321],[-87.39361,36.60296],[-87.39461,36.60239],[-87.39499,36.60188],[-87.3945,36.60006],[-87.39447,36.59929],[-87.39424,36.59895],[-87.39371,36.5987],[-87.39278,36.59872],[-87.39229,36.5989],[-87.39129,36.59965],[-87.3896,36.6016],[-87.38864,36.60327],[-87.38817,36.60345],[-87.38725,36.6034],[-87.38662,36.60172],[-87.38742,36.60082],[-87.38732,36.60043],[-87.38689,36.59991],[-87.38592,36.59929],[-87.38285,36.59768],[-87.38269,36.59747],[-87.38268,36.59631],[-87.38297,36.59536],[-87.3839,36.59472],[-87.38775,36.59325],[-87.38296,36.59539],[-87.38964,36.59291],[-87.38997,36.59245],[-87.38981,36.59185],[-87.3887,36.59112],[-87.3877,36.59088],[-87.38641,36.59018],[-87.38605,36.59021],[-87.38435,36.59127],[-87.38335,36.5925],[-87.38209,36.59323],[-87.38083,36.59342],[-87.37996,36.59328],[-87.37889,36.59367],[-87.37647,36.59389],[-87.37417,36.59621],[-87.37383,36.59644],[-87.37331,36.59651],[-87.37267,36.59605],[-87.37084,36.59302],[-87.37019,36.59118],[-87.37004,36.58952],[-87.36941,36.58832],[-87.36889,36.5865],[-87.36939,36.58581],[-87.37009,36.58542],[-87.37059,36.58553],[-87.37169,36.58459],[-87.37235,36.58443],[-87.37374,36.58442],[-87.37443,36.58379],[-87.37438,36.58359],[-87.373,36.58264],[-87.37123,36.58202],[-87.37023,36.5819],[-87.36703,36.5822],[-87.36394,36.58311]]]}}
