{"type":"Feature","properties":{"id":"laurel-creek-johnson","name":"Laurel Creek (Johnson County)","waterbodyType":"creek","throughLakeIds":[],"allowOpenEnds":false,"source":"nhd-hu8-06010102","approximate":false,"labelAnchor":[-81.75382,36.58793],"bounds":[-81.83266,36.5689,-81.74988,36.6506],"crs":"EPSG:4326","coordinateOrder":"longitude,latitude","partCount":1,"vertexCount":110,"lengthKm":16.77,"sourceIds":["43577370","43577498","43577666","43577744","43577760","43577904","43578260","43578294","43578420","43577334","43577266","43577074","43577022","43576936","43576862","43576792","43576782","43576642","43576540","43576502","43576396","43576390","43576288","43576168","43576126","43576056","43575914","43575900","43575510","43575504","43575438","43575458","404984b9-197c-4ff2-910a-3e4576133c8d","43575304","43574976","43574820","43574798","43574792","43574616","43574524","43574520","43574486","43574488","43574542","43574576","43574566","43574584","43574588","43574684","43574702","43574722","43574696","43574652","43574452","43574442","43574438","43574430","43574172"],"sourceRetrieved":"2026-09-11","geometrySource":"nhd","hu8":"06010102","simplification":{"toleranceM":10,"verticesBefore":324,"verticesAfter":110,"budgetBytes":81920},"trace":{"anchor":{"lat":36.587929,"lon":-81.753822,"snapDistM":0},"up":{"spec":"headwater","reason":"headwater","terminus":[-81.761661,36.568895],"distKmFromAnchor":3.14},"down":{"spec":"mouth","reason":"name-change","terminus":[-81.832663,36.650595],"enteredNames":["South Fork Holston River"],"distKmFromAnchor":13.72},"vaaUsed":false,"toleranceM":12}},"geometry":{"type":"MultiLineString","coordinates":[[[-81.76166,36.5689],[-81.76081,36.56999],[-81.75568,36.57175],[-81.75538,36.57195],[-81.75492,36.5727],[-81.75487,36.574],[-81.75532,36.57515],[-81.75669,36.57642],[-81.75873,36.57783],[-81.75868,36.57841],[-81.75809,36.5795],[-81.75751,36.57993],[-81.75556,36.58021],[-81.75433,36.58131],[-81.75314,36.58195],[-81.75113,36.58245],[-81.75066,36.58285],[-81.75044,36.58415],[-81.7511,36.58524],[-81.75382,36.58793],[-81.75505,36.58998],[-81.75492,36.59075],[-81.75427,36.59148],[-81.75526,36.59339],[-81.75359,36.59399],[-81.75287,36.59535],[-81.75315,36.59591],[-81.75463,36.59597],[-81.75531,36.59635],[-81.756,36.59768],[-81.75592,36.59813],[-81.75479,36.59918],[-81.75405,36.5994],[-81.75278,36.5992],[-81.7504,36.59819],[-81.74988,36.59847],[-81.75071,36.60169],[-81.75128,36.60282],[-81.75349,36.60468],[-81.75395,36.60524],[-81.75399,36.606],[-81.75371,36.60755],[-81.75307,36.60897],[-81.75294,36.6099],[-81.75438,36.61231],[-81.75624,36.61338],[-81.75688,36.61409],[-81.75695,36.61482],[-81.75584,36.61604],[-81.75591,36.61656],[-81.75632,36.61674],[-81.75746,36.61676],[-81.75942,36.61622],[-81.75981,36.6164],[-81.75997,36.6166],[-81.75962,36.61798],[-81.75966,36.61844],[-81.76006,36.61876],[-81.76146,36.6191],[-81.76239,36.61951],[-81.76384,36.62055],[-81.76438,36.62134],[-81.76507,36.6239],[-81.76734,36.6252],[-81.76849,36.62604],[-81.76899,36.62615],[-81.76987,36.62567],[-81.7706,36.62554],[-81.77448,36.62572],[-81.77545,36.62604],[-81.77675,36.62708],[-81.77722,36.62786],[-81.77744,36.62871],[-81.77797,36.62917],[-81.78117,36.6297],[-81.78358,36.62979],[-81.78665,36.63096],[-81.78702,36.6314],[-81.78694,36.63177],[-81.78533,36.63292],[-81.7852,36.63333],[-81.78529,36.63378],[-81.78582,36.63426],[-81.78715,36.63611],[-81.78795,36.63659],[-81.7892,36.63658],[-81.79004,36.6368],[-81.79104,36.63676],[-81.79177,36.6369],[-81.79211,36.63732],[-81.79639,36.64079],[-81.79735,36.64143],[-81.80006,36.64275],[-81.80031,36.64282],[-81.80476,36.64224],[-81.80914,36.6434],[-81.80949,36.64337],[-81.81134,36.64211],[-81.81267,36.64161],[-81.81412,36.64137],[-81.81609,36.64127],[-81.81905,36.64221],[-81.82313,36.64567],[-81.82413,36.64598],[-81.82554,36.64612],[-81.82695,36.64658],[-81.82816,36.64762],[-81.82944,36.64905],[-81.83125,36.65009],[-81.83266,36.6506]]]}}
