{"type":"Feature","properties":{"id":"laurel-fork-carter","name":"Laurel Fork (Carter County)","waterbodyType":"creek","throughLakeIds":[],"allowOpenEnds":false,"source":"nhd-hu8-06010103","approximate":false,"labelAnchor":[-82.14037,36.27908],"bounds":[-82.17563,36.19674,-82.00529,36.28931],"crs":"EPSG:4326","coordinateOrder":"longitude,latitude","partCount":1,"vertexCount":259,"lengthKm":27.66,"sourceIds":["89952015","89952191","89952241","89952365","89952371","89952453","89952501","89952547","89952555","89952735","89952849","89952857","89952923","89952955","89953067","89953075","89953073","89953059","89953107","89953159","89953137","89953195","89953211","89953217","89953353","89953369","89953527","89953553","89953557","89953573","89953687","89953953","89951915","89951891","89951889","89951695","89951721","89951717","89951719","89951709","89951743","89951753","89951679"],"sourceRetrieved":"2026-09-11","geometrySource":"nhd","hu8":"06010103","simplification":{"toleranceM":10,"verticesBefore":1114,"verticesAfter":259,"budgetBytes":81920},"trace":{"anchor":{"lat":36.279079,"lon":-82.140368,"snapDistM":0},"up":{"spec":"headwater","reason":"headwater","terminus":[-82.009682,36.19674],"distKmFromAnchor":22.5},"down":{"spec":"mouth","reason":"name-change","terminus":[-82.17563,36.289308],"enteredNames":["Doe River"],"distKmFromAnchor":5.03},"vaaUsed":false,"toleranceM":12}},"geometry":{"type":"MultiLineString","coordinates":[[[-82.00968,36.19674],[-82.00974,36.19883],[-82.0095,36.20056],[-82.00831,36.20265],[-82.00656,36.20422],[-82.0065,36.20544],[-82.0058,36.2061],[-82.00529,36.20705],[-82.00577,36.20822],[-82.00797,36.20852],[-82.01142,36.20858],[-82.01326,36.20938],[-82.01596,36.2095],[-82.01672,36.21009],[-82.01881,36.21049],[-82.01908,36.21071],[-82.0194,36.21143],[-82.02113,36.21245],[-82.0213,36.21296],[-82.02187,36.21338],[-82.02212,36.21391],[-82.02328,36.21432],[-82.02376,36.21491],[-82.02467,36.21562],[-82.02505,36.21631],[-82.0262,36.2167],[-82.02717,36.21752],[-82.02839,36.21804],[-82.02875,36.21877],[-82.02946,36.21896],[-82.02959,36.21949],[-82.02925,36.22046],[-82.03056,36.2209],[-82.03169,36.22206],[-82.03273,36.22244],[-82.03425,36.22261],[-82.03625,36.22316],[-82.0369,36.22306],[-82.03763,36.22328],[-82.04025,36.22498],[-82.04147,36.22541],[-82.04272,36.22524],[-82.0439,36.22607],[-82.04445,36.22594],[-82.04514,36.226],[-82.04563,36.2258],[-82.04704,36.22581],[-82.04898,36.22657],[-82.04934,36.22707],[-82.05054,36.22788],[-82.0509,36.22866],[-82.05057,36.22962],[-82.05121,36.23064],[-82.05199,36.23074],[-82.05389,36.23022],[-82.05444,36.23041],[-82.05527,36.2301],[-82.05606,36.23023],[-82.05631,36.23041],[-82.05609,36.23082],[-82.05614,36.23149],[-82.05703,36.23172],[-82.05861,36.23256],[-82.05962,36.23287],[-82.06054,36.23363],[-82.06192,36.23418],[-82.06243,36.23461],[-82.06288,36.23532],[-82.06419,36.23617],[-82.06522,36.23607],[-82.06584,36.2355],[-82.06656,36.23533],[-82.06805,36.23462],[-82.06827,36.23436],[-82.06817,36.23406],[-82.06833,36.23354],[-82.06795,36.23301],[-82.06897,36.23195],[-82.06928,36.23109],[-82.06987,36.23114],[-82.07116,36.23252],[-82.07239,36.23269],[-82.07367,36.23386],[-82.07386,36.23441],[-82.07363,36.23557],[-82.07452,36.23647],[-82.0742,36.23733],[-82.07471,36.23915],[-82.07499,36.23962],[-82.0763,36.23954],[-82.0784,36.24005],[-82.0801,36.23954],[-82.08044,36.23961],[-82.0812,36.24074],[-82.08187,36.24126],[-82.08249,36.24283],[-82.08209,36.2435],[-82.08243,36.24376],[-82.08326,36.24383],[-82.08483,36.24334],[-82.08548,36.24437],[-82.08598,36.24471],[-82.08609,36.2451],[-82.08633,36.24515],[-82.08779,36.24473],[-82.08825,36.24451],[-82.08868,36.24406],[-82.09266,36.24378],[-82.09381,36.24453],[-82.09386,36.24479],[-82.09337,36.24535],[-82.09254,36.24529],[-82.09232,36.24543],[-82.09237,36.24635],[-82.0926,36.24671],[-82.09296,36.24694],[-82.09386,36.24699],[-82.09477,36.24735],[-82.09673,36.24751],[-82.09692,36.24777],[-82.09699,36.24844],[-82.09604,36.24841],[-82.09547,36.24859],[-82.09512,36.24889],[-82.095,36.24961],[-82.09552,36.2498],[-82.09657,36.24984],[-82.09852,36.24948],[-82.09958,36.25003],[-82.09959,36.25053],[-82.09926,36.25128],[-82.09993,36.252],[-82.1001,36.2525],[-82.09946,36.25341],[-82.09959,36.2541],[-82.09923,36.25478],[-82.09959,36.25545],[-82.10037,36.25606],[-82.10087,36.25618],[-82.10198,36.25604],[-82.10269,36.25622],[-82.10283,36.25649],[-82.10268,36.25715],[-82.10281,36.25732],[-82.10316,36.2574],[-82.10369,36.25717],[-82.10396,36.25641],[-82.10508,36.25642],[-82.10664,36.25534],[-82.10727,36.25545],[-82.10783,36.25589],[-82.10892,36.25577],[-82.11026,36.2559],[-82.11282,36.25842],[-82.11314,36.2585],[-82.11357,36.25831],[-82.11364,36.25772],[-82.11414,36.2579],[-82.11518,36.25992],[-82.1166,36.26184],[-82.11733,36.26242],[-82.11809,36.26279],[-82.11943,36.26299],[-82.12112,36.26294],[-82.12182,36.26306],[-82.12205,36.26323],[-82.1226,36.26378],[-82.12252,36.26463],[-82.12289,36.26583],[-82.12354,36.26599],[-82.12428,36.26689],[-82.12967,36.27097],[-82.13009,36.27096],[-82.13033,36.27044],[-82.1301,36.27006],[-82.12897,36.26956],[-82.12898,36.26864],[-82.12936,36.26834],[-82.12958,36.2683],[-82.12988,36.26848],[-82.13019,36.26915],[-82.13131,36.26963],[-82.13255,36.27098],[-82.133,36.27059],[-82.13287,36.26983],[-82.13305,36.26953],[-82.13362,36.26936],[-82.13443,36.26982],[-82.1349,36.26925],[-82.13517,36.26925],[-82.13532,36.26981],[-82.13603,36.27068],[-82.13603,36.27106],[-82.13674,36.27251],[-82.13675,36.27317],[-82.13622,36.27353],[-82.13538,36.27346],[-82.13481,36.27262],[-82.13439,36.27253],[-82.13385,36.27296],[-82.13399,36.27356],[-82.13758,36.27811],[-82.13854,36.27874],[-82.13886,36.27857],[-82.13903,36.27818],[-82.13944,36.27813],[-82.14037,36.27908],[-82.14034,36.27946],[-82.14008,36.27975],[-82.13793,36.2799],[-82.14037,36.27908],[-82.1374,36.28],[-82.13715,36.28019],[-82.13766,36.28135],[-82.13882,36.28248],[-82.13986,36.28297],[-82.1407,36.28302],[-82.14115,36.28268],[-82.14124,36.2813],[-82.14138,36.28115],[-82.14176,36.28106],[-82.14364,36.28134],[-82.14457,36.28126],[-82.14488,36.28106],[-82.14527,36.28011],[-82.14633,36.27932],[-82.14694,36.27913],[-82.14826,36.27962],[-82.14885,36.28122],[-82.14926,36.28144],[-82.15071,36.28148],[-82.1514,36.28054],[-82.15191,36.28043],[-82.15225,36.28053],[-82.15222,36.28091],[-82.15141,36.28192],[-82.15132,36.28232],[-82.15204,36.28392],[-82.1522,36.28549],[-82.15254,36.28581],[-82.15296,36.28583],[-82.15368,36.28556],[-82.15414,36.28561],[-82.15522,36.28621],[-82.15793,36.28652],[-82.15899,36.28719],[-82.15934,36.28727],[-82.16022,36.28715],[-82.16114,36.28661],[-82.16196,36.2866],[-82.16249,36.28619],[-82.16277,36.28615],[-82.16589,36.28669],[-82.16732,36.28661],[-82.16932,36.28681],[-82.16985,36.2869],[-82.17101,36.28751],[-82.17154,36.2876],[-82.17563,36.28931]]]}}
