{"type":"Feature","properties":{"id":"hatchie-river","name":"Hatchie River","waterbodyType":"river","throughLakeIds":[],"allowOpenEnds":false,"source":"nhd-hu8-08010208","approximate":false,"labelAnchor":[-89.54407,35.6081],"bounds":[-89.8861,35.17595,-88.83895,35.65234],"crs":"EPSG:4326","coordinateOrder":"longitude,latitude","partCount":1,"vertexCount":2528,"lengthKm":262.22,"sourceIds":["124390163","124391093","124391095","124391097","124391098","124390164","124390772","124390773","124390927","124390928","124390929","124390924","124390925","124390926","124390934","124390933","124390770","124390771","124390898","124390899","124390894","124390895","124390893","124390892","124390466","124390536","124390537","124390538","124390936","124390937","124390896","124390897","124391008","124390938","124390939","124390539","124390543","124390542","124390468","124390891","124390912","124390911","124390913","124390914","124390915","124390916","124390917","124390918","124390919","124390920","124390904","124390905","124390473","124390908","124390907","124390906","124390909","124390948","124390903","124390950","124390951","124390949","124390476","124390477","124390901","124390785","124390978","124390954","124391050","124390947","124390979","124390942","124390941","124390980","124390981","124390784","124390783","124390782","124390781","124390780","124391011","124390549","124390484","124390786","124390960","124390957","124390958","124390959","124391006","124390485","{CEA0A17A-3259-46CD-A758-AE8B457B0EEA}","124390486","124390776","124390487","124390775","124391007","124390965","124390966","124390964","124390963","124390967","124390430","124390166","124390167","124390858","124390859","124390860","124390490","124390491","124390880","124390982","124390168","124390169","124390171","124390170","124390172","124390173","124390174","124390175","124390874","124390873","124390922","124390870","124390871","124390876","124390877","124390878","124390875","124390879","124390889","124390887","124390888","124390863","124390498","124390551","124390499","124391148","124390885","124390867","124390968","124390969","124390970","124390177","124390178","124390179","124390865","124390866","124390869","124390864","124390180","124390886","124391164","124391166","124391169","124390801","124390802","124390803","124390805","124390804","124390846","124390791","124390799","124390793","124390806","124390506","124390797","124390798","124391174","124390794","124390795","124390796","124390807","124390808","124390809","124390810","124390811","124390813","124390812","124390181","124390182","124390183","124391038","124390685","124390381","124390380","124390373","124390372","124390374","124390375","124390376","124390377","124390378","124390379","124390688","124391039","124390188","124390189","124391192","124390190","124390191","124390192","124391033","124391034","124391035","124391036","124390664","124390665","124390662","124390195","124390196","124391030","124390661","124390660","124390659","124390201","124391211","124390202","124391214","124390203","124390204","124390205","124391215","124390656","124390657","124390209","124391027","124391026","124391028","124390653","124390212","124390213","124390214","124390652","124390215","124390216","124390217","124390218","124390645","124391025","124390648","124390647","124390649","124390642","124390644","124391004","124390972","124390223","124391024","124390226","124390227","124390327","124390328","124390329","124390789","124390787","124391022","124390332","124390333","124390334","124390162","124390161","124390160","124390159","124390158","124390157","124390156","124390155","124390154","124390153","124390152","124390151","124390150","124390149","124390148","124390147","124390145","124390146","124390144","124390143","124390142","124390140","124390141","124390139","124390138","124390137","124390136","124390135","{132E0DCF-DEFA-4610-9823-2F13321BF927}","124390134","124390133","124390132","124390131","124390130","124390129","124390128","124390127","124391080","124390126","124391485","124390125","124390124","124390123","124390122","124390121","124390120","124391076","124390119","124390116","124390115","124390114","124390113","124390112","124390111","124390110","124390109","124390108","124390107","124390106","124390105","124390104","124391064","124391065","124391066","124391077","124390102","124390101"],"sourceRetrieved":"2026-09-11","geometrySource":"nhd","hu8":"08010208","simplification":{"toleranceM":10,"verticesBefore":17733,"verticesAfter":2528,"budgetBytes":81920},"trace":{"anchor":{"lat":35.6081,"lon":-89.5441,"snapDistM":2.9},"up":{"spec":"headwater","reason":"headwater","terminus":[-88.8482,35.175953],"distKmFromAnchor":193.18},"down":{"spec":"mouth","reason":"terminal-node","terminus":[-89.881207,35.578254],"enteredNames":null,"distKmFromAnchor":70.52},"vaaUsed":false,"toleranceM":12}},"geometry":{"type":"MultiLineString","coordinates":[[[-88.8482,35.17595],[-88.84848,35.17644],[-88.84838,35.177],[-88.84516,35.18023],[-88.84501,35.18144],[-88.84466,35.1815],[-88.84396,35.18117],[-88.84331,35.18112],[-88.8421,35.18141],[-88.84165,35.18175],[-88.84154,35.18213],[-88.84171,35.18294],[-88.84277,35.18441],[-88.84261,35.18516],[-88.84195,35.18538],[-88.84017,35.18497],[-88.83948,35.18495],[-88.83901,35.18536],[-88.83895,35.18609],[-88.83963,35.1872],[-88.84046,35.18979],[-88.8408,35.19169],[-88.84134,35.19225],[-88.84298,35.19308],[-88.84417,35.19436],[-88.84472,35.19521],[-88.84502,35.19628],[-88.845,35.19837],[-88.84613,35.2003],[-88.8489,35.20283],[-88.84924,35.20287],[-88.84959,35.20265],[-88.85029,35.20155],[-88.85099,35.20112],[-88.85165,35.20124],[-88.85255,35.20224],[-88.8529,35.20312],[-88.8528,35.20385],[-88.85228,35.20442],[-88.85109,35.20521],[-88.85077,35.20563],[-88.85064,35.20648],[-88.85088,35.20795],[-88.85138,35.20792],[-88.85261,35.20723],[-88.85327,35.20718],[-88.85515,35.20755],[-88.85604,35.2081],[-88.85607,35.2086],[-88.85585,35.2089],[-88.85399,35.20973],[-88.85305,35.21047],[-88.85144,35.21245],[-88.85146,35.21283],[-88.85178,35.213],[-88.85323,35.21312],[-88.8547,35.21397],[-88.85563,35.21423],[-88.85611,35.21399],[-88.85664,35.21287],[-88.85725,35.21213],[-88.85776,35.21184],[-88.85822,35.21185],[-88.85852,35.2127],[-88.85845,35.21322],[-88.85709,35.21556],[-88.85726,35.21599],[-88.85798,35.21639],[-88.85909,35.2166],[-88.86012,35.21644],[-88.86052,35.21612],[-88.86118,35.21497],[-88.86349,35.21375],[-88.8635,35.21351],[-88.86323,35.21328],[-88.861,35.2128],[-88.86074,35.21199],[-88.86125,35.2111],[-88.86397,35.21104],[-88.86473,35.21086],[-88.8653,35.21053],[-88.86599,35.20958],[-88.86677,35.20926],[-88.86734,35.20926],[-88.86955,35.20982],[-88.87063,35.20976],[-88.87102,35.20942],[-88.87172,35.20831],[-88.87246,35.20771],[-88.87582,35.20656],[-88.87721,35.20643],[-88.87765,35.20677],[-88.87797,35.20743],[-88.87798,35.20913],[-88.8784,35.20962],[-88.8811,35.21065],[-88.88173,35.21067],[-88.88237,35.20996],[-88.88297,35.20785],[-88.88273,35.20737],[-88.88157,35.20673],[-88.88116,35.2061],[-88.88115,35.20501],[-88.88169,35.20458],[-88.8827,35.20474],[-88.88337,35.20526],[-88.88454,35.20729],[-88.88553,35.20729],[-88.88742,35.20626],[-88.8883,35.20639],[-88.88843,35.20683],[-88.88813,35.20734],[-88.88649,35.20831],[-88.88604,35.20874],[-88.88617,35.20934],[-88.88687,35.2097],[-88.88773,35.20975],[-88.89075,35.20789],[-88.89294,35.20746],[-88.89419,35.20757],[-88.89632,35.20889],[-88.89696,35.20894],[-88.89926,35.20672],[-88.90039,35.20634],[-88.90167,35.20624],[-88.90213,35.20635],[-88.90234,35.20619],[-88.90278,35.20461],[-88.90415,35.20271],[-88.90573,35.20118],[-88.90686,35.20051],[-88.90687,35.20023],[-88.90662,35.19989],[-88.90561,35.19932],[-88.90576,35.19903],[-88.90742,35.19876],[-88.91177,35.19662],[-88.91288,35.19621],[-88.91519,35.1964],[-88.91786,35.19614],[-88.92218,35.197],[-88.92302,35.19744],[-88.92431,35.19935],[-88.92613,35.20084],[-88.92704,35.20261],[-88.9276,35.20329],[-88.92802,35.20347],[-88.9284,35.20338],[-88.92922,35.20252],[-88.92981,35.20221],[-88.93038,35.20226],[-88.93097,35.20268],[-88.93144,35.2042],[-88.93089,35.20649],[-88.9303,35.20686],[-88.92782,35.20758],[-88.92669,35.20816],[-88.9257,35.20881],[-88.92537,35.20956],[-88.92353,35.21084],[-88.92326,35.21124],[-88.92317,35.21187],[-88.92401,35.21343],[-88.9238,35.21387],[-88.92337,35.21391],[-88.9211,35.21326],[-88.9204,35.2127],[-88.92032,35.21208],[-88.92156,35.21098],[-88.92162,35.20964],[-88.92141,35.20911],[-88.92104,35.209],[-88.92058,35.20908],[-88.91971,35.20995],[-88.91956,35.21076],[-88.91993,35.21199],[-88.91945,35.21343],[-88.91958,35.21426],[-88.92001,35.21485],[-88.92121,35.21573],[-88.92188,35.21654],[-88.92276,35.21819],[-88.92461,35.22071],[-88.92483,35.22218],[-88.92391,35.22424],[-88.92283,35.22506],[-88.92155,35.22526],[-88.9206,35.2244],[-88.92025,35.22426],[-88.91981,35.22429],[-88.91914,35.22473],[-88.91896,35.22516],[-88.919,35.22693],[-88.91828,35.22908],[-88.91836,35.23063],[-88.9194,35.23479],[-88.9196,35.2374],[-88.9201,35.23909],[-88.92067,35.23999],[-88.92186,35.24082],[-88.9221,35.24118],[-88.92194,35.24209],[-88.92111,35.24321],[-88.92133,35.24652],[-88.92219,35.24763],[-88.92577,35.25104],[-88.92622,35.25173],[-88.92642,35.25272],[-88.92677,35.25325],[-88.92759,35.25365],[-88.93122,35.25475],[-88.9314,35.25514],[-88.93107,35.25592],[-88.93136,35.25626],[-88.93164,35.25617],[-88.93213,35.25563],[-88.93268,35.25459],[-88.93383,35.25423],[-88.93478,35.25473],[-88.93485,35.25497],[-88.93562,35.2555],[-88.93592,35.25592],[-88.93698,35.25626],[-88.93765,35.25668],[-88.93809,35.25674],[-88.93831,35.25668],[-88.93826,35.25612],[-88.93846,35.25585],[-88.94051,35.25512],[-88.94191,35.25415],[-88.94225,35.25408],[-88.94264,35.25429],[-88.94329,35.25565],[-88.94374,35.25603],[-88.94447,35.25627],[-88.94729,35.2567],[-88.94796,35.25714],[-88.94796,35.25742],[-88.94758,35.2579],[-88.94504,35.25937],[-88.94454,35.2599],[-88.94398,35.26111],[-88.944,35.26358],[-88.9423,35.26511],[-88.9421,35.26562],[-88.94219,35.26646],[-88.94296,35.26701],[-88.94555,35.26688],[-88.94731,35.26699],[-88.94806,35.26755],[-88.94835,35.26814],[-88.94915,35.26898],[-88.94894,35.26926],[-88.94645,35.26986],[-88.94574,35.27065],[-88.94611,35.27245],[-88.94593,35.27292],[-88.9453,35.27313],[-88.94501,35.27361],[-88.94501,35.2743],[-88.94527,35.27462],[-88.94521,35.27501],[-88.94483,35.27535],[-88.94358,35.27595],[-88.94231,35.27793],[-88.94224,35.27914],[-88.94251,35.28021],[-88.94232,35.28169],[-88.94247,35.28206],[-88.94282,35.28217],[-88.94426,35.28142],[-88.94662,35.28099],[-88.94725,35.28128],[-88.94772,35.28249],[-88.94803,35.28261],[-88.94836,35.28253],[-88.94963,35.28165],[-88.94994,35.28119],[-88.94982,35.28032],[-88.94874,35.27973],[-88.94848,35.27928],[-88.94853,35.27866],[-88.94903,35.27819],[-88.95016,35.27792],[-88.95293,35.27805],[-88.95535,35.27771],[-88.95584,35.27796],[-88.95561,35.27874],[-88.95372,35.28066],[-88.95213,35.28188],[-88.95084,35.28327],[-88.95067,35.28401],[-88.95089,35.28487],[-88.95168,35.28527],[-88.95234,35.28522],[-88.95389,35.28463],[-88.95451,35.28424],[-88.95491,35.28365],[-88.95497,35.28305],[-88.95458,35.28242],[-88.95394,35.2819],[-88.95393,35.28131],[-88.95416,35.28096],[-88.95456,35.28081],[-88.95574,35.28074],[-88.95685,35.28094],[-88.9573,35.28122],[-88.95746,35.28165],[-88.95728,35.28282],[-88.95759,35.28328],[-88.95812,35.28348],[-88.95917,35.28346],[-88.95974,35.28363],[-88.9602,35.28401],[-88.9604,35.28496],[-88.96064,35.28533],[-88.96131,35.28558],[-88.96197,35.28556],[-88.96227,35.28528],[-88.96227,35.28457],[-88.96193,35.284],[-88.96117,35.28336],[-88.96101,35.28299],[-88.96109,35.28254],[-88.96182,35.28198],[-88.96383,35.28096],[-88.96422,35.27984],[-88.96479,35.27972],[-88.96612,35.28009],[-88.96779,35.28017],[-88.96825,35.28038],[-88.96822,35.28094],[-88.96742,35.28175],[-88.96717,35.28224],[-88.96715,35.28308],[-88.96774,35.28355],[-88.96852,35.28388],[-88.96927,35.2839],[-88.96984,35.28372],[-88.97019,35.28337],[-88.97022,35.28299],[-88.96917,35.28143],[-88.96901,35.28034],[-88.96965,35.27935],[-88.97037,35.27884],[-88.97179,35.27862],[-88.97218,35.2784],[-88.97237,35.27793],[-88.97212,35.27707],[-88.97233,35.27678],[-88.9737,35.27622],[-88.97498,35.27546],[-88.97594,35.27526],[-88.97649,35.27557],[-88.97695,35.27686],[-88.97734,35.27738],[-88.97857,35.27807],[-88.97946,35.2788],[-88.97975,35.27935],[-88.97976,35.27985],[-88.97943,35.2803],[-88.97851,35.2807],[-88.97695,35.2807],[-88.97537,35.28042],[-88.97436,35.28126],[-88.97491,35.2817],[-88.97554,35.28184],[-88.97728,35.28274],[-88.97813,35.28303],[-88.97946,35.28422],[-88.98132,35.28542],[-88.98195,35.28627],[-88.98199,35.28687],[-88.98179,35.28756],[-88.98195,35.28777],[-88.98326,35.28821],[-88.98448,35.28827],[-88.98487,35.28812],[-88.98573,35.28741],[-88.98651,35.28651],[-88.9867,35.2851],[-88.98624,35.28399],[-88.98497,35.28225],[-88.985,35.28188],[-88.98529,35.28178],[-88.98594,35.28196],[-88.98652,35.2825],[-88.98851,35.28378],[-88.99043,35.28449],[-88.99047,35.28491],[-88.99007,35.28541],[-88.98885,35.28589],[-88.98823,35.28634],[-88.98809,35.28685],[-88.9889,35.28759],[-88.99006,35.28794],[-88.99111,35.28795],[-88.99181,35.28765],[-88.99295,35.28654],[-88.99378,35.2863],[-88.99469,35.28648],[-88.99566,35.28855],[-88.99557,35.28965],[-88.9951,35.2903],[-88.99365,35.29066],[-88.99366,35.29156],[-88.9941,35.29238],[-88.99455,35.29276],[-88.99769,35.29326],[-88.99809,35.29347],[-88.9983,35.29397],[-88.99812,35.29436],[-88.99588,35.29572],[-88.99513,35.29649],[-88.99516,35.29707],[-88.99612,35.29805],[-88.99598,35.29869],[-88.99563,35.2989],[-88.99528,35.29891],[-88.99483,35.29832],[-88.99435,35.29859],[-88.99453,35.29927],[-88.99561,35.30009],[-88.99608,35.30069],[-88.99643,35.30186],[-88.99637,35.30239],[-88.99611,35.30274],[-88.99559,35.3029],[-88.99424,35.30112],[-88.99331,35.30073],[-88.99233,35.30058],[-88.99195,35.30081],[-88.99177,35.30116],[-88.99208,35.30284],[-88.9919,35.30382],[-88.99199,35.30523],[-88.99155,35.30562],[-88.99102,35.30575],[-88.99044,35.30458],[-88.98995,35.30425],[-88.98948,35.30442],[-88.98936,35.30517],[-88.98982,35.30662],[-88.99062,35.30783],[-88.99318,35.30886],[-88.99644,35.30944],[-88.99677,35.30977],[-88.99679,35.31002],[-88.99649,35.31056],[-88.99514,35.31154],[-88.99459,35.31221],[-88.99471,35.31551],[-88.99456,35.31599],[-88.9942,35.31634],[-88.9937,35.31647],[-88.9929,35.31625],[-88.99094,35.31346],[-88.99052,35.31323],[-88.98981,35.31354],[-88.98901,35.31425],[-88.98844,35.31537],[-88.98866,35.31611],[-88.9891,35.31668],[-88.99067,35.3175],[-88.99133,35.31816],[-88.99231,35.32021],[-88.99308,35.32137],[-88.99539,35.32339],[-88.99533,35.32376],[-88.99476,35.32399],[-88.99416,35.32388],[-88.99332,35.32344],[-88.99271,35.32343],[-88.99212,35.32366],[-88.99182,35.32413],[-88.99184,35.32454],[-88.99247,35.32507],[-88.9932,35.32532],[-88.99421,35.32544],[-88.99459,35.3257],[-88.99578,35.32711],[-88.99613,35.32805],[-88.9958,35.32877],[-88.99529,35.32872],[-88.99416,35.32811],[-88.99327,35.32715],[-88.9924,35.3265],[-88.99201,35.32634],[-88.99166,35.32648],[-88.99128,35.32745],[-88.99119,35.32839],[-88.99192,35.3307],[-88.99235,35.33152],[-88.99343,35.33245],[-88.99419,35.33278],[-88.99687,35.33268],[-88.99769,35.33278],[-88.99793,35.33307],[-88.99809,35.33458],[-88.99868,35.3351],[-88.99934,35.33538],[-88.99978,35.33501],[-88.99989,35.33414],[-89.00092,35.33223],[-89.00121,35.33214],[-89.00168,35.33225],[-89.00212,35.33272],[-89.00219,35.33325],[-89.00168,35.33419],[-89.00162,35.33472],[-89.00242,35.33718],[-89.00222,35.33799],[-89.00177,35.33863],[-89.00111,35.3391],[-88.99927,35.33957],[-88.99866,35.33986],[-88.99843,35.3405],[-88.9988,35.34118],[-88.9995,35.34153],[-89.00072,35.34177],[-89.0019,35.34256],[-89.00303,35.34255],[-89.00323,35.34241],[-89.0032,35.3421],[-89.00205,35.34076],[-89.00195,35.34023],[-89.0024,35.33924],[-89.0029,35.33912],[-89.00328,35.3392],[-89.00364,35.33971],[-89.00391,35.34151],[-89.00454,35.34226],[-89.00523,35.34257],[-89.00707,35.3425],[-89.00802,35.34267],[-89.00914,35.34375],[-89.00924,35.34434],[-89.00901,35.34471],[-89.00858,35.34478],[-89.00777,35.34449],[-89.00728,35.34465],[-89.00695,35.34503],[-89.00688,35.34591],[-89.00765,35.34671],[-89.00808,35.34685],[-89.00877,35.34597],[-89.00965,35.3458],[-89.01022,35.34604],[-89.01067,35.34673],[-89.0112,35.34721],[-89.01214,35.34721],[-89.01264,35.3468],[-89.01246,35.34575],[-89.01304,35.34561],[-89.0134,35.34574],[-89.01394,35.3463],[-89.01512,35.34685],[-89.01549,35.34738],[-89.01555,35.34816],[-89.01483,35.3497],[-89.01501,35.35032],[-89.01536,35.35073],[-89.01579,35.35074],[-89.01614,35.35049],[-89.01735,35.34782],[-89.01776,35.34775],[-89.0181,35.3479],[-89.01828,35.34844],[-89.01811,35.34942],[-89.01656,35.35152],[-89.01644,35.35222],[-89.01664,35.35253],[-89.017,35.35265],[-89.01757,35.35273],[-89.0191,35.35252],[-89.0197,35.3526],[-89.02,35.3528],[-89.0202,35.35312],[-89.02018,35.35343],[-89.01988,35.35386],[-89.01888,35.35466],[-89.01871,35.35503],[-89.01874,35.35537],[-89.01913,35.35569],[-89.01996,35.35575],[-89.02045,35.35546],[-89.02073,35.35387],[-89.02116,35.35338],[-89.0218,35.35315],[-89.02257,35.35332],[-89.02299,35.35376],[-89.02305,35.35421],[-89.0228,35.35548],[-89.02305,35.35608],[-89.02354,35.35636],[-89.02416,35.35633],[-89.02464,35.35609],[-89.02474,35.35461],[-89.02494,35.35419],[-89.02527,35.35402],[-89.02599,35.35414],[-89.02632,35.3545],[-89.02608,35.35605],[-89.02643,35.35636],[-89.02743,35.35595],[-89.02805,35.35482],[-89.0284,35.35462],[-89.03181,35.35438],[-89.03191,35.35419],[-89.03147,35.35331],[-89.03148,35.35211],[-89.0313,35.35165],[-89.0309,35.35151],[-89.03054,35.35163],[-89.02978,35.3527],[-89.02944,35.35285],[-89.02886,35.35269],[-89.02856,35.35223],[-89.02864,35.35139],[-89.0291,35.35067],[-89.02968,35.35013],[-89.03077,35.34978],[-89.03139,35.34996],[-89.03238,35.35104],[-89.03369,35.3518],[-89.03512,35.35216],[-89.03851,35.35236],[-89.0395,35.35293],[-89.03986,35.35358],[-89.03984,35.3544],[-89.03946,35.35512],[-89.03826,35.35616],[-89.03805,35.35681],[-89.03841,35.35769],[-89.03943,35.35902],[-89.03947,35.35966],[-89.03916,35.36005],[-89.03778,35.3605],[-89.0376,35.36082],[-89.03792,35.36099],[-89.03938,35.361],[-89.03976,35.36128],[-89.03968,35.36256],[-89.03891,35.36581],[-89.03948,35.36741],[-89.03913,35.36854],[-89.04065,35.37093],[-89.04165,35.37308],[-89.04249,35.37361],[-89.04391,35.37408],[-89.04466,35.37512],[-89.04509,35.37529],[-89.04564,35.37523],[-89.0467,35.37472],[-89.04824,35.37474],[-89.0507,35.37429],[-89.05233,35.37415],[-89.05318,35.37434],[-89.05374,35.37492],[-89.05333,35.37621],[-89.05346,35.37647],[-89.05439,35.37646],[-89.05478,35.37536],[-89.05519,35.37526],[-89.0556,35.37538],[-89.05637,35.37666],[-89.05664,35.37763],[-89.05695,35.3781],[-89.05754,35.37847],[-89.059,35.37852],[-89.05956,35.37884],[-89.05975,35.37931],[-89.05943,35.38008],[-89.05956,35.38037],[-89.05997,35.38049],[-89.06052,35.3804],[-89.06147,35.37926],[-89.06172,35.37931],[-89.06187,35.37956],[-89.0618,35.38062],[-89.06108,35.38141],[-89.05959,35.38235],[-89.05753,35.38284],[-89.05744,35.38339],[-89.05788,35.38384],[-89.05915,35.38414],[-89.06046,35.38514],[-89.0612,35.38527],[-89.06169,35.38488],[-89.06264,35.38297],[-89.06315,35.38248],[-89.06371,35.38236],[-89.06448,35.38326],[-89.0648,35.38404],[-89.06486,35.38499],[-89.06463,35.38584],[-89.06488,35.38596],[-89.06559,35.38535],[-89.06664,35.38584],[-89.06677,35.38629],[-89.06666,35.38817],[-89.06584,35.39033],[-89.06611,35.3913],[-89.06703,35.39272],[-89.06789,35.39294],[-89.06823,35.39278],[-89.0684,35.39245],[-89.06839,35.392],[-89.06782,35.39128],[-89.06741,35.39019],[-89.06751,35.3896],[-89.06876,35.38831],[-89.06945,35.3881],[-89.06988,35.38817],[-89.07011,35.38838],[-89.0702,35.38884],[-89.06994,35.39022],[-89.07038,35.39087],[-89.07156,35.39168],[-89.07279,35.39206],[-89.0738,35.39201],[-89.07485,35.39163],[-89.07532,35.39178],[-89.07539,35.39246],[-89.07418,35.39359],[-89.07422,35.39403],[-89.07458,35.39435],[-89.07669,35.39506],[-89.07805,35.39611],[-89.07807,35.39678],[-89.07772,35.39723],[-89.07727,35.39744],[-89.07552,35.39758],[-89.0753,35.39784],[-89.07527,35.39853],[-89.07693,35.40013],[-89.07722,35.40185],[-89.07754,35.40228],[-89.07838,35.40268],[-89.08046,35.40241],[-89.08108,35.40263],[-89.08094,35.40304],[-89.08045,35.40339],[-89.07826,35.40423],[-89.07814,35.40466],[-89.07839,35.40499],[-89.08316,35.40745],[-89.0834,35.40825],[-89.08428,35.41779],[-89.08616,35.42036],[-89.0867,35.42088],[-89.08788,35.42156],[-89.08819,35.42206],[-89.08803,35.42257],[-89.08684,35.42344],[-89.08669,35.42462],[-89.08649,35.42493],[-89.08523,35.4257],[-89.08416,35.42567],[-89.08374,35.42583],[-89.08362,35.42752],[-89.08333,35.42803],[-89.08286,35.42821],[-89.08245,35.4281],[-89.08183,35.42721],[-89.08139,35.42721],[-89.08112,35.42739],[-89.08064,35.42818],[-89.07983,35.43053],[-89.07947,35.43101],[-89.07901,35.43111],[-89.07844,35.43078],[-89.07792,35.42947],[-89.07759,35.42919],[-89.07683,35.42916],[-89.07615,35.42984],[-89.0762,35.43067],[-89.07684,35.43142],[-89.08036,35.43251],[-89.08186,35.43515],[-89.08205,35.43581],[-89.08188,35.43633],[-89.08131,35.43696],[-89.0799,35.43748],[-89.07978,35.43772],[-89.07978,35.43825],[-89.08008,35.43888],[-89.08068,35.43914],[-89.08189,35.43879],[-89.08254,35.43843],[-89.08302,35.43841],[-89.08338,35.4386],[-89.08375,35.44031],[-89.08369,35.44208],[-89.08401,35.44266],[-89.08441,35.44288],[-89.08502,35.44282],[-89.08529,35.44238],[-89.08551,35.43998],[-89.08601,35.43995],[-89.08697,35.44064],[-89.08784,35.44183],[-89.08792,35.44239],[-89.08778,35.44284],[-89.08732,35.44322],[-89.08682,35.44336],[-89.0862,35.44338],[-89.0856,35.44319],[-89.08518,35.44337],[-89.08509,35.44392],[-89.08529,35.44476],[-89.08586,35.44527],[-89.08773,35.44546],[-89.08869,35.44632],[-89.08965,35.44683],[-89.09074,35.44689],[-89.09113,35.44673],[-89.09135,35.4459],[-89.09238,35.44416],[-89.09236,35.44367],[-89.09198,35.44295],[-89.09221,35.44259],[-89.09285,35.44268],[-89.09347,35.44302],[-89.09387,35.44417],[-89.09418,35.44451],[-89.09518,35.44446],[-89.09597,35.44386],[-89.09673,35.44368],[-89.09712,35.44374],[-89.09758,35.44407],[-89.09876,35.44558],[-89.09928,35.44652],[-89.09939,35.44698],[-89.09914,35.44792],[-89.097,35.4501],[-89.09663,35.45101],[-89.09606,35.45169],[-89.09569,35.45199],[-89.09405,35.45267],[-89.09329,35.45327],[-89.09305,35.45361],[-89.09307,35.4541],[-89.09335,35.45446],[-89.0942,35.45475],[-89.09604,35.45479],[-89.09559,35.45629],[-89.09567,35.457],[-89.0962,35.45782],[-89.09713,35.45836],[-89.09829,35.45841],[-89.09955,35.45767],[-89.10052,35.45764],[-89.10084,35.45776],[-89.10078,35.45817],[-89.0999,35.45882],[-89.09969,35.46008],[-89.09995,35.46049],[-89.10141,35.46159],[-89.10204,35.46167],[-89.10282,35.46093],[-89.10341,35.46086],[-89.10364,35.46107],[-89.10348,35.46173],[-89.10377,35.46195],[-89.10478,35.46192],[-89.10623,35.46302],[-89.1075,35.46316],[-89.10777,35.46333],[-89.10771,35.46374],[-89.10604,35.46453],[-89.10546,35.46501],[-89.10514,35.46556],[-89.10548,35.46806],[-89.10592,35.46854],[-89.10642,35.46852],[-89.10709,35.46791],[-89.10708,35.46711],[-89.1073,35.46669],[-89.1079,35.46648],[-89.10862,35.46649],[-89.10916,35.46666],[-89.11094,35.46778],[-89.1114,35.46846],[-89.11139,35.46952],[-89.11196,35.46979],[-89.11234,35.46962],[-89.11314,35.46881],[-89.11375,35.46853],[-89.1148,35.46845],[-89.11632,35.46864],[-89.11683,35.46852],[-89.11711,35.46821],[-89.11703,35.4674],[-89.11751,35.46722],[-89.11779,35.46752],[-89.11781,35.46823],[-89.11885,35.46905],[-89.11908,35.46983],[-89.11873,35.47034],[-89.1176,35.47074],[-89.11664,35.47137],[-89.11649,35.47177],[-89.11666,35.47213],[-89.11818,35.47283],[-89.11852,35.47257],[-89.11876,35.47168],[-89.11948,35.47117],[-89.12154,35.47146],[-89.12342,35.47094],[-89.1243,35.4709],[-89.12491,35.47118],[-89.12504,35.47163],[-89.12405,35.47257],[-89.12392,35.47301],[-89.12462,35.47403],[-89.12504,35.47434],[-89.12547,35.47401],[-89.12584,35.47277],[-89.12695,35.47196],[-89.12766,35.47098],[-89.12794,35.46918],[-89.12828,35.46878],[-89.12883,35.46882],[-89.12983,35.46978],[-89.13017,35.47035],[-89.13029,35.47145],[-89.13063,35.47173],[-89.13114,35.47187],[-89.13195,35.47163],[-89.13443,35.47019],[-89.13505,35.47003],[-89.13562,35.4701],[-89.13598,35.4704],[-89.13628,35.47107],[-89.13613,35.47166],[-89.13542,35.47232],[-89.13554,35.47254],[-89.13598,35.4727],[-89.13657,35.47257],[-89.13699,35.47231],[-89.13775,35.47037],[-89.13834,35.46987],[-89.13877,35.46989],[-89.13924,35.47035],[-89.1393,35.47084],[-89.13977,35.47149],[-89.13976,35.47282],[-89.14029,35.47376],[-89.14325,35.47683],[-89.14465,35.47749],[-89.14724,35.4777],[-89.14794,35.47792],[-89.14811,35.47813],[-89.14805,35.47843],[-89.14714,35.47906],[-89.14661,35.47921],[-89.14599,35.47917],[-89.14445,35.47862],[-89.14311,35.47841],[-89.14053,35.47711],[-89.13988,35.47719],[-89.13985,35.47825],[-89.14035,35.47939],[-89.1408,35.47977],[-89.14216,35.47994],[-89.1426,35.48047],[-89.14299,35.48171],[-89.14275,35.4833],[-89.14302,35.48386],[-89.14369,35.48384],[-89.14485,35.48239],[-89.14563,35.48227],[-89.14612,35.48243],[-89.14655,35.48278],[-89.1471,35.4839],[-89.14742,35.48508],[-89.14775,35.48551],[-89.14912,35.48612],[-89.15041,35.4876],[-89.1513,35.48795],[-89.1518,35.48783],[-89.15197,35.48745],[-89.15187,35.48719],[-89.15124,35.48666],[-89.15082,35.48579],[-89.15079,35.48466],[-89.15105,35.48434],[-89.15159,35.4841],[-89.15267,35.48417],[-89.15317,35.48451],[-89.15362,35.48508],[-89.1539,35.48591],[-89.15463,35.48717],[-89.155,35.48878],[-89.15532,35.48916],[-89.15571,35.48932],[-89.15634,35.48925],[-89.15747,35.48793],[-89.15826,35.48791],[-89.15878,35.48829],[-89.159,35.48882],[-89.15859,35.48941],[-89.15843,35.49043],[-89.15866,35.49111],[-89.15924,35.49153],[-89.15988,35.49168],[-89.16097,35.49152],[-89.16173,35.4911],[-89.1626,35.49034],[-89.16305,35.49022],[-89.16351,35.49054],[-89.16289,35.49154],[-89.16323,35.49205],[-89.16428,35.49208],[-89.16691,35.49123],[-89.16743,35.49128],[-89.16775,35.49148],[-89.16915,35.49316],[-89.16947,35.49393],[-89.16949,35.4945],[-89.16882,35.49513],[-89.16702,35.4958],[-89.16656,35.49641],[-89.16657,35.49683],[-89.16727,35.49806],[-89.16889,35.4989],[-89.16937,35.49936],[-89.1697,35.50076],[-89.17029,35.50174],[-89.16997,35.50271],[-89.17096,35.50369],[-89.17116,35.50408],[-89.17111,35.50458],[-89.17023,35.50531],[-89.17011,35.50582],[-89.17037,35.50606],[-89.17066,35.50611],[-89.17201,35.50547],[-89.17226,35.50566],[-89.17234,35.50605],[-89.17186,35.50658],[-89.17013,35.50711],[-89.16943,35.50804],[-89.16896,35.50805],[-89.16848,35.50778],[-89.16843,35.50547],[-89.16801,35.50512],[-89.16742,35.50504],[-89.16698,35.50529],[-89.16686,35.50563],[-89.16693,35.50713],[-89.16659,35.50889],[-89.16682,35.50964],[-89.16716,35.50997],[-89.17039,35.51184],[-89.17114,35.51187],[-89.17199,35.51168],[-89.17488,35.51202],[-89.17603,35.51181],[-89.17659,35.51129],[-89.17653,35.51064],[-89.17728,35.50993],[-89.17769,35.50927],[-89.17745,35.5082],[-89.17764,35.50751],[-89.17821,35.50693],[-89.17947,35.5062],[-89.18005,35.50605],[-89.18063,35.50639],[-89.18073,35.50702],[-89.17983,35.50906],[-89.17964,35.51126],[-89.17999,35.51221],[-89.18151,35.51311],[-89.18341,35.51359],[-89.18497,35.51426],[-89.18567,35.51425],[-89.18623,35.51391],[-89.18639,35.51354],[-89.18632,35.51305],[-89.18463,35.51196],[-89.1839,35.5112],[-89.18384,35.51047],[-89.18423,35.51013],[-89.18468,35.50999],[-89.18569,35.51026],[-89.18842,35.51135],[-89.18886,35.51131],[-89.18961,35.51087],[-89.19012,35.5108],[-89.19044,35.5112],[-89.1899,35.51188],[-89.18983,35.51226],[-89.19021,35.51268],[-89.19201,35.51273],[-89.19405,35.51328],[-89.19536,35.51347],[-89.19687,35.51334],[-89.19837,35.51272],[-89.19973,35.51265],[-89.20009,35.51218],[-89.19988,35.51146],[-89.19995,35.51117],[-89.20043,35.51098],[-89.2011,35.51097],[-89.20251,35.51126],[-89.20363,35.51189],[-89.20399,35.51245],[-89.20376,35.51397],[-89.20387,35.51438],[-89.2044,35.5148],[-89.20513,35.51493],[-89.20675,35.51422],[-89.20724,35.51376],[-89.2074,35.51329],[-89.20712,35.51282],[-89.20573,35.51203],[-89.20437,35.51024],[-89.20425,35.50964],[-89.20439,35.50919],[-89.20511,35.50859],[-89.20681,35.50853],[-89.2079,35.50918],[-89.20847,35.51002],[-89.20853,35.51164],[-89.20932,35.51244],[-89.21039,35.51275],[-89.21189,35.5128],[-89.21276,35.51261],[-89.21347,35.512],[-89.21344,35.51162],[-89.21232,35.51008],[-89.21233,35.50941],[-89.21266,35.50912],[-89.2132,35.509],[-89.2137,35.50913],[-89.21469,35.51031],[-89.21541,35.51064],[-89.21611,35.51058],[-89.21658,35.51032],[-89.21708,35.50912],[-89.21749,35.509],[-89.21787,35.50922],[-89.21846,35.51017],[-89.21912,35.51028],[-89.21958,35.50997],[-89.22009,35.50928],[-89.2202,35.50875],[-89.21998,35.50774],[-89.22015,35.50749],[-89.22036,35.50748],[-89.22077,35.50773],[-89.22136,35.50903],[-89.22226,35.50966],[-89.22261,35.51015],[-89.22251,35.51089],[-89.22129,35.51267],[-89.22115,35.51312],[-89.22147,35.51418],[-89.22277,35.51508],[-89.22354,35.51535],[-89.22788,35.51597],[-89.22977,35.51646],[-89.23021,35.5164],[-89.23059,35.51616],[-89.23082,35.51526],[-89.23113,35.51497],[-89.23168,35.51485],[-89.23269,35.51496],[-89.23333,35.51474],[-89.23376,35.51434],[-89.23414,35.51361],[-89.2347,35.51322],[-89.23518,35.51321],[-89.23543,35.5135],[-89.23531,35.51512],[-89.2356,35.51556],[-89.23607,35.51581],[-89.23691,35.51574],[-89.2382,35.51499],[-89.23988,35.5145],[-89.24021,35.51474],[-89.24045,35.51528],[-89.24016,35.51628],[-89.24026,35.51687],[-89.24097,35.5174],[-89.24206,35.51778],[-89.24237,35.51834],[-89.24191,35.51888],[-89.23999,35.51908],[-89.23967,35.51954],[-89.24035,35.51997],[-89.24162,35.5201],[-89.24232,35.52032],[-89.24317,35.52078],[-89.24363,35.52121],[-89.24397,35.5223],[-89.24381,35.52289],[-89.2432,35.52363],[-89.2434,35.52386],[-89.24381,35.52399],[-89.24554,35.52398],[-89.2474,35.52467],[-89.2484,35.52465],[-89.24923,35.52419],[-89.25022,35.52234],[-89.2511,35.52188],[-89.25215,35.52206],[-89.25354,35.52304],[-89.2545,35.52299],[-89.25506,35.52265],[-89.25525,35.52236],[-89.2551,35.5211],[-89.2553,35.52052],[-89.25586,35.51993],[-89.25676,35.51982],[-89.25727,35.52024],[-89.25708,35.52214],[-89.25776,35.52378],[-89.25731,35.52462],[-89.25565,35.52555],[-89.25564,35.52586],[-89.2559,35.52618],[-89.25624,35.52627],[-89.25687,35.52614],[-89.25787,35.52528],[-89.259,35.52465],[-89.25989,35.52443],[-89.26066,35.52452],[-89.26329,35.52638],[-89.26359,35.52718],[-89.26321,35.52774],[-89.26275,35.528],[-89.26187,35.52799],[-89.26116,35.52779],[-89.26073,35.52786],[-89.26055,35.52821],[-89.26076,35.52864],[-89.26134,35.52908],[-89.26203,35.52932],[-89.26397,35.52969],[-89.26463,35.52967],[-89.2657,35.52924],[-89.26616,35.52868],[-89.26636,35.52806],[-89.26607,35.52717],[-89.26625,35.52511],[-89.26682,35.5248],[-89.26757,35.52485],[-89.2683,35.52524],[-89.26857,35.52576],[-89.26814,35.52781],[-89.26821,35.52834],[-89.26858,35.52891],[-89.26889,35.52915],[-89.26944,35.52928],[-89.27166,35.52923],[-89.27342,35.52942],[-89.27378,35.52962],[-89.27404,35.53003],[-89.27401,35.5311],[-89.27467,35.53134],[-89.27714,35.53115],[-89.27855,35.53124],[-89.28126,35.53039],[-89.282,35.53047],[-89.28318,35.53095],[-89.28377,35.53085],[-89.28398,35.53059],[-89.28396,35.53027],[-89.28232,35.52824],[-89.28196,35.52696],[-89.28206,35.52651],[-89.28251,35.52593],[-89.28293,35.52557],[-89.2836,35.52529],[-89.28429,35.52539],[-89.28559,35.52592],[-89.28697,35.52748],[-89.2876,35.52793],[-89.28848,35.52824],[-89.28927,35.52805],[-89.28961,35.52726],[-89.28953,35.5267],[-89.28899,35.52596],[-89.28794,35.52531],[-89.28781,35.52471],[-89.28817,35.52435],[-89.28924,35.52379],[-89.29104,35.52193],[-89.29153,35.52118],[-89.29164,35.51998],[-89.29185,35.51972],[-89.2924,35.5196],[-89.294,35.51988],[-89.29466,35.51987],[-89.29737,35.51729],[-89.29793,35.51629],[-89.2979,35.51465],[-89.29826,35.51404],[-89.29934,35.51395],[-89.30178,35.5147],[-89.30241,35.51514],[-89.30291,35.51507],[-89.30302,35.51447],[-89.30267,35.51397],[-89.30149,35.51293],[-89.30138,35.51223],[-89.30159,35.51188],[-89.30239,35.51192],[-89.3042,35.51274],[-89.30512,35.513],[-89.30673,35.51295],[-89.30696,35.51331],[-89.30651,35.51479],[-89.30679,35.51514],[-89.3074,35.51541],[-89.30784,35.51525],[-89.30858,35.51459],[-89.30926,35.51286],[-89.30971,35.51226],[-89.31067,35.51176],[-89.31158,35.51169],[-89.31187,35.51191],[-89.312,35.51239],[-89.3118,35.51373],[-89.31194,35.51436],[-89.31241,35.51483],[-89.31307,35.51497],[-89.31377,35.51461],[-89.31395,35.51385],[-89.31364,35.51263],[-89.31254,35.51101],[-89.31276,35.51057],[-89.3131,35.51052],[-89.31478,35.51093],[-89.31573,35.51199],[-89.31614,35.51219],[-89.31673,35.51209],[-89.31714,35.51143],[-89.31764,35.51116],[-89.31806,35.51124],[-89.31888,35.51177],[-89.31936,35.51184],[-89.31989,35.51154],[-89.32076,35.51007],[-89.32122,35.50964],[-89.32195,35.50931],[-89.32334,35.5091],[-89.32434,35.50932],[-89.32534,35.51007],[-89.32635,35.51153],[-89.32656,35.51248],[-89.32642,35.51273],[-89.32547,35.51331],[-89.32388,35.51376],[-89.32279,35.51388],[-89.32236,35.51413],[-89.322,35.51507],[-89.32229,35.5158],[-89.32282,35.51617],[-89.3237,35.51622],[-89.32622,35.51568],[-89.32709,35.51489],[-89.32737,35.51377],[-89.32787,35.51343],[-89.32856,35.51337],[-89.32985,35.51506],[-89.33025,35.51593],[-89.33034,35.51827],[-89.33238,35.52045],[-89.33294,35.52053],[-89.33326,35.52035],[-89.33349,35.51852],[-89.33402,35.518],[-89.33475,35.51789],[-89.33544,35.51852],[-89.33574,35.51911],[-89.33568,35.52031],[-89.33581,35.52061],[-89.33635,35.52096],[-89.337,35.52096],[-89.33719,35.51896],[-89.33744,35.51809],[-89.33784,35.5175],[-89.33864,35.51712],[-89.33908,35.51711],[-89.33942,35.51732],[-89.33957,35.51769],[-89.33956,35.51879],[-89.33996,35.51917],[-89.3407,35.51946],[-89.3415,35.51929],[-89.34257,35.51803],[-89.34301,35.5178],[-89.34681,35.51782],[-89.34725,35.51797],[-89.34763,35.51836],[-89.34768,35.51878],[-89.34744,35.51968],[-89.34824,35.52212],[-89.34876,35.52254],[-89.34944,35.52261],[-89.35115,35.52187],[-89.35409,35.52122],[-89.35522,35.52032],[-89.35596,35.51912],[-89.35667,35.51852],[-89.35723,35.51852],[-89.35791,35.51939],[-89.35848,35.51978],[-89.35891,35.51976],[-89.35952,35.51941],[-89.35969,35.5189],[-89.35942,35.51855],[-89.3577,35.51814],[-89.35691,35.51773],[-89.35653,35.51734],[-89.35642,35.51693],[-89.35659,35.51646],[-89.35744,35.5158],[-89.35782,35.5157],[-89.36021,35.51583],[-89.36099,35.51572],[-89.36211,35.51589],[-89.3625,35.51623],[-89.3628,35.51682],[-89.36309,35.51772],[-89.36311,35.51857],[-89.36353,35.5188],[-89.36412,35.51864],[-89.36436,35.51796],[-89.36428,35.51701],[-89.36441,35.51664],[-89.36475,35.51641],[-89.3654,35.51636],[-89.36578,35.51653],[-89.36593,35.51706],[-89.36468,35.51881],[-89.36499,35.51932],[-89.3659,35.52005],[-89.36651,35.52102],[-89.36716,35.521],[-89.36774,35.52021],[-89.36807,35.52003],[-89.36917,35.52002],[-89.37081,35.52034],[-89.37194,35.52007],[-89.37251,35.51944],[-89.37285,35.51827],[-89.3733,35.51806],[-89.3737,35.51808],[-89.374,35.51832],[-89.37419,35.51987],[-89.37454,35.52031],[-89.37508,35.52048],[-89.37721,35.52056],[-89.37809,35.52094],[-89.37817,35.52143],[-89.37743,35.52254],[-89.37748,35.52314],[-89.37807,35.52358],[-89.37952,35.52367],[-89.38003,35.52386],[-89.38022,35.52433],[-89.37956,35.52483],[-89.37969,35.52526],[-89.38037,35.52553],[-89.38237,35.52677],[-89.38353,35.5271],[-89.38486,35.52649],[-89.38573,35.52579],[-89.38643,35.52581],[-89.38662,35.52604],[-89.38659,35.52643],[-89.38508,35.52772],[-89.38492,35.5284],[-89.38518,35.52889],[-89.38621,35.5292],[-89.38686,35.52957],[-89.38699,35.5298],[-89.3869,35.53046],[-89.38714,35.53053],[-89.39124,35.5286],[-89.39151,35.52819],[-89.3916,35.52702],[-89.39127,35.52648],[-89.39132,35.52617],[-89.39248,35.52505],[-89.39325,35.52398],[-89.3939,35.52396],[-89.39509,35.52491],[-89.3961,35.52517],[-89.39844,35.52466],[-89.39912,35.52434],[-89.39905,35.52365],[-89.39783,35.52294],[-89.3969,35.52219],[-89.39614,35.52226],[-89.39563,35.52322],[-89.39459,35.52313],[-89.39408,35.52323],[-89.39378,35.52308],[-89.39373,35.52253],[-89.39431,35.52161],[-89.39481,35.52103],[-89.3957,35.52044],[-89.39663,35.5202],[-89.39732,35.52063],[-89.39783,35.52074],[-89.3985,35.52034],[-89.39923,35.51958],[-89.39951,35.5195],[-89.39981,35.51961],[-89.40034,35.52018],[-89.40161,35.52034],[-89.40193,35.52115],[-89.40219,35.52127],[-89.40253,35.52122],[-89.40315,35.52032],[-89.40378,35.52018],[-89.40415,35.52037],[-89.40459,35.52118],[-89.40494,35.52139],[-89.40655,35.52116],[-89.40821,35.52154],[-89.40924,35.5216],[-89.41018,35.52132],[-89.41182,35.51917],[-89.41229,35.51903],[-89.41256,35.51914],[-89.41263,35.51952],[-89.41234,35.52023],[-89.41218,35.52167],[-89.41242,35.52197],[-89.41299,35.52213],[-89.41333,35.52204],[-89.41357,35.52174],[-89.41366,35.51965],[-89.41389,35.51896],[-89.41431,35.51838],[-89.41497,35.51831],[-89.41627,35.51936],[-89.41627,35.51993],[-89.41572,35.52153],[-89.41617,35.52252],[-89.41674,35.52286],[-89.41752,35.52299],[-89.41829,35.52285],[-89.41941,35.52235],[-89.41992,35.52243],[-89.4205,35.52321],[-89.4205,35.52427],[-89.42081,35.52478],[-89.42125,35.52508],[-89.42168,35.52513],[-89.42264,35.52447],[-89.42319,35.52482],[-89.42353,35.52541],[-89.4235,35.52651],[-89.42257,35.52772],[-89.42119,35.52854],[-89.41944,35.52888],[-89.41913,35.52921],[-89.41916,35.52972],[-89.4201,35.53021],[-89.42227,35.53018],[-89.42421,35.52982],[-89.42489,35.52942],[-89.42537,35.52891],[-89.42567,35.52893],[-89.42633,35.52989],[-89.42665,35.53118],[-89.42697,35.53169],[-89.42765,35.532],[-89.42888,35.53142],[-89.4304,35.5315],[-89.43055,35.53182],[-89.43025,35.53241],[-89.43029,35.5328],[-89.43063,35.53337],[-89.43093,35.5335],[-89.43155,35.5334],[-89.43239,35.53228],[-89.43292,35.53185],[-89.43335,35.5318],[-89.43392,35.53207],[-89.43465,35.53333],[-89.43512,35.53556],[-89.43567,35.537],[-89.43521,35.53789],[-89.43554,35.53903],[-89.43553,35.53974],[-89.43521,35.54063],[-89.4346,35.54132],[-89.43474,35.54194],[-89.43553,35.5427],[-89.43807,35.544],[-89.43848,35.54515],[-89.43887,35.54516],[-89.43952,35.54436],[-89.43999,35.54409],[-89.44083,35.54428],[-89.44117,35.54476],[-89.44116,35.54519],[-89.43954,35.54709],[-89.43927,35.54773],[-89.4394,35.54828],[-89.4399,35.54854],[-89.44096,35.54864],[-89.44209,35.54824],[-89.4425,35.54835],[-89.44275,35.54874],[-89.44251,35.54937],[-89.44258,35.54964],[-89.44535,35.55095],[-89.44566,35.55103],[-89.44696,35.55084],[-89.44853,35.55044],[-89.44947,35.54998],[-89.4496,35.54968],[-89.44944,35.54921],[-89.44956,35.5482],[-89.44808,35.54735],[-89.44811,35.54674],[-89.44849,35.54631],[-89.4499,35.54602],[-89.45079,35.54549],[-89.45164,35.54521],[-89.45226,35.54537],[-89.45245,35.54569],[-89.45243,35.54604],[-89.45205,35.54643],[-89.45108,35.54688],[-89.45095,35.54772],[-89.45194,35.54919],[-89.45263,35.54983],[-89.45439,35.55038],[-89.45588,35.55054],[-89.45689,35.55047],[-89.45728,35.55019],[-89.45725,35.54903],[-89.45756,35.54825],[-89.45792,35.54794],[-89.45847,35.54783],[-89.4602,35.54827],[-89.46052,35.54872],[-89.46041,35.54966],[-89.46082,35.5499],[-89.4613,35.54982],[-89.46177,35.54928],[-89.46166,35.54837],[-89.46118,35.54782],[-89.45945,35.54684],[-89.45894,35.54617],[-89.45894,35.54582],[-89.45922,35.54556],[-89.4604,35.54545],[-89.46075,35.54509],[-89.46059,35.54459],[-89.45939,35.54407],[-89.45929,35.54377],[-89.45981,35.54349],[-89.46064,35.54371],[-89.46121,35.54369],[-89.46183,35.54341],[-89.4623,35.54282],[-89.46274,35.54266],[-89.46321,35.54285],[-89.46339,35.54365],[-89.46326,35.54399],[-89.46256,35.54457],[-89.46244,35.54548],[-89.46299,35.54644],[-89.46393,35.54682],[-89.46668,35.54674],[-89.4687,35.54651],[-89.46985,35.54656],[-89.47108,35.54687],[-89.47182,35.54761],[-89.47233,35.5477],[-89.47266,35.54742],[-89.4727,35.54703],[-89.47257,35.54644],[-89.47154,35.54443],[-89.47157,35.5442],[-89.47181,35.54413],[-89.47297,35.54463],[-89.47456,35.54577],[-89.47481,35.54603],[-89.47512,35.54692],[-89.47636,35.54856],[-89.47704,35.54902],[-89.47746,35.54892],[-89.47765,35.5486],[-89.47705,35.54708],[-89.47705,35.54669],[-89.47727,35.54632],[-89.47918,35.54648],[-89.48079,35.547],[-89.48158,35.54696],[-89.48256,35.54664],[-89.48303,35.54673],[-89.48319,35.54694],[-89.48287,35.54798],[-89.4827,35.54939],[-89.48224,35.54982],[-89.48059,35.55064],[-89.48023,35.5521],[-89.48016,35.55338],[-89.48033,35.55426],[-89.48088,35.55494],[-89.48201,35.55549],[-89.4821,35.55591],[-89.4819,35.55618],[-89.4802,35.55673],[-89.47773,35.56013],[-89.47726,35.56138],[-89.47753,35.56223],[-89.47839,35.563],[-89.47911,35.56433],[-89.47975,35.56464],[-89.4816,35.56479],[-89.48232,35.56514],[-89.48381,35.56749],[-89.48444,35.56819],[-89.4848,35.56854],[-89.48568,35.56869],[-89.48673,35.5697],[-89.48738,35.56978],[-89.48788,35.56967],[-89.48785,35.56885],[-89.48851,35.56805],[-89.48883,35.56828],[-89.48936,35.57076],[-89.48911,35.57124],[-89.48582,35.57337],[-89.48507,35.57358],[-89.48402,35.57333],[-89.48376,35.57341],[-89.48364,35.57381],[-89.4839,35.57422],[-89.4854,35.57473],[-89.48831,35.5752],[-89.49092,35.57633],[-89.49275,35.57674],[-89.49449,35.57662],[-89.49613,35.57607],[-89.4972,35.57544],[-89.49794,35.57547],[-89.49828,35.57584],[-89.49867,35.57693],[-89.49937,35.57797],[-89.50104,35.57941],[-89.50101,35.58016],[-89.50123,35.58039],[-89.50212,35.58062],[-89.50427,35.58083],[-89.50617,35.58027],[-89.50683,35.5803],[-89.50741,35.58055],[-89.5077,35.58094],[-89.50762,35.58139],[-89.50622,35.58225],[-89.50631,35.58273],[-89.50699,35.58322],[-89.5076,35.58305],[-89.50834,35.5818],[-89.50901,35.58105],[-89.50966,35.58075],[-89.51065,35.58088],[-89.51129,35.58142],[-89.51209,35.58253],[-89.51223,35.58298],[-89.51202,35.58377],[-89.51101,35.58479],[-89.51117,35.58681],[-89.511,35.58721],[-89.51149,35.588],[-89.51328,35.58837],[-89.51415,35.58906],[-89.51472,35.58901],[-89.51604,35.58837],[-89.51696,35.58834],[-89.51917,35.58876],[-89.52062,35.58951],[-89.52122,35.59008],[-89.52129,35.59064],[-89.52096,35.59114],[-89.5195,35.59195],[-89.51914,35.59235],[-89.51904,35.59312],[-89.51946,35.59413],[-89.52002,35.59477],[-89.52111,35.59538],[-89.5214,35.59581],[-89.52209,35.59569],[-89.52233,35.5954],[-89.52232,35.59491],[-89.52183,35.59367],[-89.52204,35.59336],[-89.52251,35.59325],[-89.52312,35.59332],[-89.52349,35.59357],[-89.52409,35.59478],[-89.52438,35.59504],[-89.52476,35.59509],[-89.52599,35.59479],[-89.52666,35.59497],[-89.52675,35.59546],[-89.52604,35.59793],[-89.52632,35.59845],[-89.52699,35.5989],[-89.52781,35.59904],[-89.52857,35.59877],[-89.52959,35.5975],[-89.53031,35.59708],[-89.53115,35.59703],[-89.53233,35.59735],[-89.53268,35.59732],[-89.53334,35.59705],[-89.53437,35.5959],[-89.53501,35.59573],[-89.53542,35.59584],[-89.53549,35.5964],[-89.53361,35.59969],[-89.5329,35.60043],[-89.53183,35.60121],[-89.53164,35.6019],[-89.53178,35.60234],[-89.53239,35.60269],[-89.5343,35.6026],[-89.53546,35.60285],[-89.53793,35.60464],[-89.53883,35.60495],[-89.53946,35.6048],[-89.54009,35.60423],[-89.54084,35.60417],[-89.54121,35.60429],[-89.54171,35.60404],[-89.54407,35.6081],[-89.54191,35.6039],[-89.54238,35.60338],[-89.54225,35.60287],[-89.54236,35.60277],[-89.54287,35.60268],[-89.5436,35.60284],[-89.54525,35.60408],[-89.54556,35.60463],[-89.54548,35.60593],[-89.5451,35.60654],[-89.54425,35.60736],[-89.54407,35.60808],[-89.54412,35.60847],[-89.54457,35.60917],[-89.54546,35.60969],[-89.54741,35.61003],[-89.54813,35.60988],[-89.54838,35.60964],[-89.54844,35.60925],[-89.54791,35.60812],[-89.54801,35.6076],[-89.5491,35.60667],[-89.55071,35.60593],[-89.55173,35.60595],[-89.55219,35.60617],[-89.5525,35.60725],[-89.55207,35.6081],[-89.5521,35.60859],[-89.55252,35.60888],[-89.55326,35.60858],[-89.55364,35.60824],[-89.55398,35.6071],[-89.55382,35.60666],[-89.55321,35.60612],[-89.55342,35.60548],[-89.55336,35.605],[-89.55369,35.60439],[-89.55418,35.60428],[-89.55533,35.60505],[-89.55578,35.60553],[-89.55548,35.60696],[-89.55563,35.60874],[-89.5555,35.61019],[-89.5557,35.61062],[-89.55623,35.61087],[-89.55755,35.61097],[-89.55856,35.61086],[-89.56009,35.61045],[-89.56076,35.61044],[-89.56167,35.6107],[-89.56201,35.61102],[-89.562,35.61179],[-89.56055,35.6123],[-89.56021,35.61262],[-89.56016,35.61307],[-89.56059,35.61344],[-89.56208,35.6138],[-89.56285,35.61364],[-89.56375,35.61301],[-89.56465,35.61282],[-89.56531,35.61277],[-89.56642,35.61301],[-89.56683,35.61333],[-89.56697,35.61378],[-89.56686,35.61434],[-89.5662,35.61513],[-89.56634,35.6154],[-89.56664,35.61546],[-89.56723,35.61524],[-89.56756,35.61454],[-89.56805,35.6142],[-89.56923,35.61426],[-89.57134,35.61382],[-89.57209,35.61386],[-89.57262,35.61404],[-89.57314,35.61452],[-89.57445,35.6165],[-89.57437,35.61691],[-89.57353,35.61824],[-89.57359,35.61851],[-89.57396,35.61876],[-89.57494,35.6186],[-89.57587,35.61802],[-89.5761,35.6173],[-89.57573,35.61581],[-89.57616,35.61515],[-89.57664,35.61484],[-89.57712,35.61476],[-89.57787,35.61474],[-89.57878,35.61525],[-89.57992,35.61672],[-89.58067,35.61685],[-89.58171,35.61785],[-89.58193,35.61796],[-89.58228,35.61781],[-89.58276,35.61782],[-89.58329,35.61801],[-89.58353,35.61834],[-89.5839,35.61962],[-89.58497,35.62088],[-89.58577,35.62155],[-89.58644,35.6227],[-89.58621,35.62403],[-89.5851,35.62535],[-89.58512,35.62563],[-89.58543,35.62583],[-89.58612,35.62591],[-89.58725,35.62536],[-89.58791,35.62538],[-89.5885,35.62603],[-89.5908,35.62667],[-89.59328,35.62811],[-89.59561,35.62907],[-89.59638,35.62966],[-89.59764,35.6301],[-89.59817,35.63009],[-89.59877,35.62987],[-89.59941,35.62905],[-89.60001,35.62869],[-89.60097,35.62862],[-89.60242,35.62902],[-89.6028,35.62876],[-89.60395,35.62622],[-89.60352,35.62576],[-89.60229,35.62575],[-89.60161,35.62528],[-89.6015,35.62508],[-89.6016,35.62407],[-89.60181,35.62385],[-89.60215,35.62378],[-89.60264,35.62392],[-89.60538,35.62621],[-89.6067,35.62772],[-89.6068,35.62831],[-89.60662,35.62904],[-89.60613,35.62959],[-89.60506,35.63022],[-89.60482,35.63063],[-89.60486,35.63076],[-89.60587,35.63121],[-89.60687,35.63206],[-89.60842,35.63267],[-89.60896,35.63318],[-89.60911,35.63365],[-89.60784,35.63562],[-89.60785,35.63594],[-89.60812,35.63631],[-89.61058,35.63758],[-89.61205,35.63808],[-89.61231,35.63769],[-89.61249,35.63669],[-89.61334,35.63665],[-89.61383,35.63614],[-89.61467,35.63592],[-89.61515,35.63607],[-89.61558,35.63653],[-89.61562,35.63729],[-89.61497,35.63822],[-89.61474,35.63883],[-89.61499,35.63963],[-89.61583,35.64013],[-89.61607,35.6408],[-89.61564,35.64102],[-89.61473,35.64086],[-89.61422,35.64095],[-89.61357,35.64202],[-89.61314,35.64221],[-89.61262,35.64215],[-89.61241,35.64258],[-89.61246,35.64293],[-89.61298,35.64323],[-89.61484,35.64333],[-89.61595,35.64358],[-89.61679,35.6441],[-89.61768,35.6454],[-89.61816,35.64577],[-89.62005,35.64581],[-89.62082,35.64599],[-89.62126,35.64628],[-89.62159,35.64674],[-89.62148,35.64724],[-89.62058,35.64739],[-89.61938,35.64735],[-89.61903,35.64761],[-89.61898,35.64795],[-89.61915,35.64815],[-89.62093,35.64869],[-89.62289,35.64987],[-89.6231,35.65054],[-89.62281,35.65102],[-89.62227,35.65139],[-89.62215,35.6518],[-89.62232,35.65204],[-89.62301,35.65234],[-89.62366,35.65225],[-89.62511,35.65129],[-89.62553,35.65084],[-89.62629,35.64928],[-89.6268,35.64878],[-89.62728,35.64862],[-89.62818,35.64875],[-89.62883,35.64947],[-89.62995,35.65004],[-89.63062,35.65064],[-89.63167,35.65065],[-89.63272,35.65028],[-89.63291,35.64975],[-89.6327,35.64881],[-89.6328,35.648],[-89.6331,35.6477],[-89.63428,35.6473],[-89.63441,35.64677],[-89.63412,35.64647],[-89.63346,35.64644],[-89.63296,35.64666],[-89.6326,35.64706],[-89.63212,35.64707],[-89.63174,35.64607],[-89.63085,35.64534],[-89.63112,35.64501],[-89.63274,35.64495],[-89.63432,35.6453],[-89.63609,35.64528],[-89.63775,35.64578],[-89.6385,35.6466],[-89.63908,35.64681],[-89.63992,35.64645],[-89.64006,35.64601],[-89.63991,35.64532],[-89.6401,35.64514],[-89.64054,35.64509],[-89.64335,35.646],[-89.64689,35.64694],[-89.64802,35.64709],[-89.64914,35.64752],[-89.65049,35.64855],[-89.651,35.64852],[-89.65116,35.64831],[-89.65109,35.64807],[-89.65018,35.64677],[-89.65018,35.64617],[-89.65049,35.64543],[-89.6512,35.64484],[-89.65178,35.64459],[-89.65217,35.64463],[-89.65309,35.6453],[-89.65356,35.6452],[-89.65379,35.64484],[-89.65313,35.64179],[-89.65214,35.64053],[-89.6509,35.63994],[-89.65071,35.63947],[-89.65101,35.6387],[-89.65163,35.63844],[-89.65245,35.63855],[-89.653,35.63844],[-89.65333,35.63792],[-89.65321,35.63723],[-89.65442,35.63582],[-89.65524,35.63523],[-89.65649,35.63477],[-89.65727,35.63382],[-89.65774,35.6335],[-89.65825,35.6334],[-89.6586,35.63361],[-89.65874,35.63406],[-89.65852,35.63536],[-89.65867,35.63561],[-89.65899,35.63565],[-89.66047,35.63393],[-89.66073,35.63333],[-89.66074,35.63215],[-89.66095,35.63188],[-89.6613,35.63175],[-89.66206,35.63191],[-89.66282,35.63265],[-89.66337,35.63347],[-89.66364,35.63455],[-89.66427,35.63524],[-89.66481,35.63561],[-89.66592,35.63598],[-89.66647,35.6361],[-89.6669,35.63602],[-89.66728,35.63559],[-89.66729,35.63527],[-89.66665,35.63434],[-89.66666,35.63356],[-89.66642,35.63326],[-89.66574,35.63287],[-89.66543,35.63218],[-89.66579,35.63147],[-89.66685,35.63126],[-89.6683,35.63166],[-89.66849,35.63303],[-89.66875,35.63356],[-89.67057,35.63517],[-89.67105,35.6362],[-89.67148,35.63842],[-89.67171,35.63884],[-89.67309,35.63973],[-89.67544,35.64035],[-89.67588,35.64041],[-89.67662,35.6402],[-89.67683,35.63993],[-89.67689,35.63933],[-89.67636,35.63868],[-89.67538,35.63822],[-89.67517,35.63791],[-89.67521,35.63761],[-89.67568,35.63725],[-89.6763,35.6372],[-89.67678,35.63729],[-89.67747,35.63766],[-89.67812,35.63759],[-89.67837,35.63723],[-89.67837,35.63604],[-89.67883,35.63578],[-89.67933,35.63575],[-89.67985,35.63618],[-89.68009,35.63741],[-89.68031,35.63771],[-89.6815,35.63791],[-89.682,35.63829],[-89.68204,35.63887],[-89.68112,35.63953],[-89.68087,35.63998],[-89.68103,35.64028],[-89.68173,35.64037],[-89.68243,35.64032],[-89.68299,35.63991],[-89.68319,35.6394],[-89.68324,35.63813],[-89.68354,35.63778],[-89.6842,35.6376],[-89.68524,35.6381],[-89.68571,35.63807],[-89.68788,35.6368],[-89.6882,35.63601],[-89.68867,35.63595],[-89.68896,35.63633],[-89.68914,35.63759],[-89.68982,35.63825],[-89.69068,35.63861],[-89.69152,35.63863],[-89.6922,35.63848],[-89.69255,35.63874],[-89.69204,35.6398],[-89.69204,35.64083],[-89.69151,35.64145],[-89.69158,35.64227],[-89.69278,35.6443],[-89.69384,35.64505],[-89.69476,35.64506],[-89.69585,35.64453],[-89.69598,35.6439],[-89.69557,35.64296],[-89.69553,35.64242],[-89.69587,35.64199],[-89.6966,35.64185],[-89.69738,35.64199],[-89.69907,35.64317],[-89.69936,35.64323],[-89.69967,35.64309],[-89.69978,35.64247],[-89.69902,35.64144],[-89.69901,35.64112],[-89.69921,35.64098],[-89.70141,35.64191],[-89.70226,35.64242],[-89.70292,35.64246],[-89.70387,35.64189],[-89.70501,35.64048],[-89.70605,35.63967],[-89.70681,35.63966],[-89.70797,35.63989],[-89.70937,35.64051],[-89.71071,35.64086],[-89.71191,35.64042],[-89.71269,35.63965],[-89.71411,35.63882],[-89.71501,35.6387],[-89.71596,35.6388],[-89.7174,35.63855],[-89.71833,35.63875],[-89.71927,35.6401],[-89.71953,35.64031],[-89.72027,35.64041],[-89.7209,35.64026],[-89.72134,35.63942],[-89.72194,35.63885],[-89.7225,35.63859],[-89.72274,35.63819],[-89.72397,35.63768],[-89.72495,35.63803],[-89.72554,35.63869],[-89.72553,35.63931],[-89.72496,35.6401],[-89.72506,35.64034],[-89.72537,35.64054],[-89.72646,35.64062],[-89.7272,35.64098],[-89.72708,35.64117],[-89.72719,35.64191],[-89.72764,35.64321],[-89.72811,35.64568],[-89.72879,35.64708],[-89.72948,35.64756],[-89.73092,35.64788],[-89.73217,35.64778],[-89.73298,35.64731],[-89.73331,35.64665],[-89.73451,35.64612],[-89.73502,35.64537],[-89.73623,35.64419],[-89.73884,35.64282],[-89.73947,35.64181],[-89.73947,35.64103],[-89.73892,35.63986],[-89.73909,35.63939],[-89.73943,35.63926],[-89.74019,35.63964],[-89.74114,35.64155],[-89.74067,35.64276],[-89.74042,35.64467],[-89.7406,35.64529],[-89.74099,35.64572],[-89.74198,35.64602],[-89.74347,35.64588],[-89.7459,35.64622],[-89.75105,35.64642],[-89.7515,35.64669],[-89.75156,35.64725],[-89.75134,35.64746],[-89.75076,35.64763],[-89.75059,35.64802],[-89.75078,35.64838],[-89.75161,35.64897],[-89.75239,35.6493],[-89.7534,35.6495],[-89.75477,35.64946],[-89.75696,35.65024],[-89.75804,35.65039],[-89.75834,35.65019],[-89.75852,35.64964],[-89.75774,35.64673],[-89.75819,35.64572],[-89.75885,35.64297],[-89.75911,35.64256],[-89.75973,35.64237],[-89.76019,35.64244],[-89.76068,35.64303],[-89.76112,35.64404],[-89.76232,35.64483],[-89.7631,35.64602],[-89.76382,35.64609],[-89.76428,35.64541],[-89.76438,35.64275],[-89.76578,35.64156],[-89.76566,35.64022],[-89.76636,35.6401],[-89.76822,35.64058],[-89.76987,35.64177],[-89.77115,35.643],[-89.77195,35.6431],[-89.77212,35.64287],[-89.77209,35.6424],[-89.77147,35.64085],[-89.76958,35.63906],[-89.76952,35.63858],[-89.77134,35.63827],[-89.77621,35.638],[-89.77716,35.63781],[-89.77767,35.63753],[-89.77902,35.63568],[-89.77936,35.63546],[-89.77966,35.6354],[-89.77991,35.6356],[-89.78078,35.63675],[-89.78134,35.63682],[-89.78175,35.63662],[-89.78193,35.63634],[-89.78175,35.63544],[-89.78185,35.63495],[-89.78202,35.63474],[-89.78237,35.63475],[-89.78272,35.63496],[-89.78314,35.63563],[-89.78347,35.63586],[-89.78515,35.63659],[-89.78647,35.63764],[-89.78725,35.63776],[-89.78763,35.6376],[-89.78778,35.63705],[-89.78712,35.63593],[-89.78712,35.63529],[-89.78748,35.63473],[-89.78818,35.6346],[-89.78984,35.63583],[-89.79049,35.637],[-89.79094,35.63748],[-89.79162,35.63763],[-89.79279,35.63732],[-89.79351,35.63755],[-89.79369,35.63803],[-89.7936,35.6383],[-89.7922,35.63895],[-89.7919,35.63949],[-89.79199,35.63976],[-89.79253,35.64006],[-89.79305,35.64015],[-89.79357,35.63995],[-89.79389,35.63966],[-89.79467,35.6383],[-89.79528,35.63596],[-89.7952,35.63529],[-89.79494,35.63492],[-89.79303,35.63355],[-89.79289,35.63321],[-89.79301,35.63271],[-89.79364,35.63249],[-89.79587,35.63295],[-89.79694,35.6328],[-89.79932,35.63114],[-89.80133,35.62915],[-89.80279,35.62855],[-89.80574,35.62776],[-89.80691,35.62715],[-89.80757,35.62623],[-89.80744,35.62525],[-89.80679,35.62472],[-89.80493,35.62439],[-89.80433,35.62416],[-89.80397,35.62374],[-89.8039,35.62339],[-89.80422,35.6227],[-89.80595,35.62185],[-89.80711,35.62046],[-89.80789,35.62024],[-89.80841,35.62042],[-89.80964,35.62173],[-89.81055,35.62315],[-89.81096,35.62351],[-89.81146,35.62364],[-89.81229,35.6232],[-89.81271,35.62247],[-89.81257,35.62184],[-89.8115,35.62055],[-89.81161,35.61983],[-89.81214,35.61968],[-89.81419,35.61965],[-89.81542,35.61991],[-89.8159,35.62039],[-89.81581,35.6212],[-89.81397,35.62408],[-89.81389,35.62446],[-89.81409,35.62493],[-89.81439,35.62514],[-89.81547,35.62511],[-89.81658,35.62461],[-89.81768,35.62373],[-89.8184,35.62261],[-89.81867,35.62107],[-89.81848,35.61995],[-89.81791,35.61895],[-89.81726,35.61867],[-89.81563,35.61881],[-89.81512,35.61871],[-89.81476,35.61829],[-89.81497,35.6178],[-89.816,35.61725],[-89.81802,35.61663],[-89.81864,35.61663],[-89.82012,35.61703],[-89.82074,35.61687],[-89.82303,35.6153],[-89.82343,35.61456],[-89.82351,35.61339],[-89.82379,35.61303],[-89.82418,35.61286],[-89.82467,35.61287],[-89.82504,35.61312],[-89.82527,35.6138],[-89.82534,35.61489],[-89.82582,35.61505],[-89.82631,35.61482],[-89.8265,35.6142],[-89.8264,35.612],[-89.82607,35.61134],[-89.8251,35.61061],[-89.82477,35.61003],[-89.82478,35.6096],[-89.82548,35.60815],[-89.82512,35.60731],[-89.82412,35.60601],[-89.82383,35.60537],[-89.82345,35.60405],[-89.82378,35.60333],[-89.82415,35.60314],[-89.82715,35.60252],[-89.82828,35.60251],[-89.8296,35.60322],[-89.83022,35.60387],[-89.83065,35.60476],[-89.83113,35.60508],[-89.83155,35.60515],[-89.83238,35.60466],[-89.83301,35.60318],[-89.83334,35.60286],[-89.83416,35.60272],[-89.83578,35.60335],[-89.83647,35.60336],[-89.83698,35.60293],[-89.83741,35.60163],[-89.83768,35.60139],[-89.83811,35.60133],[-89.83859,35.6015],[-89.83887,35.60182],[-89.83854,35.60336],[-89.83872,35.60375],[-89.83915,35.60406],[-89.83974,35.6041],[-89.84095,35.6036],[-89.84215,35.60354],[-89.84262,35.60364],[-89.84469,35.60477],[-89.84508,35.60445],[-89.84524,35.60408],[-89.84488,35.60119],[-89.84386,35.59903],[-89.84239,35.59757],[-89.84243,35.59707],[-89.84343,35.5967],[-89.84576,35.59517],[-89.84664,35.59485],[-89.84741,35.59482],[-89.85016,35.59517],[-89.8512,35.59493],[-89.85201,35.59372],[-89.85174,35.59161],[-89.8521,35.59121],[-89.85255,35.59099],[-89.85333,35.59086],[-89.85412,35.59091],[-89.85605,35.59196],[-89.85676,35.59196],[-89.85725,35.59173],[-89.85807,35.5908],[-89.85868,35.58954],[-89.85957,35.58853],[-89.85991,35.58783],[-89.85984,35.58709],[-89.85916,35.58548],[-89.85939,35.58491],[-89.85985,35.58464],[-89.86055,35.58464],[-89.86225,35.58511],[-89.86584,35.5884],[-89.86714,35.58858],[-89.86831,35.5882],[-89.86909,35.58734],[-89.8699,35.58584],[-89.87007,35.58504],[-89.87001,35.58234],[-89.87027,35.58189],[-89.87105,35.58138],[-89.87148,35.58132],[-89.87199,35.58144],[-89.87288,35.58221],[-89.87317,35.58296],[-89.87288,35.58433],[-89.87292,35.58486],[-89.87317,35.58523],[-89.87394,35.58558],[-89.87777,35.58636],[-89.87938,35.58654],[-89.88037,35.58636],[-89.8845,35.58498],[-89.88537,35.58432],[-89.88588,35.58369],[-89.8861,35.58308],[-89.88602,35.58259],[-89.88553,35.58213],[-89.88364,35.58125],[-89.88245,35.58038],[-89.88148,35.57924],[-89.88121,35.57825]]]}}
