{"type":"Feature","properties":{"id":"south-fork-cumberland","name":"South Fork Cumberland River","waterbodyType":"river","throughLakeIds":[],"allowOpenEnds":false,"source":"nhd-hu8-05130104","approximate":false,"labelAnchor":[-84.66902,36.47734],"bounds":[-84.67186,36.42429,-84.60772,36.59269],"crs":"EPSG:4326","coordinateOrder":"longitude,latitude","partCount":1,"vertexCount":199,"lengthKm":33.82,"sourceIds":["38156207","38156260","38156328","38156396","38156406","38156431","38156472","38156487","38156476","38156442","38156485","38156571","38156587","38156646","38156721","38156767","38156819","38156820","38156786","38156785","38156850","38156857","38156872","38156180","38156171","38156139","38156115","38156095","38156074","38156033","38156003","38155972","38155874","38155866","38155862","38155854","38155847","38155792","38155775","38155696","38155680","38155671","38155650","38155632","38155624","38155612","38155591","38155589","38155578","38155528","38155520","38155516","38155509","38155481","38155454","38155445","38155401","38155387","38155349","38155343","38155367","38155374","38155362","38155361","38155351","38155313","38155309","38155278"],"sourceRetrieved":"2026-09-11","geometrySource":"nhd","hu8":"05130104","simplification":{"toleranceM":10,"verticesBefore":4944,"verticesAfter":199,"budgetBytes":81920},"trace":{"anchor":{"lat":36.4774,"lon":-84.6694,"snapDistM":34.3},"up":{"spec":"confluence:Clear Fork","reason":"confluence","terminus":[-84.623596,36.424294],"distKmFromAnchor":11.18},"down":{"spec":"point:36.5936,-84.6072","reason":"point","terminus":[-84.607718,36.592685],"enteredNames":null,"distKmFromAnchor":22.73},"vaaUsed":false,"toleranceM":12}},"geometry":{"type":"MultiLineString","coordinates":[[[-84.6236,36.42429],[-84.62488,36.42631],[-84.62793,36.42875],[-84.62878,36.4297],[-84.63089,36.43116],[-84.63212,36.43166],[-84.63484,36.43165],[-84.63555,36.43186],[-84.63707,36.43197],[-84.63884,36.43185],[-84.64146,36.43063],[-84.64338,36.43056],[-84.64401,36.43068],[-84.64488,36.43119],[-84.64537,36.43156],[-84.64598,36.43234],[-84.64617,36.43421],[-84.64564,36.43586],[-84.64557,36.43701],[-84.64398,36.44136],[-84.64233,36.44391],[-84.64107,36.44499],[-84.63886,36.44603],[-84.63764,36.44715],[-84.63446,36.44847],[-84.63264,36.44975],[-84.6313,36.45118],[-84.63083,36.45203],[-84.631,36.45333],[-84.63153,36.45402],[-84.63204,36.45431],[-84.6334,36.45457],[-84.63639,36.45462],[-84.6378,36.45394],[-84.6418,36.45347],[-84.64399,36.45283],[-84.64564,36.45192],[-84.64763,36.45158],[-84.64875,36.45216],[-84.6497,36.45227],[-84.65021,36.45256],[-84.65113,36.45334],[-84.65209,36.4549],[-84.65273,36.45544],[-84.65369,36.45554],[-84.65511,36.45598],[-84.65757,36.45641],[-84.66038,36.45632],[-84.66292,36.45746],[-84.66513,36.45873],[-84.66642,36.46087],[-84.66662,36.46263],[-84.66648,36.46319],[-84.6659,36.46435],[-84.66513,36.46531],[-84.66486,36.46648],[-84.6652,36.46755],[-84.66689,36.46942],[-84.66811,36.47129],[-84.6684,36.4727],[-84.66882,36.47331],[-84.66913,36.47669],[-84.66893,36.4776],[-84.66902,36.47734],[-84.66848,36.4782],[-84.6677,36.47868],[-84.66581,36.47915],[-84.66474,36.48],[-84.66447,36.48072],[-84.66437,36.48257],[-84.66307,36.48424],[-84.66241,36.48483],[-84.66056,36.48547],[-84.65796,36.48547],[-84.65708,36.48568],[-84.65519,36.48658],[-84.65321,36.48798],[-84.6528,36.48853],[-84.65269,36.48909],[-84.65372,36.4912],[-84.65392,36.49269],[-84.6537,36.49366],[-84.6533,36.49411],[-84.65226,36.49434],[-84.65161,36.49465],[-84.65104,36.49533],[-84.6506,36.4964],[-84.65024,36.49676],[-84.64845,36.49764],[-84.64577,36.49801],[-84.64311,36.49922],[-84.63945,36.49991],[-84.63671,36.50004],[-84.63291,36.50048],[-84.63249,36.50061],[-84.63149,36.50151],[-84.63102,36.50172],[-84.63074,36.50246],[-84.63089,36.50391],[-84.63183,36.50472],[-84.63281,36.50603],[-84.63341,36.50726],[-84.63466,36.50868],[-84.63475,36.50945],[-84.63524,36.51021],[-84.63671,36.51199],[-84.63775,36.51264],[-84.63806,36.51277],[-84.63985,36.5127],[-84.64231,36.51216],[-84.64277,36.51182],[-84.64404,36.51129],[-84.64746,36.51012],[-84.64834,36.51024],[-84.65098,36.51102],[-84.65183,36.51148],[-84.6524,36.51199],[-84.65289,36.51309],[-84.65278,36.51397],[-84.65072,36.51642],[-84.64984,36.51778],[-84.64929,36.51876],[-84.64894,36.52005],[-84.64903,36.52125],[-84.64985,36.52303],[-84.65049,36.52503],[-84.65206,36.5274],[-84.65363,36.52881],[-84.65447,36.52991],[-84.65508,36.53166],[-84.65573,36.53279],[-84.65638,36.53355],[-84.65736,36.53434],[-84.65831,36.53563],[-84.65988,36.53884],[-84.66184,36.54148],[-84.66269,36.54235],[-84.66497,36.54582],[-84.66525,36.54668],[-84.66571,36.54736],[-84.66579,36.54896],[-84.66623,36.54986],[-84.66887,36.55278],[-84.67157,36.55692],[-84.6718,36.55808],[-84.67163,36.55917],[-84.67186,36.56008],[-84.67131,36.56113],[-84.67048,36.56195],[-84.6672,36.56213],[-84.66433,36.56284],[-84.66313,36.56342],[-84.65915,36.56676],[-84.65827,36.56733],[-84.6564,36.56924],[-84.65596,36.5704],[-84.65531,36.57094],[-84.6535,36.57386],[-84.65328,36.57495],[-84.65252,36.57612],[-84.65183,36.57687],[-84.65019,36.57815],[-84.6472,36.57973],[-84.64497,36.5804],[-84.64382,36.58095],[-84.6422,36.5809],[-84.64173,36.58102],[-84.64063,36.58163],[-84.63968,36.58258],[-84.63741,36.58365],[-84.63555,36.58382],[-84.63195,36.58291],[-84.62989,36.58279],[-84.62744,36.58232],[-84.62542,36.58224],[-84.6237,36.58172],[-84.6228,36.58089],[-84.62105,36.57993],[-84.61944,36.57959],[-84.61863,36.57958],[-84.61802,36.57993],[-84.61718,36.58002],[-84.61469,36.57931],[-84.613,36.57909],[-84.60897,36.57927],[-84.60782,36.5801],[-84.60873,36.58278],[-84.60884,36.58387],[-84.6092,36.58494],[-84.60964,36.58595],[-84.61033,36.58667],[-84.61114,36.58804],[-84.61129,36.59003],[-84.61105,36.59101],[-84.61066,36.59139],[-84.61004,36.59168],[-84.6091,36.59164],[-84.60841,36.5918],[-84.60772,36.59269]]]}}
