{"type":"Feature","properties":{"id":"little-sequatchie-river","name":"Little Sequatchie River","waterbodyType":"creek","throughLakeIds":[],"allowOpenEnds":false,"source":"nhd-hu8-06020004","approximate":false,"labelAnchor":[-85.5984,35.18014],"bounds":[-85.71939,35.08891,-85.57306,35.34671],"crs":"EPSG:4326","coordinateOrder":"longitude,latitude","partCount":1,"vertexCount":370,"lengthKm":49.17,"sourceIds":["51391913","51391869","51391859","51391853","51391831","51391823","51391737","51391665","51391637","51391577","51391543","51391445","51391417","51391413","51391387","51391373","51391317","51391285","51391237","51391213","51391105","51391023","51391017","51390945","51390859","51390769","51390761","51390751","51390811","51390837","51390897","51390919","51390987","51390989","51390965","51390963","51390877","51390809","51390795","51390725","51390703","51390663","51390595","51390585","51390525","51390509","51390433","51390349","51390341","51390339","51390337","51391961","51391981","51392005","51392101","51392157","51392163","51392169","51392191","51392203","51392217","51392245","51392253","51392275","51392285","51392293","51392297","51392309","51392347","51392371","51392381","51392373","51392385","51392387","51392435","51392445","51392627","51392635","51392675","51392685","51392747","51392751","51392769","51392789","51392791"],"sourceRetrieved":"2026-09-11","geometrySource":"nhd","hu8":"06020004","simplification":{"toleranceM":10,"verticesBefore":1067,"verticesAfter":370,"budgetBytes":81920},"trace":{"anchor":{"lat":35.180141,"lon":-85.598403,"snapDistM":0},"up":{"spec":"headwater","reason":"headwater","terminus":[-85.702558,35.34671],"distKmFromAnchor":33.99},"down":{"spec":"mouth","reason":"name-change","terminus":[-85.57763900000002,35.088913],"enteredNames":["Sequatchie River"],"distKmFromAnchor":14.54},"vaaUsed":false,"toleranceM":12}},"geometry":{"type":"MultiLineString","coordinates":[[[-85.70256,35.34671],[-85.70277,35.34647],[-85.70363,35.3461],[-85.70432,35.34535],[-85.70595,35.34425],[-85.70631,35.3432],[-85.70637,35.34246],[-85.70618,35.34204],[-85.70774,35.33895],[-85.70776,35.33744],[-85.70687,35.33617],[-85.70614,35.33427],[-85.70551,35.33326],[-85.7052,35.33214],[-85.70475,35.33183],[-85.7046,35.3305],[-85.70479,35.32851],[-85.70754,35.32356],[-85.70733,35.32257],[-85.70898,35.32166],[-85.70943,35.32071],[-85.70955,35.31996],[-85.71067,35.31822],[-85.71108,35.31798],[-85.71187,35.31799],[-85.71314,35.31761],[-85.71339,35.31741],[-85.71356,35.3169],[-85.71317,35.31579],[-85.71326,35.31543],[-85.71364,35.31526],[-85.7146,35.31527],[-85.71484,35.31439],[-85.7151,35.3141],[-85.71563,35.31396],[-85.71606,35.31412],[-85.71649,35.3141],[-85.71683,35.31382],[-85.71698,35.31321],[-85.71738,35.31288],[-85.71918,35.31241],[-85.71939,35.31218],[-85.71883,35.31063],[-85.71856,35.31028],[-85.71778,35.31063],[-85.717,35.31069],[-85.71677,35.31053],[-85.71686,35.31026],[-85.71748,35.30974],[-85.71759,35.30886],[-85.71746,35.30839],[-85.71693,35.30825],[-85.7164,35.30884],[-85.71615,35.30879],[-85.71529,35.30694],[-85.71448,35.30597],[-85.71354,35.30498],[-85.71265,35.30492],[-85.71208,35.30468],[-85.71073,35.3028],[-85.71073,35.30253],[-85.71158,35.30168],[-85.71173,35.30131],[-85.71096,35.29857],[-85.7115,35.29748],[-85.7127,35.29578],[-85.71172,35.29363],[-85.71213,35.2933],[-85.71328,35.29323],[-85.71337,35.29296],[-85.71294,35.29221],[-85.71162,35.29164],[-85.71093,35.29114],[-85.70942,35.28925],[-85.7089,35.28919],[-85.70859,35.28932],[-85.70849,35.28978],[-85.70808,35.29014],[-85.70789,35.29061],[-85.70703,35.29081],[-85.70637,35.29119],[-85.70482,35.29152],[-85.7037,35.29132],[-85.70313,35.29146],[-85.70168,35.29136],[-85.70078,35.2918],[-85.70043,35.29112],[-85.70079,35.29034],[-85.70057,35.28982],[-85.69895,35.28946],[-85.69824,35.28963],[-85.69668,35.28953],[-85.69566,35.28928],[-85.69458,35.28862],[-85.69335,35.28857],[-85.69233,35.28744],[-85.69041,35.28607],[-85.68753,35.28777],[-85.68718,35.28848],[-85.68625,35.28908],[-85.68499,35.28939],[-85.68417,35.28985],[-85.68196,35.29036],[-85.68114,35.29076],[-85.67982,35.29095],[-85.67847,35.29061],[-85.67778,35.29095],[-85.6774,35.29188],[-85.67667,35.29248],[-85.67296,35.2932],[-85.67236,35.29345],[-85.67151,35.29469],[-85.67148,35.29508],[-85.67185,35.29552],[-85.67303,35.29614],[-85.67378,35.2969],[-85.67388,35.29781],[-85.67251,35.29831],[-85.67174,35.29831],[-85.67082,35.29791],[-85.66995,35.29825],[-85.66957,35.29924],[-85.66966,35.30055],[-85.6694,35.30158],[-85.66864,35.30148],[-85.66703,35.30006],[-85.66654,35.29983],[-85.66487,35.30049],[-85.66463,35.30071],[-85.66444,35.30157],[-85.66451,35.30221],[-85.66426,35.30249],[-85.66285,35.30272],[-85.66035,35.30399],[-85.65793,35.30403],[-85.65702,35.30436],[-85.6559,35.3054],[-85.65472,35.30561],[-85.65396,35.30544],[-85.6533,35.30505],[-85.65247,35.30425],[-85.65165,35.30247],[-85.6513,35.30224],[-85.65081,35.30223],[-85.64928,35.30259],[-85.64679,35.30254],[-85.64566,35.30218],[-85.64447,35.30145],[-85.64335,35.30033],[-85.6425,35.29799],[-85.64219,35.29662],[-85.6411,35.29574],[-85.64038,35.29407],[-85.63869,35.29204],[-85.63876,35.29161],[-85.63921,35.29108],[-85.64053,35.2912],[-85.64119,35.2909],[-85.6416,35.29049],[-85.64482,35.28407],[-85.64458,35.28332],[-85.644,35.28258],[-85.64196,35.28223],[-85.64132,35.28182],[-85.64041,35.28078],[-85.63761,35.27943],[-85.63715,35.27898],[-85.63706,35.27865],[-85.63729,35.27773],[-85.6378,35.27669],[-85.6385,35.27415],[-85.63932,35.2727],[-85.63938,35.27219],[-85.6385,35.27198],[-85.63785,35.27133],[-85.63537,35.26579],[-85.63466,35.26503],[-85.63336,35.26315],[-85.6328,35.26279],[-85.63051,35.26036],[-85.63042,35.25927],[-85.63014,35.2585],[-85.62901,35.25661],[-85.62774,35.25538],[-85.62667,35.25484],[-85.62558,35.25399],[-85.624,35.25222],[-85.62337,35.25091],[-85.62235,35.25007],[-85.62183,35.24942],[-85.62111,35.24918],[-85.62047,35.24809],[-85.62057,35.24551],[-85.62002,35.24438],[-85.61938,35.24408],[-85.61569,35.24375],[-85.61417,35.24332],[-85.61392,35.24306],[-85.61364,35.24211],[-85.61224,35.24122],[-85.61143,35.24038],[-85.61178,35.2396],[-85.6116,35.23879],[-85.61187,35.23728],[-85.61222,35.23674],[-85.61227,35.23516],[-85.61213,35.23445],[-85.61092,35.23195],[-85.61087,35.23018],[-85.6096,35.22791],[-85.61007,35.22495],[-85.60937,35.22453],[-85.6087,35.22498],[-85.60812,35.22503],[-85.60734,35.22384],[-85.60564,35.2224],[-85.60492,35.22098],[-85.60262,35.21906],[-85.60188,35.21784],[-85.60149,35.21503],[-85.60115,35.21387],[-85.59997,35.21276],[-85.59887,35.211],[-85.59699,35.20908],[-85.59588,35.20749],[-85.59556,35.20671],[-85.59649,35.20413],[-85.59629,35.20265],[-85.59629,35.20047],[-85.59792,35.19497],[-85.59772,35.19368],[-85.59788,35.19219],[-85.5985,35.19161],[-85.59856,35.19075],[-85.59898,35.19028],[-85.59778,35.18825],[-85.59823,35.18729],[-85.59906,35.18641],[-85.59907,35.18604],[-85.59828,35.18427],[-85.59719,35.18364],[-85.59662,35.18311],[-85.59734,35.18223],[-85.59784,35.18071],[-85.5984,35.18014],[-85.6005,35.17914],[-85.60168,35.1791],[-85.60231,35.17828],[-85.60254,35.17744],[-85.5984,35.18014],[-85.60254,35.17744],[-85.60259,35.17686],[-85.60229,35.17471],[-85.60175,35.17325],[-85.60041,35.17068],[-85.60027,35.16716],[-85.60073,35.16554],[-85.60092,35.16397],[-85.60085,35.16289],[-85.60061,35.16241],[-85.59939,35.16103],[-85.5983,35.15776],[-85.59891,35.15716],[-85.5991,35.15668],[-85.59906,35.15609],[-85.59872,35.15545],[-85.59897,35.1551],[-85.59891,35.15402],[-85.59946,35.1523],[-85.59932,35.15193],[-85.59841,35.1509],[-85.59815,35.14954],[-85.59819,35.14859],[-85.5975,35.14779],[-85.59693,35.14762],[-85.59679,35.14719],[-85.5975,35.14531],[-85.59861,35.14502],[-85.59885,35.1448],[-85.59881,35.14451],[-85.59966,35.14366],[-85.59968,35.14338],[-85.59901,35.14266],[-85.5988,35.1422],[-85.59908,35.14076],[-85.59884,35.13954],[-85.59805,35.13764],[-85.59645,35.13665],[-85.59414,35.13438],[-85.59356,35.13344],[-85.59156,35.13149],[-85.59124,35.13061],[-85.59115,35.12974],[-85.5906,35.12911],[-85.5898,35.12898],[-85.58932,35.12906],[-85.58753,35.13019],[-85.587,35.13019],[-85.58638,35.13],[-85.58573,35.12883],[-85.58455,35.12837],[-85.58324,35.12812],[-85.58214,35.12748],[-85.58185,35.127],[-85.58185,35.12638],[-85.5824,35.12546],[-85.582,35.12514],[-85.58138,35.12488],[-85.58079,35.12488],[-85.579,35.12608],[-85.57837,35.12597],[-85.57772,35.12561],[-85.57708,35.12502],[-85.57745,35.12318],[-85.57721,35.12266],[-85.57657,35.1226],[-85.57518,35.12328],[-85.57476,35.12364],[-85.57454,35.12435],[-85.57431,35.12445],[-85.57389,35.12439],[-85.5734,35.12387],[-85.57342,35.12355],[-85.57422,35.12262],[-85.57462,35.11952],[-85.5755,35.11833],[-85.57613,35.1178],[-85.57842,35.11704],[-85.5793,35.1163],[-85.57974,35.1156],[-85.57987,35.11434],[-85.57904,35.11225],[-85.57932,35.11142],[-85.57981,35.11109],[-85.58063,35.11115],[-85.58105,35.1114],[-85.58197,35.11243],[-85.58225,35.1125],[-85.58289,35.11217],[-85.58312,35.11035],[-85.58284,35.1084],[-85.58223,35.10742],[-85.58106,35.10623],[-85.5805,35.10602],[-85.57952,35.10599],[-85.57877,35.10671],[-85.57877,35.10756],[-85.57833,35.1081],[-85.57795,35.10819],[-85.57762,35.10808],[-85.57697,35.10761],[-85.5765,35.10694],[-85.5764,35.10631],[-85.57729,35.10501],[-85.57739,35.10457],[-85.57726,35.10425],[-85.57697,35.10405],[-85.57484,35.10342],[-85.57429,35.10263],[-85.57416,35.10093],[-85.57464,35.10011],[-85.57616,35.09885],[-85.57626,35.09845],[-85.57535,35.09735],[-85.57342,35.09622],[-85.57309,35.09592],[-85.57306,35.0956],[-85.57538,35.09111],[-85.57615,35.09007],[-85.57764,35.08891]]]}}
