{"type":"Feature","properties":{"id":"citico-creek","name":"Citico Creek","waterbodyType":"creek","throughLakeIds":["tellico-lake"],"allowOpenEnds":false,"source":"nhd-hu8-06010204","approximate":false,"labelAnchor":[-84.10071,35.51101],"bounds":[-84.1257,35.35933,-84.01698,35.54722],"crs":"EPSG:4326","coordinateOrder":"longitude,latitude","partCount":1,"vertexCount":394,"lengthKm":43.45,"sourceIds":["112261787","112261907","112262111","112262237","112262377","112262509","112262673","112262691","112262833","112263009","112263153","112263235","112263389","112263493","112263593","112263687","112263819","112263833","112263929","112264233","112264431","112264557","112264663","112264745","112264727","112265009","112265037","112265221","112265253","112265415","112265521","112265625","112265783","112265917","112265945","112265955","112266147","112266285","112266291","112266311","112266437","112266501","112266535","112266631","112266633","112266553","112266573","112266577","112261345","112261273","112261003","112260811","112260761","112260751","112260507","112260329","112260319","112260305","112260203","112260183","112260161","112260155","112260151","112260141","112260139","112259919","112259897","112259847"],"sourceRetrieved":"2026-09-11","geometrySource":"nhd","hu8":"06010204","simplification":{"toleranceM":10,"verticesBefore":3257,"verticesAfter":394,"budgetBytes":81920},"trace":{"anchor":{"lat":35.511,"lon":-84.1007,"snapDistM":1.2},"up":{"spec":"headwater","reason":"headwater","terminus":[-84.016977,35.36728],"distKmFromAnchor":36.21},"down":{"spec":"mouth","reason":"name-change","terminus":[-84.095829,35.547221],"enteredNames":["Little Tennessee River"],"distKmFromAnchor":6.2},"vaaUsed":false,"toleranceM":12}},"geometry":{"type":"MultiLineString","coordinates":[[[-84.01698,35.36728],[-84.01885,35.36752],[-84.02086,35.36744],[-84.02326,35.36677],[-84.02458,35.36568],[-84.02486,35.36463],[-84.02526,35.36416],[-84.02661,35.36351],[-84.02759,35.36342],[-84.02846,35.3627],[-84.02955,35.36218],[-84.03007,35.36158],[-84.03101,35.36153],[-84.03172,35.3619],[-84.03227,35.36196],[-84.0332,35.36188],[-84.03493,35.36258],[-84.03548,35.36253],[-84.03585,35.36273],[-84.03664,35.36279],[-84.03733,35.36302],[-84.03804,35.36269],[-84.0385,35.36226],[-84.03995,35.36196],[-84.04123,35.36142],[-84.04138,35.36104],[-84.04113,35.36057],[-84.04147,35.36015],[-84.04334,35.35933],[-84.04406,35.35933],[-84.0449,35.35965],[-84.04596,35.35977],[-84.04633,35.35997],[-84.04683,35.36079],[-84.04701,35.36186],[-84.04746,35.36229],[-84.04873,35.36188],[-84.04935,35.36188],[-84.05025,35.36221],[-84.0516,35.36324],[-84.05342,35.364],[-84.05377,35.36438],[-84.05389,35.36483],[-84.05516,35.36611],[-84.05565,35.36715],[-84.05648,35.36764],[-84.05726,35.36864],[-84.05813,35.36898],[-84.05862,35.36941],[-84.06001,35.37011],[-84.06052,35.37081],[-84.06125,35.37095],[-84.06207,35.37071],[-84.06227,35.37034],[-84.0623,35.36952],[-84.06333,35.36917],[-84.06518,35.36993],[-84.06627,35.37084],[-84.0667,35.37064],[-84.06703,35.37078],[-84.06737,35.37065],[-84.06779,35.37075],[-84.06802,35.37117],[-84.06849,35.3713],[-84.06874,35.37171],[-84.06858,35.37297],[-84.06877,35.3734],[-84.06935,35.37359],[-84.07075,35.37354],[-84.07116,35.37382],[-84.0711,35.37418],[-84.07004,35.37537],[-84.07059,35.37594],[-84.07176,35.37597],[-84.07278,35.37573],[-84.07314,35.37543],[-84.07342,35.3748],[-84.0738,35.37463],[-84.07464,35.37456],[-84.07514,35.37476],[-84.07535,35.37541],[-84.07506,35.37686],[-84.07516,35.37726],[-84.07571,35.37779],[-84.07651,35.37912],[-84.07727,35.37947],[-84.07897,35.38094],[-84.07883,35.38132],[-84.07849,35.38157],[-84.07771,35.38176],[-84.07769,35.382],[-84.0781,35.38213],[-84.07958,35.38215],[-84.08054,35.38336],[-84.08098,35.38376],[-84.08129,35.38383],[-84.08221,35.38352],[-84.08315,35.38216],[-84.08429,35.38193],[-84.08508,35.38222],[-84.08545,35.38279],[-84.08465,35.38417],[-84.08474,35.3843],[-84.08554,35.3844],[-84.0856,35.38485],[-84.08457,35.38569],[-84.08441,35.38642],[-84.08383,35.38697],[-84.0834,35.38697],[-84.08259,35.38658],[-84.08237,35.38668],[-84.08214,35.38743],[-84.08276,35.38843],[-84.08271,35.38888],[-84.08118,35.38961],[-84.08031,35.39068],[-84.0777,35.39188],[-84.07748,35.39334],[-84.07707,35.39403],[-84.07655,35.3942],[-84.07576,35.39402],[-84.07493,35.39473],[-84.07503,35.39524],[-84.07612,35.39668],[-84.07591,35.39721],[-84.07481,35.39782],[-84.07448,35.39823],[-84.07481,35.39922],[-84.07533,35.40008],[-84.07532,35.40124],[-84.07562,35.40223],[-84.07618,35.40309],[-84.07681,35.40331],[-84.07721,35.40317],[-84.07782,35.40195],[-84.07803,35.40183],[-84.07844,35.40194],[-84.07921,35.403],[-84.07947,35.40364],[-84.07949,35.40429],[-84.07917,35.40495],[-84.078,35.40504],[-84.07792,35.40523],[-84.07809,35.40556],[-84.07985,35.40632],[-84.08035,35.40703],[-84.0808,35.40732],[-84.08247,35.40758],[-84.08247,35.40798],[-84.08169,35.40861],[-84.08179,35.40906],[-84.08209,35.40928],[-84.08316,35.40968],[-84.08394,35.40974],[-84.08442,35.40964],[-84.08525,35.40916],[-84.08562,35.40921],[-84.08582,35.40939],[-84.08588,35.41097],[-84.08623,35.41106],[-84.08708,35.41068],[-84.08726,35.41138],[-84.08816,35.41267],[-84.08798,35.41344],[-84.08805,35.41385],[-84.08836,35.41409],[-84.08922,35.41423],[-84.08941,35.41527],[-84.08916,35.41589],[-84.08663,35.41806],[-84.08638,35.41852],[-84.08664,35.41882],[-84.08731,35.41922],[-84.08902,35.41827],[-84.08965,35.41819],[-84.09002,35.41833],[-84.09095,35.41965],[-84.09127,35.41988],[-84.09287,35.42],[-84.09387,35.42084],[-84.09537,35.42166],[-84.0967,35.42186],[-84.09917,35.42185],[-84.09928,35.42219],[-84.09909,35.42404],[-84.09938,35.42446],[-84.09983,35.42458],[-84.10097,35.42453],[-84.10235,35.42401],[-84.10292,35.42395],[-84.10382,35.42492],[-84.10547,35.42586],[-84.10615,35.42692],[-84.10657,35.42722],[-84.10826,35.42748],[-84.10863,35.42779],[-84.10871,35.4284],[-84.10842,35.42866],[-84.10656,35.42849],[-84.10573,35.4287],[-84.10536,35.42904],[-84.10463,35.43009],[-84.10459,35.43153],[-84.10375,35.43225],[-84.10382,35.43257],[-84.10419,35.43292],[-84.10513,35.4331],[-84.10581,35.43343],[-84.10644,35.43427],[-84.10824,35.43447],[-84.10903,35.43481],[-84.10905,35.43513],[-84.10877,35.43554],[-84.1078,35.43562],[-84.10746,35.43589],[-84.10752,35.43675],[-84.10805,35.43814],[-84.10796,35.43886],[-84.10767,35.43913],[-84.10701,35.43923],[-84.10637,35.43879],[-84.10571,35.43744],[-84.10539,35.4372],[-84.10411,35.43726],[-84.10365,35.43767],[-84.10365,35.43839],[-84.1044,35.43901],[-84.10688,35.43992],[-84.10834,35.44072],[-84.10949,35.44078],[-84.11003,35.44098],[-84.11077,35.44149],[-84.11307,35.44367],[-84.11329,35.44499],[-84.11263,35.44581],[-84.11221,35.44605],[-84.11173,35.44621],[-84.1112,35.4462],[-84.11038,35.44573],[-84.10977,35.4451],[-84.10902,35.44517],[-84.10833,35.44545],[-84.10919,35.44722],[-84.10914,35.44845],[-84.11053,35.45024],[-84.11136,35.45081],[-84.11303,35.45067],[-84.11447,35.45115],[-84.11557,35.45107],[-84.11673,35.45066],[-84.11784,35.45069],[-84.11842,35.45088],[-84.11909,35.45134],[-84.11993,35.45237],[-84.11996,35.45276],[-84.1195,35.45322],[-84.11837,35.45352],[-84.11775,35.45412],[-84.11799,35.45512],[-84.11858,35.45618],[-84.1191,35.45666],[-84.11964,35.45678],[-84.1201,35.45716],[-84.12005,35.45781],[-84.11976,35.45811],[-84.11915,35.45821],[-84.11813,35.45739],[-84.11765,35.45745],[-84.11716,35.45808],[-84.11718,35.4592],[-84.11878,35.46137],[-84.11923,35.4616],[-84.12025,35.46167],[-84.12084,35.46207],[-84.1216,35.4628],[-84.12182,35.46341],[-84.12338,35.465],[-84.12421,35.46562],[-84.12544,35.46812],[-84.12558,35.46895],[-84.12251,35.47157],[-84.12191,35.47261],[-84.12119,35.47311],[-84.12064,35.47339],[-84.11989,35.47335],[-84.11902,35.47367],[-84.11785,35.47394],[-84.11741,35.47388],[-84.1155,35.47443],[-84.11525,35.47473],[-84.11521,35.47621],[-84.11557,35.47692],[-84.11523,35.47791],[-84.11554,35.47855],[-84.11682,35.47929],[-84.11982,35.48143],[-84.12045,35.48231],[-84.125,35.48523],[-84.12567,35.48584],[-84.1257,35.4862],[-84.12536,35.4865],[-84.1239,35.48729],[-84.12164,35.4871],[-84.12025,35.4868],[-84.12001,35.48724],[-84.12008,35.48828],[-84.12027,35.4886],[-84.12283,35.49066],[-84.1242,35.49266],[-84.12534,35.49345],[-84.12553,35.49459],[-84.12506,35.49532],[-84.12473,35.49553],[-84.12429,35.49557],[-84.1215,35.49544],[-84.12052,35.49536],[-84.11958,35.49509],[-84.11879,35.49513],[-84.11841,35.49547],[-84.1182,35.49634],[-84.1195,35.49733],[-84.11958,35.4975],[-84.11936,35.49792],[-84.11869,35.49842],[-84.11636,35.49866],[-84.11351,35.5004],[-84.11167,35.50217],[-84.11095,35.50263],[-84.1101,35.50383],[-84.10968,35.50489],[-84.10869,35.50591],[-84.10718,35.50651],[-84.10639,35.50662],[-84.10271,35.50988],[-84.10129,35.51052],[-84.10026,35.51164],[-84.09887,35.51416],[-84.09775,35.51518],[-84.09645,35.51563],[-84.09583,35.5163],[-84.10071,35.51101],[-84.09551,35.51699],[-84.09546,35.51723],[-84.09725,35.52065],[-84.0977,35.52222],[-84.09809,35.52282],[-84.09896,35.52329],[-84.09908,35.52371],[-84.0987,35.5247],[-84.09833,35.52512],[-84.096,35.52597],[-84.09307,35.52653],[-84.09282,35.52676],[-84.09298,35.52852],[-84.09335,35.52879],[-84.09387,35.52877],[-84.09663,35.52768],[-84.09876,35.52781],[-84.10069,35.52682],[-84.1015,35.52684],[-84.10231,35.5273],[-84.10278,35.52775],[-84.10366,35.52922],[-84.10363,35.53009],[-84.10313,35.53131],[-84.1032,35.53235],[-84.10379,35.53341],[-84.10417,35.53372],[-84.10557,35.53424],[-84.1054,35.5358],[-84.10663,35.53708],[-84.10657,35.53744],[-84.10604,35.53815],[-84.10535,35.5384],[-84.1051,35.53866],[-84.10499,35.53913],[-84.10454,35.53956],[-84.10308,35.53954],[-84.10163,35.53906],[-84.10098,35.53858],[-84.10103,35.53793],[-84.10066,35.53762],[-84.09925,35.53764],[-84.09808,35.53805],[-84.09764,35.53955],[-84.09714,35.54004],[-84.09717,35.54047],[-84.09784,35.54104],[-84.09782,35.54167],[-84.09716,35.54235],[-84.09694,35.54308],[-84.09617,35.54382],[-84.09568,35.54491],[-84.09583,35.54722]]]}}
