{"type":"Feature","properties":{"id":"obion-river","name":"Obion River","waterbodyType":"river","throughLakeIds":[],"allowOpenEnds":false,"source":"nhd-hu8-08010202","approximate":false,"labelAnchor":[-89.64133,36.00705],"bounds":[-89.65268,35.90726,-89.05564,36.27901],"crs":"EPSG:4326","coordinateOrder":"longitude,latitude","partCount":1,"vertexCount":542,"lengthKm":103.86,"sourceIds":["66029929","66029919","66029916","66029917","66029906","66029876","66029860","66029881","66029882","66029884","66029886","66029888","66029871","66029872","66029862","66029825","66029803","66029763","66029756","66029719","66029709","66029707","66029681","66029697","66029704","66029703","66029702","66029698","66029687","66029695","66029693","66029690","66029677","66029660","66029645","66038714","66029601","66029465","66029388","66029344","66029314","66038704","66029298","66029278","66029279","66029247","66029216","66029186","66029130","66029110","66029102","66029093","66029009","66029027","66029030","66029031","66029006","66029004","66029000","66029002","66028937","66028901","66028903","66028908","66028914","66028944","66028998","66028966","66028920","66028833","66028799","66028788","66028782","66028755","66028705","66028684","66028668","66038703","66028658","66028498","66028455","66028420","66028406","66028368","66028362","66028380","66028376","66028418","66028425","66028333","66028273","66028210","66038716","66028168","66028149","66028094","66028087","66028085","66028082","66028079","66028077","66038700","124591237","66029934","66029937","66029945","66029961","66029964","66029976","66029984","66029987","66029992","66029997","66030014","66030031","66030037","66030046","66030048","66030056","66030057","66030053"],"sourceRetrieved":"2026-09-11","geometrySource":"nhd","hu8":"08010202","simplification":{"toleranceM":10,"verticesBefore":1443,"verticesAfter":542,"budgetBytes":81920},"trace":{"anchor":{"lat":36.007,"lon":-89.6413,"snapDistM":6.7},"up":{"spec":"headwater","reason":"headwater","terminus":[-89.055637,36.279012],"distKmFromAnchor":82.59},"down":{"spec":"mouth","reason":"terminal-node","terminus":[-89.639023,35.907259],"enteredNames":null,"distKmFromAnchor":21.2},"vaaUsed":false,"toleranceM":12}},"geometry":{"type":"MultiLineString","coordinates":[[[-89.05564,36.27901],[-89.05808,36.27864],[-89.06032,36.27633],[-89.06186,36.27524],[-89.06326,36.27475],[-89.06531,36.27444],[-89.06886,36.27361],[-89.07014,36.27346],[-89.07797,36.27356],[-89.08224,36.27309],[-89.08523,36.27198],[-89.08852,36.27102],[-89.08899,36.27073],[-89.09225,36.26959],[-89.09252,36.26961],[-89.09647,36.26829],[-89.09703,36.26838],[-89.09754,36.26793],[-89.09912,36.26744],[-89.09964,36.26715],[-89.0999,36.2672],[-89.10029,36.26694],[-89.10065,36.26696],[-89.10103,36.2667],[-89.10148,36.26672],[-89.10177,36.26652],[-89.10863,36.26681],[-89.11394,36.26941],[-89.11572,36.26959],[-89.11759,36.26937],[-89.11797,36.26921],[-89.12044,36.26925],[-89.12132,36.26901],[-89.12238,36.26818],[-89.12368,36.26535],[-89.1292,36.25992],[-89.13392,36.25584],[-89.14129,36.25009],[-89.14128,36.24993],[-89.14965,36.24353],[-89.15025,36.24343],[-89.15592,36.24339],[-89.15932,36.24412],[-89.16031,36.24422],[-89.16083,36.24443],[-89.1622,36.24565],[-89.16301,36.2457],[-89.16375,36.24549],[-89.1642,36.24551],[-89.17143,36.24668],[-89.17419,36.24759],[-89.176,36.24898],[-89.17822,36.24882],[-89.18169,36.24974],[-89.18267,36.24987],[-89.18294,36.25019],[-89.18396,36.25032],[-89.18437,36.25077],[-89.18479,36.25068],[-89.1864,36.25124],[-89.18764,36.25149],[-89.19056,36.25162],[-89.19079,36.25149],[-89.19187,36.25148],[-89.19321,36.25113],[-89.19438,36.2502],[-89.1945,36.24911],[-89.19505,36.24846],[-89.19937,36.24602],[-89.20054,36.24555],[-89.2103,36.24267],[-89.21097,36.24217],[-89.2118,36.241],[-89.21286,36.24027],[-89.21872,36.24061],[-89.22049,36.24053],[-89.22176,36.23988],[-89.23194,36.23631],[-89.23298,36.23579],[-89.23458,36.23456],[-89.23484,36.23411],[-89.23514,36.2328],[-89.23569,36.23222],[-89.23638,36.23205],[-89.23746,36.23204],[-89.23854,36.23149],[-89.24023,36.22922],[-89.2405,36.2278],[-89.24045,36.22633],[-89.24106,36.22551],[-89.24234,36.22476],[-89.2441,36.22421],[-89.24656,36.22296],[-89.24771,36.22259],[-89.25091,36.22064],[-89.25356,36.22021],[-89.25606,36.21835],[-89.25792,36.21824],[-89.2592,36.21749],[-89.25972,36.2167],[-89.26093,36.21225],[-89.2612,36.21173],[-89.26253,36.21052],[-89.26425,36.20936],[-89.26616,36.20861],[-89.26723,36.20777],[-89.26689,36.206],[-89.26727,36.20173],[-89.26688,36.20006],[-89.26615,36.19815],[-89.2663,36.19752],[-89.26692,36.19705],[-89.26927,36.19647],[-89.27046,36.19578],[-89.27103,36.19489],[-89.2712,36.1935],[-89.27142,36.19305],[-89.27185,36.19275],[-89.27306,36.19282],[-89.27432,36.19339],[-89.27553,36.19342],[-89.27613,36.19324],[-89.28104,36.19008],[-89.28153,36.18964],[-89.28261,36.18813],[-89.28363,36.18736],[-89.28423,36.18714],[-89.28557,36.18722],[-89.28666,36.18764],[-89.28869,36.18811],[-89.28975,36.18878],[-89.29057,36.19022],[-89.29141,36.19091],[-89.30027,36.19499],[-89.3082,36.19794],[-89.3097,36.19824],[-89.31061,36.19822],[-89.31122,36.1979],[-89.31157,36.19745],[-89.31243,36.19539],[-89.313,36.1946],[-89.31352,36.19423],[-89.3139,36.19411],[-89.31591,36.19426],[-89.31642,36.19404],[-89.317,36.1936],[-89.31721,36.19225],[-89.31797,36.1918],[-89.31937,36.19127],[-89.32224,36.18928],[-89.32298,36.1891],[-89.326,36.18949],[-89.33237,36.18974],[-89.33494,36.18967],[-89.34348,36.19029],[-89.34494,36.19058],[-89.35042,36.19121],[-89.35423,36.19142],[-89.35957,36.19258],[-89.36365,36.19116],[-89.36622,36.19009],[-89.36792,36.18972],[-89.37149,36.19009],[-89.37246,36.19033],[-89.3738,36.19087],[-89.37579,36.19203],[-89.37668,36.19215],[-89.37705,36.19203],[-89.37775,36.19125],[-89.37807,36.18912],[-89.37933,36.18758],[-89.3813,36.18607],[-89.3821,36.18526],[-89.38234,36.18398],[-89.38174,36.18313],[-89.38071,36.18003],[-89.38103,36.17693],[-89.37968,36.17428],[-89.37852,36.17271],[-89.37865,36.17171],[-89.37961,36.17105],[-89.38096,36.17055],[-89.38374,36.16859],[-89.38486,36.16808],[-89.38642,36.16771],[-89.38822,36.16673],[-89.39004,36.16594],[-89.3904,36.16592],[-89.39236,36.1646],[-89.39346,36.16437],[-89.40109,36.16505],[-89.40126,36.1652],[-89.40342,36.16521],[-89.40527,36.16359],[-89.40774,36.16259],[-89.40865,36.16199],[-89.40901,36.16147],[-89.41041,36.16033],[-89.41091,36.15972],[-89.41211,36.15889],[-89.41325,36.15716],[-89.41775,36.15455],[-89.41802,36.15456],[-89.42106,36.15272],[-89.4234,36.1511],[-89.42442,36.14926],[-89.42509,36.14725],[-89.42619,36.14595],[-89.42765,36.14467],[-89.42835,36.14332],[-89.42849,36.14068],[-89.42823,36.14005],[-89.42731,36.13878],[-89.42724,36.13806],[-89.42744,36.13779],[-89.43011,36.13607],[-89.43042,36.13606],[-89.43081,36.13579],[-89.43185,36.1357],[-89.43372,36.13591],[-89.4366,36.1374],[-89.43808,36.13748],[-89.44056,36.13633],[-89.44232,36.13517],[-89.44482,36.13237],[-89.44658,36.13064],[-89.44795,36.12889],[-89.4481,36.12722],[-89.44745,36.12586],[-89.44662,36.12462],[-89.44649,36.12354],[-89.44693,36.1231],[-89.44901,36.12242],[-89.45175,36.12039],[-89.45869,36.11916],[-89.46149,36.11742],[-89.46346,36.11652],[-89.46621,36.11588],[-89.47229,36.11575],[-89.47637,36.1159],[-89.4802,36.11633],[-89.48316,36.11692],[-89.48702,36.11803],[-89.48863,36.11811],[-89.49134,36.11737],[-89.49328,36.11626],[-89.49559,36.11556],[-89.4972,36.11568],[-89.49926,36.11622],[-89.502,36.11841],[-89.50355,36.11918],[-89.50562,36.11969],[-89.50775,36.12002],[-89.51094,36.12105],[-89.51157,36.12105],[-89.51246,36.12063],[-89.5136,36.1194],[-89.51514,36.11824],[-89.5189,36.11576],[-89.52023,36.11543],[-89.52104,36.11548],[-89.52284,36.11597],[-89.52351,36.11597],[-89.5257,36.11512],[-89.52661,36.11438],[-89.52738,36.11332],[-89.52842,36.11269],[-89.53114,36.11248],[-89.53149,36.11257],[-89.53239,36.11205],[-89.53335,36.11131],[-89.53367,36.11072],[-89.53372,36.11012],[-89.53337,36.10895],[-89.53198,36.10737],[-89.53193,36.10683],[-89.53274,36.10634],[-89.53526,36.10633],[-89.53647,36.10586],[-89.53747,36.10513],[-89.53948,36.10323],[-89.53953,36.10052],[-89.53646,36.09648],[-89.53571,36.09573],[-89.53453,36.0938],[-89.53399,36.09334],[-89.53236,36.09243],[-89.53178,36.09182],[-89.53155,36.09131],[-89.53146,36.09084],[-89.53168,36.08824],[-89.53155,36.08762],[-89.5309,36.0863],[-89.5308,36.0854],[-89.53095,36.08211],[-89.53052,36.07815],[-89.53061,36.07712],[-89.53116,36.07547],[-89.53192,36.07393],[-89.5328,36.07309],[-89.53351,36.07269],[-89.5348,36.07284],[-89.53589,36.07372],[-89.53736,36.07437],[-89.53808,36.07437],[-89.53859,36.07415],[-89.53902,36.07385],[-89.53939,36.07319],[-89.53956,36.07227],[-89.53943,36.07169],[-89.53843,36.07028],[-89.53781,36.06967],[-89.53754,36.06912],[-89.53759,36.06858],[-89.5379,36.06803],[-89.53848,36.06763],[-89.53991,36.06713],[-89.54048,36.06677],[-89.54076,36.06611],[-89.54044,36.06566],[-89.53902,36.06444],[-89.53866,36.06384],[-89.53874,36.06299],[-89.53899,36.06268],[-89.53969,36.06229],[-89.54156,36.062],[-89.54294,36.06161],[-89.5437,36.06111],[-89.54477,36.0597],[-89.54485,36.0587],[-89.5444,36.05764],[-89.54344,36.05687],[-89.54177,36.05589],[-89.54119,36.05532],[-89.54094,36.05455],[-89.54114,36.05374],[-89.54183,36.05259],[-89.54312,36.05159],[-89.54459,36.05121],[-89.54544,36.05125],[-89.55028,36.05248],[-89.55147,36.05219],[-89.5531,36.05102],[-89.55621,36.0498],[-89.55693,36.04926],[-89.5575,36.04836],[-89.55832,36.04611],[-89.55903,36.04515],[-89.56037,36.04418],[-89.56125,36.04391],[-89.56268,36.04395],[-89.564,36.04431],[-89.56453,36.04495],[-89.5642,36.04618],[-89.56275,36.04839],[-89.56285,36.04933],[-89.56335,36.04975],[-89.56482,36.0499],[-89.56579,36.04967],[-89.56706,36.04895],[-89.5678,36.04817],[-89.569,36.04726],[-89.57029,36.04683],[-89.57141,36.04689],[-89.57344,36.04786],[-89.57535,36.05015],[-89.57735,36.05044],[-89.57857,36.05082],[-89.57956,36.05141],[-89.58156,36.05324],[-89.58221,36.05353],[-89.58347,36.05345],[-89.58415,36.05284],[-89.58502,36.05103],[-89.58628,36.05049],[-89.58678,36.05048],[-89.58735,36.05065],[-89.58767,36.05106],[-89.58851,36.05498],[-89.58925,36.05623],[-89.58996,36.05688],[-89.59163,36.05787],[-89.59303,36.0583],[-89.5945,36.05841],[-89.59578,36.05816],[-89.59976,36.05576],[-89.60018,36.05496],[-89.60032,36.05339],[-89.59995,36.05194],[-89.59819,36.05038],[-89.59782,36.0495],[-89.59758,36.04641],[-89.59846,36.04459],[-89.59898,36.03997],[-89.59872,36.03881],[-89.59796,36.03769],[-89.59756,36.03667],[-89.59744,36.03587],[-89.59763,36.0342],[-89.59932,36.03068],[-89.60057,36.0292],[-89.60196,36.0281],[-89.60267,36.02721],[-89.60323,36.0258],[-89.60629,36.02203],[-89.60736,36.02109],[-89.60919,36.02011],[-89.60979,36.01996],[-89.61166,36.0201],[-89.61337,36.01894],[-89.61644,36.01774],[-89.6178,36.0176],[-89.61955,36.01705],[-89.62145,36.0169],[-89.62203,36.01632],[-89.62194,36.01474],[-89.62275,36.01421],[-89.62535,36.01425],[-89.62684,36.01461],[-89.62909,36.01459],[-89.63081,36.015],[-89.63171,36.01491],[-89.63289,36.01422],[-89.63472,36.01378],[-89.63526,36.01324],[-89.63541,36.01099],[-89.63627,36.00978],[-89.63747,36.00888],[-89.63916,36.00797],[-89.64135,36.00705],[-89.64365,36.00642],[-89.64541,36.00626],[-89.64133,36.00705],[-89.64601,36.00608],[-89.64664,36.0055],[-89.64658,36.00353],[-89.64743,36.00147],[-89.6476,36.00047],[-89.64657,35.99648],[-89.64589,35.99125],[-89.64516,35.98978],[-89.64495,35.98905],[-89.645,35.98852],[-89.64534,35.98821],[-89.64601,35.98818],[-89.64736,35.98868],[-89.64825,35.98873],[-89.64998,35.98853],[-89.65122,35.98817],[-89.65207,35.98761],[-89.65262,35.98695],[-89.65268,35.98574],[-89.65248,35.98548],[-89.6518,35.98494],[-89.65115,35.98473],[-89.64855,35.98462],[-89.64776,35.98444],[-89.64597,35.9828],[-89.64507,35.98229],[-89.64374,35.98208],[-89.64226,35.9816],[-89.64053,35.9808],[-89.63889,35.9806],[-89.63723,35.98105],[-89.63575,35.98108],[-89.63492,35.98085],[-89.63203,35.98055],[-89.63058,35.98016],[-89.62882,35.97924],[-89.62785,35.97851],[-89.6274,35.97748],[-89.62723,35.97625],[-89.62666,35.97504],[-89.62486,35.97351],[-89.62403,35.97325],[-89.62336,35.97322],[-89.62202,35.97418],[-89.62022,35.9748],[-89.61878,35.9748],[-89.61729,35.97439],[-89.61494,35.97413],[-89.61372,35.97363],[-89.6103,35.97273],[-89.60878,35.97218],[-89.60426,35.97101],[-89.60212,35.97079],[-89.60112,35.97091],[-89.60005,35.97085],[-89.59921,35.9707],[-89.59656,35.96966],[-89.59281,35.96792],[-89.59078,35.96669],[-89.58827,35.96481],[-89.58632,35.96303],[-89.58422,35.96073],[-89.58053,35.95512],[-89.57903,35.9511],[-89.57842,35.94717],[-89.57856,35.94446],[-89.57966,35.941],[-89.58114,35.93836],[-89.58226,35.93567],[-89.5835,35.9338],[-89.58398,35.93354],[-89.58438,35.93246],[-89.58583,35.93092],[-89.58733,35.92864],[-89.58891,35.92845],[-89.58922,35.92824],[-89.58959,35.92758],[-89.5904,35.92691],[-89.59488,35.92385],[-89.59591,35.9233],[-89.60022,35.92167],[-89.60264,35.92109],[-89.60482,35.92077],[-89.60825,35.91996],[-89.61108,35.91986],[-89.61232,35.91957],[-89.6142,35.91956],[-89.61434,35.91946],[-89.61644,35.91961],[-89.61793,35.92001],[-89.61883,35.92052],[-89.62003,35.92055],[-89.62108,35.92032],[-89.62376,35.92047],[-89.62424,35.92063],[-89.62626,35.92218],[-89.62704,35.92258],[-89.63047,35.92391],[-89.63259,35.9242],[-89.63612,35.92358],[-89.63754,35.92308],[-89.63932,35.92123],[-89.64047,35.91935],[-89.6407,35.91817],[-89.64002,35.91666],[-89.63867,35.91452],[-89.63833,35.91262],[-89.63851,35.90905],[-89.63902,35.90726]]]}}
