{"type":"Feature","properties":{"id":"shoal-creek","name":"Shoal Creek","waterbodyType":"river","throughLakeIds":["new-shoal-creek-reservoir","wilson-lake"],"allowOpenEnds":false,"source":"nhd-hu8-06030005","approximate":false,"labelAnchor":[-87.57889,35.0242],"bounds":[-87.61061,34.83211,-87.29922,35.24488],"crs":"EPSG:4326","coordinateOrder":"longitude,latitude","partCount":1,"vertexCount":617,"lengthKm":99.33,"sourceIds":["87836593","87836457","87835987","87835845","87835771","87835493","87835449","87835421","87835379","87835333","87835155","87835013","87835033","87834835","87834769","87834715","87834589","87834565","87834451","87834363","87834357","87834347","87834249","87834159","87834099","87833935","87833801","87833777","87833749","87833739","87833613","87833577","87833567","87833565","87833537","87833411","87833353","87833401","87833435","87833449","87833377","87833299","87833345","87833271","87833243","87833341","87833339","87833257","87833213","87833057","87832865","87832855","87832815","87832773","87832481","87832527","87832525","87832501","87832363","87832349","87832337","87832321","87832189","87832085","87831927","87831893","87831863","87831837","87831761","87831773","87831665","87831535","87831463","87831443","87831433","87831411","87831345","87831315","87831293","87831247","87831207","87831147","87830847","87830817","87830781","87830689","87830587","87830439","87830279","87830231","87830005","87829845","87829853","87830083","87830131","87830177","87830181","87830179","87830075","87830089","87830071","87829993","87829953","87830245","87830425","87830457","87830507","87830539","87830549","87830605","87836613","87836781","87837073","87837367","87837501","87837527","87837561","87838119","87838201","87838285","87838245","87838169","87838041","87838109","87838385","87838585","87838667","87838765","87838873","87839087","87839213","87839285","87839377","87839481","87839613","87839703","87840059","87840227","87840223","87840199","87840177","87840609","87840749","87840779","87841255","87841557","87841563","87841659","87841733","87841825","87841879","87841895","87841897","87841891","87842347","87842589","87842609","87842591","87842533","87842525","87842671","87843051","87843059","87843189","87843769","87843917","87844007","87844013","87844495","87844993","87845021","87845887","87845965","87846059","87868835","87846197","87846321","87846375","87846785"],"sourceRetrieved":"2026-09-11","geometrySource":"nhd","hu8":"06030005","simplification":{"toleranceM":10,"verticesBefore":5042,"verticesAfter":617,"budgetBytes":81920},"trace":{"anchor":{"lat":35.0242,"lon":-87.579,"snapDistM":10},"up":{"spec":"headwater","reason":"headwater","terminus":[-87.299489,35.217174],"distKmFromAnchor":63.21},"down":{"spec":"mouth","reason":"name-change","terminus":[-87.54542,34.832109],"enteredNames":["Tennessee River"],"distKmFromAnchor":36.66},"vaaUsed":false,"toleranceM":12}},"geometry":{"type":"MultiLineString","coordinates":[[[-87.29949,35.21717],[-87.3,35.22046],[-87.29995,35.22142],[-87.30021,35.22213],[-87.30011,35.22253],[-87.30063,35.22431],[-87.29948,35.22701],[-87.29968,35.22766],[-87.29922,35.22825],[-87.29938,35.22914],[-87.30019,35.23015],[-87.30146,35.23112],[-87.30352,35.23384],[-87.3051,35.23512],[-87.30527,35.2356],[-87.30562,35.23595],[-87.30699,35.2365],[-87.30791,35.23654],[-87.30964,35.23532],[-87.31112,35.23523],[-87.31151,35.23509],[-87.31303,35.23399],[-87.31381,35.23298],[-87.31459,35.23268],[-87.31546,35.23254],[-87.31641,35.23293],[-87.31714,35.23457],[-87.31873,35.2366],[-87.31967,35.23672],[-87.32143,35.23615],[-87.32264,35.23653],[-87.32396,35.23672],[-87.32484,35.2364],[-87.3255,35.23639],[-87.32597,35.2362],[-87.32696,35.23435],[-87.32708,35.2329],[-87.32849,35.23128],[-87.32922,35.23082],[-87.33047,35.2309],[-87.33173,35.23141],[-87.3321,35.23217],[-87.33179,35.23235],[-87.33056,35.23241],[-87.33037,35.23253],[-87.33041,35.23294],[-87.33103,35.23333],[-87.3332,35.23398],[-87.33717,35.23586],[-87.33791,35.2367],[-87.33796,35.23713],[-87.33888,35.23849],[-87.34057,35.24023],[-87.342,35.24074],[-87.34309,35.2409],[-87.34408,35.24077],[-87.34658,35.24005],[-87.3471,35.2401],[-87.34729,35.2404],[-87.34733,35.24109],[-87.34655,35.24243],[-87.34633,35.2437],[-87.34655,35.24426],[-87.34947,35.24488],[-87.35169,35.24431],[-87.35217,35.24406],[-87.3525,35.24378],[-87.3543,35.24102],[-87.35469,35.23942],[-87.35457,35.23819],[-87.35415,35.23787],[-87.35365,35.23779],[-87.35258,35.23815],[-87.35209,35.238],[-87.35194,35.23771],[-87.35212,35.23721],[-87.35341,35.23563],[-87.35377,35.23495],[-87.35377,35.23399],[-87.35281,35.2313],[-87.35396,35.22726],[-87.35451,35.22621],[-87.35509,35.22585],[-87.35582,35.22588],[-87.35668,35.22653],[-87.3572,35.22736],[-87.35735,35.22846],[-87.35682,35.22936],[-87.3562,35.23144],[-87.35646,35.23207],[-87.35732,35.23221],[-87.35787,35.23176],[-87.35853,35.22947],[-87.35908,35.22842],[-87.36013,35.227],[-87.36141,35.22618],[-87.36376,35.22537],[-87.36473,35.22487],[-87.36552,35.22425],[-87.36571,35.22385],[-87.36553,35.22302],[-87.36499,35.2224],[-87.36261,35.22104],[-87.36104,35.2207],[-87.35854,35.2211],[-87.35765,35.22106],[-87.35687,35.22082],[-87.35628,35.2202],[-87.35599,35.2192],[-87.35658,35.21775],[-87.35723,35.21701],[-87.35773,35.21671],[-87.35833,35.21662],[-87.35973,35.21608],[-87.36113,35.21593],[-87.36244,35.2156],[-87.36532,35.21435],[-87.36658,35.21278],[-87.36675,35.21231],[-87.3676,35.21139],[-87.36912,35.21044],[-87.36974,35.21027],[-87.3704,35.20976],[-87.3704,35.20937],[-87.36968,35.20849],[-87.36831,35.20736],[-87.36835,35.20684],[-87.36927,35.20638],[-87.37033,35.20559],[-87.37188,35.20536],[-87.37226,35.20517],[-87.3733,35.20309],[-87.37384,35.20283],[-87.37565,35.20138],[-87.37647,35.20049],[-87.37695,35.19967],[-87.37801,35.19864],[-87.37912,35.19791],[-87.38109,35.19728],[-87.38154,35.19694],[-87.38097,35.19229],[-87.38224,35.19002],[-87.3822,35.18857],[-87.38241,35.18763],[-87.38386,35.18505],[-87.38376,35.18457],[-87.38279,35.18273],[-87.38238,35.18242],[-87.38186,35.18238],[-87.37636,35.18381],[-87.37482,35.18401],[-87.37389,35.18371],[-87.37296,35.18301],[-87.37167,35.18271],[-87.37076,35.18176],[-87.37317,35.18074],[-87.37542,35.18026],[-87.3779,35.18],[-87.38037,35.18029],[-87.38148,35.18011],[-87.38299,35.179],[-87.38352,35.17778],[-87.38448,35.17691],[-87.38627,35.17645],[-87.38947,35.17623],[-87.39025,35.17587],[-87.39045,35.17524],[-87.38995,35.17387],[-87.38842,35.17138],[-87.387,35.17033],[-87.38551,35.16982],[-87.38526,35.16946],[-87.3854,35.16777],[-87.38563,35.16702],[-87.38771,35.16479],[-87.38898,35.16385],[-87.39014,35.16327],[-87.39324,35.16275],[-87.39542,35.16187],[-87.3977,35.16147],[-87.39815,35.16161],[-87.40002,35.16317],[-87.40225,35.16444],[-87.40302,35.16507],[-87.40352,35.16512],[-87.40457,35.16448],[-87.40509,35.16359],[-87.40532,35.16222],[-87.40515,35.15774],[-87.4054,35.15695],[-87.40612,35.15596],[-87.40737,35.15555],[-87.40951,35.15523],[-87.4102,35.15527],[-87.41151,35.15567],[-87.41312,35.15644],[-87.41492,35.15764],[-87.41575,35.15768],[-87.41604,35.15671],[-87.41593,35.1558],[-87.41489,35.15396],[-87.41337,35.1526],[-87.41327,35.15129],[-87.4133,35.15048],[-87.41362,35.14964],[-87.41488,35.1473],[-87.416,35.14596],[-87.41668,35.14542],[-87.41762,35.14497],[-87.4195,35.14539],[-87.42113,35.14638],[-87.4217,35.14708],[-87.42207,35.14823],[-87.42259,35.14859],[-87.423,35.14867],[-87.4244,35.14834],[-87.4256,35.14781],[-87.42686,35.14709],[-87.42734,35.14643],[-87.42764,35.14529],[-87.42751,35.144],[-87.42792,35.14304],[-87.42815,35.14183],[-87.42802,35.14042],[-87.42784,35.14014],[-87.42734,35.13987],[-87.4272,35.13921],[-87.42676,35.1386],[-87.42693,35.13715],[-87.42668,35.13633],[-87.42628,35.13588],[-87.42472,35.13505],[-87.42475,35.13482],[-87.42783,35.13364],[-87.42847,35.13372],[-87.43056,35.13441],[-87.43174,35.13432],[-87.43311,35.13379],[-87.43485,35.13265],[-87.4351,35.13237],[-87.43537,35.13119],[-87.43676,35.13024],[-87.4376,35.13043],[-87.44059,35.13165],[-87.44346,35.13252],[-87.44503,35.13267],[-87.44618,35.13255],[-87.44698,35.13171],[-87.4471,35.1312],[-87.447,35.13064],[-87.44645,35.13001],[-87.44561,35.12972],[-87.4451,35.12934],[-87.44465,35.12825],[-87.44509,35.12734],[-87.44697,35.12595],[-87.44739,35.12601],[-87.44791,35.12631],[-87.44907,35.12759],[-87.44964,35.12854],[-87.44976,35.12931],[-87.45026,35.13002],[-87.45048,35.13069],[-87.45041,35.13177],[-87.44997,35.13204],[-87.44876,35.13232],[-87.44836,35.13268],[-87.44827,35.13369],[-87.44855,35.13487],[-87.44897,35.13521],[-87.45054,35.13567],[-87.45154,35.13618],[-87.453,35.13818],[-87.45357,35.13877],[-87.45389,35.13885],[-87.45443,35.13857],[-87.45511,35.13775],[-87.45555,35.13698],[-87.45581,35.13602],[-87.45579,35.13528],[-87.45539,35.13384],[-87.4548,35.13351],[-87.45454,35.13314],[-87.45468,35.1321],[-87.45535,35.13123],[-87.45599,35.12919],[-87.45674,35.12758],[-87.45866,35.12678],[-87.45981,35.12661],[-87.46059,35.12668],[-87.46313,35.12859],[-87.46344,35.12898],[-87.46354,35.1295],[-87.46436,35.13062],[-87.46535,35.13082],[-87.46569,35.13109],[-87.46701,35.13448],[-87.46786,35.13472],[-87.46983,35.13484],[-87.4709,35.13456],[-87.47158,35.13412],[-87.47295,35.13271],[-87.47401,35.13188],[-87.47473,35.13096],[-87.47486,35.1301],[-87.47438,35.12828],[-87.47448,35.12609],[-87.47585,35.12488],[-87.47648,35.12453],[-87.4784,35.12415],[-87.47924,35.1236],[-87.47978,35.12349],[-87.48094,35.1237],[-87.4816,35.12436],[-87.48219,35.12458],[-87.4836,35.12446],[-87.4842,35.1248],[-87.48636,35.12709],[-87.48695,35.12785],[-87.48754,35.1292],[-87.48888,35.12952],[-87.48988,35.12948],[-87.49098,35.12925],[-87.49247,35.12854],[-87.49286,35.12667],[-87.49258,35.12497],[-87.49265,35.12388],[-87.49283,35.1234],[-87.49448,35.12158],[-87.49724,35.1212],[-87.50016,35.12102],[-87.50063,35.12162],[-87.50171,35.12167],[-87.50303,35.12207],[-87.50351,35.12207],[-87.50449,35.12167],[-87.50467,35.12076],[-87.5049,35.12056],[-87.50607,35.12043],[-87.50788,35.12057],[-87.50881,35.12035],[-87.51014,35.11976],[-87.5119,35.11855],[-87.51212,35.11813],[-87.51204,35.1175],[-87.51017,35.11409],[-87.50877,35.11206],[-87.50862,35.11141],[-87.50686,35.10983],[-87.50679,35.10846],[-87.50705,35.10684],[-87.50765,35.10656],[-87.50863,35.10641],[-87.5109,35.10634],[-87.51228,35.10666],[-87.51372,35.1063],[-87.51596,35.10625],[-87.52059,35.10504],[-87.52099,35.10482],[-87.52125,35.10427],[-87.52149,35.10173],[-87.52114,35.10064],[-87.52092,35.09913],[-87.52103,35.09846],[-87.52182,35.09677],[-87.52188,35.09573],[-87.52277,35.09528],[-87.52433,35.09492],[-87.52771,35.09323],[-87.52826,35.09265],[-87.52861,35.09152],[-87.53101,35.0896],[-87.53318,35.08716],[-87.53394,35.08652],[-87.53438,35.08641],[-87.53866,35.08395],[-87.54299,35.08236],[-87.54514,35.08184],[-87.54614,35.08127],[-87.5474,35.07966],[-87.54795,35.07827],[-87.54809,35.07583],[-87.54788,35.07228],[-87.54807,35.07111],[-87.54867,35.0703],[-87.54972,35.07006],[-87.55152,35.07001],[-87.55555,35.07082],[-87.55759,35.07087],[-87.55836,35.0707],[-87.56009,35.07083],[-87.56152,35.0705],[-87.56212,35.06999],[-87.56309,35.06778],[-87.56351,35.06614],[-87.56489,35.06486],[-87.56575,35.06327],[-87.56824,35.05954],[-87.56852,35.05898],[-87.56867,35.05784],[-87.56788,35.05626],[-87.56606,35.05438],[-87.56535,35.0531],[-87.56494,35.04943],[-87.56422,35.04701],[-87.56367,35.04646],[-87.56149,35.04519],[-87.56067,35.04455],[-87.5602,35.04386],[-87.56028,35.04337],[-87.56097,35.04199],[-87.56163,35.0412],[-87.56315,35.03986],[-87.56415,35.03921],[-87.56499,35.03891],[-87.56877,35.03856],[-87.56982,35.03832],[-87.57249,35.03679],[-87.57508,35.03455],[-87.57603,35.03411],[-87.57641,35.03378],[-87.57706,35.03193],[-87.57811,35.0304],[-87.57894,35.02953],[-87.57918,35.02899],[-87.57874,35.02512],[-87.57888,35.02488],[-87.57884,35.02203],[-87.57859,35.02105],[-87.57801,35.0201],[-87.57719,35.01951],[-87.57678,35.01896],[-87.57581,35.01701],[-87.57497,35.01428],[-87.57317,35.01201],[-87.57309,35.01143],[-87.57515,35.00808],[-87.57739,35.00379],[-87.57765,35.00256],[-87.57828,35.00179],[-87.5791,35.00114],[-87.58091,35.00019],[-87.58342,34.99942],[-87.5864,34.99805],[-87.58793,34.99693],[-87.58869,34.99606],[-87.58842,34.99524],[-87.58625,34.99256],[-87.58501,34.9904],[-87.58417,34.98687],[-87.58159,34.98341],[-87.58126,34.98266],[-87.58131,34.98213],[-87.58219,34.98086],[-87.58304,34.97997],[-87.58393,34.97933],[-87.58513,34.9789],[-87.58609,34.97876],[-87.58775,34.9789],[-87.58904,34.97934],[-87.59129,34.98101],[-87.59331,34.98162],[-87.59577,34.98263],[-87.597,34.98384],[-87.59864,34.98613],[-87.59949,34.98685],[-87.60042,34.98716],[-87.60085,34.98713],[-87.60148,34.98667],[-87.60189,34.98592],[-87.6021,34.98501],[-87.60192,34.98345],[-87.60197,34.98199],[-87.60244,34.98094],[-87.6025,34.98023],[-87.6023,34.97936],[-87.60135,34.97764],[-87.59964,34.9754],[-87.59873,34.97454],[-87.5973,34.97338],[-87.59504,34.97215],[-87.59299,34.97063],[-87.59203,34.97012],[-87.59115,34.96914],[-87.59104,34.96865],[-87.5914,34.96823],[-87.59217,34.96788],[-87.59529,34.96692],[-87.59595,34.96687],[-87.59722,34.96706],[-87.60198,34.96655],[-87.60281,34.96589],[-87.60296,34.96533],[-87.60289,34.9648],[-87.60221,34.96315],[-87.60181,34.96259],[-87.59909,34.9605],[-87.5974,34.95837],[-87.5968,34.95687],[-87.59681,34.95599],[-87.59636,34.95524],[-87.59499,34.95415],[-87.59342,34.95336],[-87.59206,34.95173],[-87.59176,34.95152],[-87.59124,34.95153],[-87.59076,34.95098],[-87.58884,34.94951],[-87.58853,34.94893],[-87.58921,34.94656],[-87.59029,34.94469],[-87.59202,34.94264],[-87.59367,34.94177],[-87.59544,34.94151],[-87.60009,34.94148],[-87.60088,34.94159],[-87.60213,34.94221],[-87.60475,34.9428],[-87.60733,34.94361],[-87.60846,34.94373],[-87.60887,34.94366],[-87.60922,34.94339],[-87.60916,34.94237],[-87.6079,34.94066],[-87.60614,34.93697],[-87.60657,34.93646],[-87.60626,34.93467],[-87.60575,34.93377],[-87.60521,34.93317],[-87.60486,34.93305],[-87.6043,34.93249],[-87.60361,34.93241],[-87.60346,34.93219],[-87.60209,34.92957],[-87.60084,34.92759],[-87.6005,34.92675],[-87.60039,34.92586],[-87.601,34.92461],[-87.602,34.92348],[-87.60371,34.92092],[-87.60482,34.91959],[-87.60604,34.91866],[-87.60843,34.91772],[-87.60933,34.91719],[-87.61061,34.91572],[-87.61058,34.91515],[-87.61042,34.9142],[-87.60958,34.91295],[-87.60901,34.91291],[-87.60827,34.91257],[-87.60749,34.91248],[-87.60675,34.91216],[-87.6043,34.91162],[-87.59954,34.91102],[-87.59581,34.91073],[-87.59406,34.91067],[-87.59251,34.91095],[-87.59032,34.91158],[-87.58819,34.91226],[-87.58719,34.91295],[-87.58617,34.91328],[-87.58518,34.91386],[-87.58377,34.9139],[-87.58248,34.91356],[-87.58198,34.91316],[-87.58163,34.91259],[-87.58157,34.91224],[-87.58188,34.91119],[-87.5838,34.90775],[-87.5868,34.90319],[-87.58806,34.90172],[-87.58846,34.90077],[-87.58855,34.90035],[-87.58832,34.89907],[-87.58771,34.89805],[-87.58564,34.8963],[-87.58442,34.89603],[-87.57968,34.89595],[-87.57864,34.89623],[-87.57768,34.89713],[-87.57431,34.89761],[-87.57153,34.89841],[-87.56887,34.89811],[-87.56742,34.89733],[-87.56673,34.89664],[-87.56638,34.89517],[-87.56616,34.8901],[-87.56537,34.88631],[-87.56432,34.88382],[-87.56388,34.88218],[-87.56159,34.87689],[-87.56145,34.87554],[-87.55955,34.86862],[-87.55849,34.86633],[-87.55852,34.86363],[-87.55898,34.86251],[-87.55967,34.86173],[-87.56169,34.86073],[-87.56547,34.86147],[-87.56769,34.86172],[-87.56962,34.86163],[-87.5724,34.86089],[-87.57347,34.85967],[-87.5739,34.85866],[-87.57319,34.85744],[-87.57248,34.85667],[-87.57181,34.85625],[-87.57022,34.85417],[-87.56857,34.84958],[-87.56609,34.84783],[-87.56269,34.84701],[-87.56113,34.84641],[-87.5572,34.84299],[-87.55435,34.83926],[-87.55252,34.83755],[-87.55075,34.83597],[-87.54542,34.83211]]]}}
