{"type":"Feature","properties":{"id":"spring-creek-polk","name":"Spring Creek (Polk County)","waterbodyType":"creek","throughLakeIds":[],"allowOpenEnds":false,"source":"nhd-hu8-06020002","approximate":false,"labelAnchor":[-84.47149,35.23859],"bounds":[-84.51694,35.21973,-84.37711,35.27738],"crs":"EPSG:4326","coordinateOrder":"longitude,latitude","partCount":1,"vertexCount":220,"lengthKm":27.89,"sourceIds":["132987651","132987649","132987653","132987654","132987657","132987661","132987659","132987663","132987664","132987667","132987669","132987671","132987673","132987675","133006788","133006791","133006795","133005678","133005689","132987647","132987645","132987643","132987637","132987639","132987641","132987633","132987635","132987629","132987631","132987627","132987625","132987621","132987623","133007457"],"sourceRetrieved":"2026-09-11","geometrySource":"nhd","hu8":"06020002","simplification":{"toleranceM":10,"verticesBefore":999,"verticesAfter":220,"budgetBytes":81920},"trace":{"anchor":{"lat":35.238587,"lon":-84.471493,"snapDistM":0},"up":{"spec":"headwater","reason":"headwater","terminus":[-84.37951,35.258156],"distKmFromAnchor":20.12},"down":{"spec":"mouth","reason":"name-change","terminus":[-84.516936,35.219728],"enteredNames":["Hiwassee River"],"distKmFromAnchor":7.3},"vaaUsed":false,"toleranceM":12}},"geometry":{"type":"MultiLineString","coordinates":[[[-84.37951,35.25816],[-84.37938,35.25874],[-84.37958,35.25965],[-84.37944,35.26019],[-84.3784,35.26087],[-84.37758,35.26213],[-84.37726,35.26438],[-84.37711,35.26817],[-84.37741,35.26882],[-84.37795,35.269],[-84.37898,35.26897],[-84.38033,35.2692],[-84.3816,35.27019],[-84.38429,35.27018],[-84.38833,35.27217],[-84.39025,35.27244],[-84.39075,35.27229],[-84.39152,35.27154],[-84.39247,35.27107],[-84.39361,35.26991],[-84.39453,35.2696],[-84.3956,35.26976],[-84.39779,35.27076],[-84.39867,35.27101],[-84.39932,35.27141],[-84.40028,35.27248],[-84.40035,35.27329],[-84.40136,35.27414],[-84.40199,35.2749],[-84.40262,35.27529],[-84.40453,35.27588],[-84.40549,35.27677],[-84.40641,35.27738],[-84.40724,35.27728],[-84.40889,35.27738],[-84.40929,35.27638],[-84.41072,35.27567],[-84.41157,35.27454],[-84.41223,35.27404],[-84.41327,35.27372],[-84.41446,35.27263],[-84.41523,35.27248],[-84.41576,35.27215],[-84.4172,35.27068],[-84.41816,35.26918],[-84.41973,35.26858],[-84.42078,35.26789],[-84.42218,35.26763],[-84.4237,35.26704],[-84.42606,35.26669],[-84.42666,35.26687],[-84.4291,35.26819],[-84.43042,35.26822],[-84.43085,35.26806],[-84.43202,35.268],[-84.4332,35.26679],[-84.43486,35.26735],[-84.43551,35.26731],[-84.43617,35.26679],[-84.43632,35.26645],[-84.43504,35.2652],[-84.4351,35.26455],[-84.43749,35.26526],[-84.43831,35.26583],[-84.43885,35.26649],[-84.43925,35.26637],[-84.43958,35.26613],[-84.4397,35.2658],[-84.43941,35.26486],[-84.43878,35.26438],[-84.43779,35.26403],[-84.43754,35.26307],[-84.43613,35.26178],[-84.43607,35.26136],[-84.43634,35.26111],[-84.43674,35.26108],[-84.43762,35.26131],[-84.44095,35.26314],[-84.44191,35.26403],[-84.4434,35.26588],[-84.44651,35.26855],[-84.44699,35.2687],[-84.44742,35.26828],[-84.44696,35.26577],[-84.44632,35.26458],[-84.44493,35.26298],[-84.44435,35.26102],[-84.44272,35.25705],[-84.44296,35.2568],[-84.44337,35.25671],[-84.44385,35.25684],[-84.44434,35.25721],[-84.44681,35.2612],[-84.44724,35.2617],[-84.44773,35.26187],[-84.44823,35.26127],[-84.44775,35.25934],[-84.44817,35.25849],[-84.44819,35.25721],[-84.44801,35.25645],[-84.44681,35.25481],[-84.44607,35.25317],[-84.4463,35.25254],[-84.44697,35.2519],[-84.4479,35.25152],[-84.44977,35.25156],[-84.4509,35.25302],[-84.4519,35.25358],[-84.45268,35.25345],[-84.4538,35.25302],[-84.45457,35.25207],[-84.45542,35.25203],[-84.4562,35.25244],[-84.45682,35.25257],[-84.45773,35.25247],[-84.45959,35.25159],[-84.46024,35.25099],[-84.46048,35.25007],[-84.46122,35.24882],[-84.46068,35.24819],[-84.46045,35.24697],[-84.46057,35.24676],[-84.46147,35.24647],[-84.46236,35.24664],[-84.46293,35.24724],[-84.46362,35.24746],[-84.46399,35.24788],[-84.46481,35.24832],[-84.46721,35.24874],[-84.46783,35.24863],[-84.46838,35.24692],[-84.46819,35.24533],[-84.46796,35.24499],[-84.46739,35.24455],[-84.46677,35.24441],[-84.46546,35.24477],[-84.46336,35.24471],[-84.46288,35.24423],[-84.46195,35.24182],[-84.46225,35.24136],[-84.46405,35.24018],[-84.46503,35.23972],[-84.46632,35.23936],[-84.4682,35.23785],[-84.4696,35.23729],[-84.47011,35.23725],[-84.47062,35.23753],[-84.47149,35.23859],[-84.47191,35.23846],[-84.47217,35.23764],[-84.47262,35.23687],[-84.47338,35.23607],[-84.47344,35.23575],[-84.4729,35.23547],[-84.47215,35.23546],[-84.47152,35.23566],[-84.47056,35.23637],[-84.47017,35.23647],[-84.46988,35.23631],[-84.46974,35.2358],[-84.47149,35.23859],[-84.46974,35.2358],[-84.4695,35.23498],[-84.46838,35.234],[-84.46839,35.2338],[-84.46881,35.23373],[-84.47095,35.23426],[-84.47281,35.23452],[-84.47451,35.23441],[-84.47594,35.23459],[-84.48033,35.23575],[-84.48234,35.23647],[-84.48524,35.2367],[-84.48698,35.23714],[-84.48741,35.23709],[-84.48885,35.23636],[-84.48969,35.23554],[-84.49036,35.23545],[-84.49131,35.23584],[-84.49177,35.23565],[-84.49214,35.23525],[-84.49209,35.2349],[-84.49145,35.23411],[-84.49059,35.23391],[-84.4897,35.23287],[-84.49159,35.23101],[-84.49277,35.23103],[-84.49342,35.23156],[-84.49426,35.2318],[-84.49496,35.23178],[-84.49544,35.23135],[-84.49583,35.23027],[-84.4958,35.22974],[-84.49482,35.22908],[-84.49406,35.22827],[-84.49325,35.22714],[-84.49296,35.22628],[-84.49333,35.22553],[-84.49492,35.22442],[-84.49616,35.22403],[-84.49749,35.2244],[-84.49875,35.22337],[-84.50064,35.22299],[-84.50491,35.22385],[-84.50644,35.22444],[-84.50699,35.22449],[-84.50848,35.22319],[-84.50945,35.22269],[-84.50984,35.22284],[-84.51078,35.22368],[-84.51175,35.22421],[-84.51284,35.22424],[-84.51307,35.22396],[-84.51258,35.22337],[-84.51262,35.22225],[-84.51244,35.2212],[-84.51259,35.22093],[-84.51461,35.22021],[-84.51602,35.22013],[-84.51694,35.21973]]]}}
