{"type":"Feature","properties":{"id":"caney-fork-upper","name":"Caney Fork River (above Center Hill Lake)","waterbodyType":"river","throughLakeIds":["center-hill-lake"],"allowOpenEnds":false,"source":"nhd-hu8-05130108","approximate":false,"labelAnchor":[-85.3126,35.8358],"bounds":[-85.84738,35.79141,-85.15483,36.09763],"crs":"EPSG:4326","coordinateOrder":"longitude,latitude","partCount":1,"vertexCount":585,"lengthKm":176.23,"sourceIds":["136993980","136993981","136994099","136994093","136994091","136994092","136993982","136993983","136993984","136993985","136993986","136993987","136993988","136994009","136994010","136994011","136994012","136994013","136994014","136994015","136994016","136994017","136994019","136994020","136994021","136994022","136994018","136994023","136994024","136994025","136994026","136994027","136994029","136994030","136994032","136994031","136994035","136994034","136994033","136994038","136994036","136994037","136994039","136994040","136994042","136994041","136994043","136994044","136994045","136994046","136994047","136991437","136991436","136991442","136991441","136991440","136991439","136991438","136991444","136991443","136991445","136991460","136991461","136992005","136992004","136992003","136992002","136991462","136991463","136991464","136986129","136986144","136986139","136986134","136986149","136989933","136993883","136989949","136993881","136989950","136989963","136993873","136993979","136993978","136993977","136993976","136993975","136993974","136993973","136993972","136993971","136993970","136994052","136994087","136993968","136994088","136994090","136993966","136994094","136994591","136994575","136994574","136994576","136994577","136994584","136994583","136994579","136994578","136994581","136994580","136994594","136994715","136993864","136993572","136993571","136993569","136993568","136993561","136993562","136993566","136993565","136993563","136993564","136993558","136993557","136993556","136993555","136993554","136993546","136993547","136993531","136993536","136993535","136993534","136993533","136993532","136993525","136993524","136993526","136993527","136993513","136993512","136993511","136993510","136993509","136993514","136993504","136993503","136993501","136993500","136993493","136993494","136993492","136993480","136993479","136993666","136993665","136993632","136993631","136993629","136993628","136993627","136993626","136993625","136993624","136993623","136993610","136993609","136993608","136993607","136993606","136993592","136993591","136993583","136993585","136993584"],"sourceRetrieved":"2026-09-11","geometrySource":"nhd","hu8":"05130108","simplification":{"toleranceM":25,"verticesBefore":8483,"verticesAfter":585,"budgetBytes":49152},"trace":{"anchor":{"lat":35.8358,"lon":-85.3126,"snapDistM":0.1},"up":{"spec":"headwater","reason":"headwater","terminus":[-85.157996,36.045459],"distKmFromAnchor":51.42},"down":{"spec":"point:36.097941,-85.826276","reason":"point","terminus":[-85.826276,36.097938],"enteredNames":null,"distKmFromAnchor":126.58},"vaaUsed":false,"toleranceM":12}},"geometry":{"type":"MultiLineString","coordinates":[[[-85.158,36.04546],[-85.15916,36.04268],[-85.1625,36.04013],[-85.16383,36.03984],[-85.16758,36.03634],[-85.1693,36.0364],[-85.17002,36.03604],[-85.17042,36.03527],[-85.17248,36.03554],[-85.17367,36.03478],[-85.17457,36.03553],[-85.17576,36.03571],[-85.17677,36.03336],[-85.17771,36.03292],[-85.17844,36.03191],[-85.18038,36.03106],[-85.18174,36.02969],[-85.1821,36.02515],[-85.18165,36.02321],[-85.18362,36.02175],[-85.18461,36.02029],[-85.18554,36.0201],[-85.18495,36.01888],[-85.18599,36.01743],[-85.18915,36.01683],[-85.19042,36.01361],[-85.19202,36.01119],[-85.19211,36.0097],[-85.192,36.00922],[-85.1906,36.00821],[-85.19003,36.00835],[-85.18968,36.00913],[-85.18768,36.0094],[-85.18545,36.00729],[-85.18386,36.00661],[-85.18294,36.00567],[-85.18209,36.00337],[-85.18383,36.00168],[-85.18309,36.00111],[-85.18178,35.99858],[-85.1818,35.99749],[-85.18259,35.99689],[-85.18151,35.99193],[-85.18102,35.99136],[-85.18037,35.99107],[-85.1789,35.99139],[-85.17775,35.99115],[-85.17744,35.98939],[-85.17462,35.98768],[-85.17214,35.98959],[-85.17083,35.98999],[-85.16735,35.98968],[-85.16611,35.9899],[-85.16304,35.98856],[-85.16068,35.98449],[-85.16002,35.98229],[-85.1605,35.97947],[-85.16193,35.97735],[-85.16191,35.9757],[-85.15991,35.97325],[-85.15483,35.97068],[-85.15534,35.97027],[-85.15793,35.97068],[-85.15985,35.97046],[-85.16147,35.96904],[-85.16118,35.96851],[-85.15919,35.96729],[-85.15912,35.96653],[-85.15998,35.96481],[-85.15803,35.9606],[-85.15593,35.95785],[-85.15618,35.95725],[-85.15847,35.95568],[-85.16037,35.95238],[-85.16253,35.95043],[-85.16283,35.94897],[-85.16467,35.94764],[-85.17231,35.94372],[-85.17705,35.94456],[-85.1792,35.94432],[-85.1805,35.94368],[-85.18066,35.94286],[-85.17858,35.94157],[-85.17774,35.9397],[-85.17673,35.93302],[-85.17695,35.93231],[-85.17767,35.93201],[-85.18264,35.93234],[-85.18323,35.93297],[-85.18333,35.93492],[-85.18519,35.93555],[-85.18643,35.93446],[-85.18683,35.93173],[-85.18535,35.93009],[-85.18542,35.92937],[-85.18661,35.92895],[-85.18817,35.92973],[-85.18997,35.9299],[-85.19075,35.9282],[-85.19032,35.92773],[-85.18857,35.92719],[-85.1886,35.92623],[-85.1892,35.9259],[-85.19138,35.92599],[-85.1946,35.92377],[-85.19473,35.92311],[-85.19395,35.92245],[-85.18838,35.92004],[-85.18739,35.91925],[-85.18768,35.91851],[-85.19009,35.91768],[-85.1905,35.91694],[-85.19021,35.91633],[-85.18544,35.91538],[-85.18299,35.91534],[-85.1822,35.91461],[-85.18266,35.91315],[-85.18542,35.91112],[-85.18506,35.90808],[-85.18642,35.90595],[-85.18684,35.90358],[-85.1882,35.9015],[-85.19039,35.90017],[-85.19204,35.89756],[-85.19384,35.8968],[-85.19475,35.89707],[-85.19641,35.89675],[-85.2022,35.8984],[-85.2091,35.8979],[-85.21517,35.8989],[-85.21616,35.89665],[-85.2153,35.89556],[-85.21525,35.89489],[-85.21592,35.89363],[-85.21793,35.89265],[-85.21769,35.89083],[-85.21599,35.88967],[-85.21264,35.89003],[-85.21098,35.88964],[-85.20756,35.88683],[-85.20701,35.88569],[-85.20981,35.88236],[-85.21271,35.8805],[-85.21475,35.87849],[-85.21633,35.87807],[-85.22056,35.87878],[-85.22332,35.87668],[-85.22431,35.8764],[-85.22517,35.87736],[-85.22408,35.87961],[-85.22407,35.88053],[-85.22485,35.88097],[-85.2265,35.88107],[-85.22744,35.88011],[-85.22793,35.87594],[-85.22909,35.8745],[-85.23022,35.87393],[-85.23107,35.87399],[-85.23406,35.87744],[-85.23685,35.87766],[-85.23793,35.87727],[-85.23835,35.87658],[-85.23747,35.87364],[-85.23899,35.87274],[-85.2425,35.87477],[-85.244,35.87642],[-85.245,35.87667],[-85.24575,35.87626],[-85.24632,35.87472],[-85.24561,35.87222],[-85.24595,35.87096],[-85.24825,35.86967],[-85.2507,35.86941],[-85.25142,35.86902],[-85.25237,35.86559],[-85.25495,35.86412],[-85.25559,35.86286],[-85.25495,35.86219],[-85.25186,35.86088],[-85.25062,35.85988],[-85.25016,35.85694],[-85.24851,35.8541],[-85.24875,35.8531],[-85.25019,35.85198],[-85.25062,35.85092],[-85.25016,35.8447],[-85.25075,35.84261],[-85.25077,35.84063],[-85.25123,35.84018],[-85.25355,35.84027],[-85.25582,35.83921],[-85.25888,35.83974],[-85.26332,35.8386],[-85.26567,35.8364],[-85.26685,35.83336],[-85.26741,35.83035],[-85.26828,35.8292],[-85.27051,35.82877],[-85.27647,35.83049],[-85.27762,35.83008],[-85.28017,35.83003],[-85.28838,35.83184],[-85.29227,35.83019],[-85.29409,35.82899],[-85.29604,35.82866],[-85.29819,35.82646],[-85.29815,35.82577],[-85.29893,35.8248],[-85.3016,35.82336],[-85.30385,35.82298],[-85.30604,35.82573],[-85.30542,35.82674],[-85.3059,35.82851],[-85.30983,35.8312],[-85.31255,35.83579],[-85.31897,35.83687],[-85.32092,35.83675],[-85.32265,35.83597],[-85.32352,35.83449],[-85.32712,35.83334],[-85.32818,35.83218],[-85.33086,35.83054],[-85.33235,35.83102],[-85.33387,35.83089],[-85.33709,35.82739],[-85.34001,35.82585],[-85.34174,35.823],[-85.34558,35.82108],[-85.34997,35.82086],[-85.35163,35.81993],[-85.35449,35.81935],[-85.35589,35.81827],[-85.35739,35.81773],[-85.36006,35.81781],[-85.36115,35.81638],[-85.36051,35.81486],[-85.36075,35.81445],[-85.36316,35.81393],[-85.36535,35.813],[-85.37224,35.81209],[-85.37488,35.81259],[-85.37692,35.81469],[-85.37957,35.81534],[-85.38126,35.81814],[-85.38265,35.81952],[-85.38296,35.82063],[-85.38466,35.82187],[-85.38875,35.82218],[-85.39137,35.82105],[-85.39195,35.82129],[-85.39365,35.82337],[-85.39436,35.82498],[-85.39174,35.82695],[-85.39147,35.82762],[-85.392,35.82808],[-85.3951,35.82889],[-85.39762,35.82847],[-85.40184,35.82932],[-85.40512,35.83053],[-85.40551,35.8315],[-85.4072,35.83208],[-85.41236,35.83253],[-85.414,35.83163],[-85.41775,35.82555],[-85.41948,35.81892],[-85.42081,35.81763],[-85.4236,35.81614],[-85.42487,35.81629],[-85.43047,35.81855],[-85.43247,35.81883],[-85.43375,35.81846],[-85.43658,35.81597],[-85.43912,35.81549],[-85.44862,35.82142],[-85.44963,35.8215],[-85.45132,35.82087],[-85.45464,35.82037],[-85.46038,35.82175],[-85.46306,35.82204],[-85.46477,35.82143],[-85.46529,35.82052],[-85.46521,35.81917],[-85.4639,35.81661],[-85.46398,35.81552],[-85.46486,35.81465],[-85.46661,35.81448],[-85.4687,35.81509],[-85.46979,35.81581],[-85.4723,35.82144],[-85.47338,35.82242],[-85.47455,35.82261],[-85.4811,35.819],[-85.48461,35.81769],[-85.48753,35.81504],[-85.49386,35.81335],[-85.49661,35.8121],[-85.49801,35.81041],[-85.49766,35.80694],[-85.49793,35.80648],[-85.49897,35.80626],[-85.49993,35.80667],[-85.50451,35.81069],[-85.5098,35.81369],[-85.51429,35.81522],[-85.51803,35.81548],[-85.51923,35.81473],[-85.52157,35.81191],[-85.52587,35.80795],[-85.52696,35.80619],[-85.52655,35.8048],[-85.52356,35.80307],[-85.52154,35.8009],[-85.52199,35.796],[-85.51923,35.79382],[-85.51897,35.79284],[-85.51962,35.79215],[-85.52134,35.79157],[-85.52416,35.79141],[-85.52699,35.79232],[-85.53227,35.7975],[-85.53475,35.7991],[-85.53706,35.79919],[-85.54166,35.79718],[-85.54385,35.79719],[-85.54514,35.79851],[-85.54583,35.80157],[-85.54712,35.80248],[-85.54816,35.80234],[-85.54869,35.80173],[-85.54919,35.79834],[-85.54986,35.7971],[-85.55158,35.7963],[-85.55389,35.79595],[-85.56177,35.79976],[-85.56768,35.80464],[-85.56997,35.80606],[-85.57138,35.80667],[-85.57427,35.8068],[-85.58339,35.80698],[-85.58463,35.80671],[-85.58655,35.80566],[-85.58884,35.80202],[-85.5914,35.80122],[-85.59279,35.80143],[-85.5944,35.80229],[-85.59876,35.80654],[-85.60104,35.8067],[-85.60179,35.80562],[-85.60168,35.80393],[-85.59842,35.79846],[-85.59737,35.79566],[-85.59771,35.79415],[-85.59907,35.79366],[-85.60291,35.79471],[-85.60439,35.79603],[-85.60661,35.79933],[-85.6079,35.8035],[-85.60935,35.80466],[-85.61095,35.80467],[-85.61422,35.8025],[-85.61674,35.80142],[-85.62027,35.80107],[-85.62639,35.80412],[-85.6299,35.80516],[-85.63117,35.8061],[-85.63358,35.80712],[-85.63484,35.8087],[-85.63482,35.81084],[-85.63583,35.81342],[-85.63791,35.81406],[-85.64037,35.81545],[-85.64163,35.81663],[-85.64653,35.81716],[-85.65009,35.81629],[-85.65375,35.81664],[-85.66504,35.82004],[-85.67138,35.82078],[-85.67499,35.82238],[-85.68274,35.82776],[-85.68292,35.82915],[-85.68244,35.83115],[-85.68071,35.83275],[-85.67744,35.83406],[-85.67612,35.83389],[-85.67511,35.83305],[-85.67165,35.83151],[-85.6662,35.82735],[-85.66377,35.82609],[-85.66091,35.82564],[-85.65617,35.82673],[-85.65414,35.82783],[-85.65256,35.82923],[-85.6448,35.83852],[-85.63619,35.84398],[-85.63255,35.84725],[-85.63184,35.84901],[-85.632,35.85178],[-85.63263,35.85299],[-85.63489,35.85387],[-85.64195,35.85358],[-85.64808,35.85398],[-85.65306,35.85239],[-85.65717,35.84997],[-85.66057,35.84935],[-85.66639,35.8489],[-85.66825,35.84909],[-85.6709,35.8501],[-85.67225,35.85123],[-85.67329,35.85344],[-85.67301,35.85567],[-85.67096,35.85836],[-85.66134,35.86481],[-85.65214,35.86913],[-85.64746,35.87461],[-85.64251,35.87797],[-85.63721,35.88228],[-85.63626,35.88384],[-85.63601,35.88566],[-85.63649,35.8874],[-85.63739,35.88832],[-85.64013,35.88964],[-85.64284,35.89021],[-85.64512,35.88962],[-85.64787,35.88816],[-85.6545,35.88618],[-85.6635,35.88455],[-85.6692,35.88457],[-85.66947,35.8868],[-85.66897,35.8879],[-85.66798,35.88877],[-85.66625,35.88958],[-85.66239,35.89045],[-85.6555,35.89312],[-85.65037,35.89631],[-85.64784,35.89846],[-85.64667,35.90157],[-85.64901,35.904],[-85.65135,35.90493],[-85.65466,35.90508],[-85.66078,35.90382],[-85.66331,35.90364],[-85.66745,35.90413],[-85.67273,35.90538],[-85.67651,35.90552],[-85.68942,35.90716],[-85.69729,35.90619],[-85.70163,35.90623],[-85.70704,35.90723],[-85.71185,35.91049],[-85.7138,35.91803],[-85.71368,35.92069],[-85.71284,35.92287],[-85.71097,35.92504],[-85.70737,35.92747],[-85.70428,35.92828],[-85.69674,35.92876],[-85.68934,35.92795],[-85.68542,35.92882],[-85.68373,35.93008],[-85.68248,35.93197],[-85.68143,35.9346],[-85.68128,35.93823],[-85.68392,35.94404],[-85.68557,35.9459],[-85.68764,35.94705],[-85.69226,35.94731],[-85.69555,35.94664],[-85.69954,35.94515],[-85.70375,35.94232],[-85.7085,35.94127],[-85.71111,35.94112],[-85.71219,35.94109],[-85.7168,35.94249],[-85.72068,35.94469],[-85.72157,35.94621],[-85.72245,35.94948],[-85.72227,35.95286],[-85.72137,35.95483],[-85.71828,35.95809],[-85.71754,35.95963],[-85.71609,35.96121],[-85.7158,35.96278],[-85.71457,35.9646],[-85.71465,35.96635],[-85.71523,35.96817],[-85.71648,35.96947],[-85.71805,35.97029],[-85.72381,35.97197],[-85.72506,35.97312],[-85.72626,35.97491],[-85.72645,35.97814],[-85.72546,35.97984],[-85.72304,35.98192],[-85.71532,35.98402],[-85.71434,35.98474],[-85.71233,35.98731],[-85.71196,35.99017],[-85.71329,35.99352],[-85.71597,35.99546],[-85.71813,35.99831],[-85.71833,35.99964],[-85.71737,36.00153],[-85.72204,36.00525],[-85.72425,36.00483],[-85.72615,36.00523],[-85.72778,36.00654],[-85.72841,36.00765],[-85.72925,36.00953],[-85.72998,36.01402],[-85.72956,36.02043],[-85.73085,36.0251],[-85.73079,36.02681],[-85.72874,36.03141],[-85.72406,36.03302],[-85.71924,36.03178],[-85.71667,36.03241],[-85.71548,36.03298],[-85.71411,36.03433],[-85.71473,36.03634],[-85.71547,36.03715],[-85.71788,36.03825],[-85.72473,36.03997],[-85.72621,36.04064],[-85.72866,36.04261],[-85.73035,36.04498],[-85.7349,36.04625],[-85.73724,36.04749],[-85.74221,36.04767],[-85.74395,36.04736],[-85.74581,36.04625],[-85.7467,36.04502],[-85.74732,36.04052],[-85.74681,36.03745],[-85.74508,36.03283],[-85.74457,36.02682],[-85.74844,36.02393],[-85.75029,36.02342],[-85.75184,36.02343],[-85.7536,36.02418],[-85.75778,36.0272],[-85.75892,36.03168],[-85.76062,36.03352],[-85.76288,36.03436],[-85.76517,36.03616],[-85.77094,36.03871],[-85.77315,36.04252],[-85.77404,36.04972],[-85.77679,36.04878],[-85.77925,36.04735],[-85.78344,36.04608],[-85.78803,36.04271],[-85.7945,36.04291],[-85.79651,36.04455],[-85.79713,36.04651],[-85.7933,36.05081],[-85.7928,36.05417],[-85.7934,36.05527],[-85.79454,36.05584],[-85.79678,36.05644],[-85.80075,36.0563],[-85.80376,36.05539],[-85.80748,36.05325],[-85.80972,36.0534],[-85.81215,36.0552],[-85.81339,36.05697],[-85.81468,36.06116],[-85.81731,36.06281],[-85.8191,36.06516],[-85.82018,36.06539],[-85.82858,36.06459],[-85.83216,36.06496],[-85.83346,36.0644],[-85.83965,36.06683],[-85.84315,36.06689],[-85.84655,36.0692],[-85.84733,36.07117],[-85.84738,36.07291],[-85.84564,36.07485],[-85.84494,36.07716],[-85.83944,36.0795],[-85.83844,36.08137],[-85.83475,36.08537],[-85.82737,36.08845],[-85.82413,36.09292],[-85.8258,36.09763]]]}}
