{"type":"Feature","properties":{"id":"tumbling-creek","name":"Tumbling Creek","waterbodyType":"creek","throughLakeIds":["ocoee-number-three-lake"],"allowOpenEnds":false,"source":"nhd-hu8-06020003","approximate":false,"labelAnchor":[-84.474,35.00391],"bounds":[-84.51535,34.92988,-84.45465,35.02382],"crs":"EPSG:4326","coordinateOrder":"longitude,latitude","partCount":1,"vertexCount":158,"lengthKm":18.26,"sourceIds":["132756306","132750438","132750448","132750444","132750441","132750451","132750454","132756311","132756316","132756320","132756325","132756330","132756335","132756339","132756344","132756349","132756301","132756296","132756292","132764734"],"sourceRetrieved":"2026-09-11","geometrySource":"nhd","hu8":"06020003","simplification":{"toleranceM":10,"verticesBefore":646,"verticesAfter":158,"budgetBytes":81920},"trace":{"anchor":{"lat":35.003913,"lon":-84.474001,"snapDistM":0},"up":{"spec":"headwater","reason":"headwater","terminus":[-84.511563,34.929875],"distKmFromAnchor":14.08},"down":{"spec":"mouth","reason":"name-change","terminus":[-84.454646,35.023289],"enteredNames":["Long Branch"],"distKmFromAnchor":3.27},"vaaUsed":false,"toleranceM":12}},"geometry":{"type":"MultiLineString","coordinates":[[[-84.51156,34.92988],[-84.51197,34.93317],[-84.51338,34.936],[-84.51414,34.93678],[-84.51529,34.93736],[-84.51535,34.93784],[-84.51511,34.93853],[-84.5139,34.93986],[-84.5132,34.94018],[-84.51197,34.94025],[-84.51172,34.94041],[-84.51,34.94256],[-84.50875,34.94333],[-84.50851,34.94437],[-84.50798,34.9447],[-84.50755,34.94529],[-84.50683,34.94563],[-84.50627,34.94673],[-84.5051,34.94778],[-84.50513,34.94951],[-84.50415,34.95084],[-84.50463,34.95101],[-84.50517,34.95178],[-84.50536,34.95208],[-84.50533,34.95266],[-84.50511,34.95296],[-84.50363,34.95337],[-84.50373,34.95384],[-84.50472,34.95466],[-84.5043,34.95483],[-84.50312,34.95635],[-84.50259,34.9572],[-84.50219,34.95857],[-84.50195,34.9588],[-84.49958,34.96015],[-84.49927,34.9607],[-84.49839,34.9615],[-84.49749,34.96204],[-84.49611,34.96236],[-84.49544,34.9628],[-84.4952,34.96329],[-84.49551,34.96559],[-84.49506,34.96653],[-84.49483,34.96764],[-84.49439,34.9681],[-84.49357,34.96845],[-84.49309,34.96926],[-84.49251,34.96973],[-84.49233,34.9705],[-84.49177,34.97117],[-84.49172,34.97155],[-84.49217,34.97223],[-84.49203,34.97288],[-84.49173,34.97304],[-84.49079,34.97316],[-84.49031,34.97401],[-84.49035,34.97468],[-84.48969,34.97563],[-84.49016,34.97658],[-84.49008,34.97704],[-84.48919,34.97823],[-84.48964,34.9797],[-84.49082,34.98065],[-84.49221,34.98147],[-84.49263,34.982],[-84.49318,34.98211],[-84.49384,34.98168],[-84.49446,34.98196],[-84.49469,34.98222],[-84.49466,34.98252],[-84.4944,34.98273],[-84.49228,34.9832],[-84.49102,34.98391],[-84.49094,34.98435],[-84.49119,34.98492],[-84.49244,34.98565],[-84.49253,34.98665],[-84.4924,34.98683],[-84.49203,34.98691],[-84.4913,34.98659],[-84.49085,34.98659],[-84.49023,34.98707],[-84.48899,34.98743],[-84.4886,34.98778],[-84.48832,34.98829],[-84.48844,34.98915],[-84.48899,34.98973],[-84.48874,34.99018],[-84.48821,34.99062],[-84.48758,34.99059],[-84.48717,34.99074],[-84.48687,34.99181],[-84.48747,34.99216],[-84.48746,34.99247],[-84.48646,34.99275],[-84.48546,34.99326],[-84.48361,34.99304],[-84.48185,34.9934],[-84.47831,34.99339],[-84.47766,34.9935],[-84.47591,34.99425],[-84.47399,34.99433],[-84.47333,34.99419],[-84.47303,34.99381],[-84.47312,34.99276],[-84.47281,34.992],[-84.47217,34.99194],[-84.47123,34.9921],[-84.47085,34.99254],[-84.4701,34.99409],[-84.46943,34.99469],[-84.46906,34.99542],[-84.46841,34.99741],[-84.46818,34.99876],[-84.46813,35.00068],[-84.46882,35.00173],[-84.46948,35.00182],[-84.47162,35.00271],[-84.47209,35.00273],[-84.47346,35.00217],[-84.47392,35.00239],[-84.47428,35.00346],[-84.474,35.00391],[-84.47189,35.00473],[-84.47141,35.00473],[-84.4712,35.00484],[-84.47122,35.00501],[-84.47342,35.00801],[-84.47413,35.0083],[-84.47583,35.00848],[-84.474,35.00391],[-84.47606,35.00907],[-84.47543,35.00947],[-84.47377,35.00976],[-84.47253,35.00961],[-84.47148,35.01055],[-84.47137,35.01111],[-84.4723,35.01262],[-84.47219,35.013],[-84.47163,35.01373],[-84.47095,35.01405],[-84.47008,35.01418],[-84.46896,35.01411],[-84.4684,35.01426],[-84.46682,35.01609],[-84.46566,35.01782],[-84.4658,35.01845],[-84.46522,35.01935],[-84.46519,35.02004],[-84.46497,35.02057],[-84.465,35.02197],[-84.4638,35.02338],[-84.46296,35.02368],[-84.46216,35.02358],[-84.46051,35.02382],[-84.45849,35.02374],[-84.4557,35.02321],[-84.45465,35.02329]]]}}
