{"type":"Feature","properties":{"id":"east-fork-shoal-creek","name":"East Fork Shoal Creek","waterbodyType":"creek","throughLakeIds":[],"allowOpenEnds":false,"source":"nhd-hu8-06030004","approximate":false,"labelAnchor":[-87.07469,35.05789],"bounds":[-87.09995,35.00463,-87.06407,35.1163],"crs":"EPSG:4326","coordinateOrder":"longitude,latitude","partCount":1,"vertexCount":117,"lengthKm":15.67,"sourceIds":["128246023","128245928","128245884","128245816","128245785","128245610","128245609","128245576","128245491","128245458","128245372","128246049","128246053","128246133","128246173","128246189","128246254","128246286","128246302","128246405","128246438","128246526","128246591","128246664","128246709"],"sourceRetrieved":"2026-09-11","geometrySource":"nhd","hu8":"06030004","simplification":{"toleranceM":10,"verticesBefore":1152,"verticesAfter":117,"budgetBytes":81920},"trace":{"anchor":{"lat":35.0579,"lon":-87.0747,"snapDistM":2},"up":{"spec":"headwater","reason":"headwater","terminus":[-87.080006,35.116301],"distKmFromAnchor":7.81},"down":{"spec":"mouth","reason":"name-change","terminus":[-87.09920900000002,35.004633],"enteredNames":["Shoal Creek"],"distKmFromAnchor":7.49},"vaaUsed":false,"toleranceM":12}},"geometry":{"type":"MultiLineString","coordinates":[[[-87.08001,35.1163],[-87.07974,35.11568],[-87.07986,35.11372],[-87.08008,35.11242],[-87.08056,35.1113],[-87.0809,35.10991],[-87.07972,35.10775],[-87.07902,35.10722],[-87.0779,35.10572],[-87.07513,35.10436],[-87.0748,35.10374],[-87.07408,35.10319],[-87.07288,35.1026],[-87.07156,35.10136],[-87.0705,35.10106],[-87.0693,35.10117],[-87.06887,35.10078],[-87.06838,35.10066],[-87.06821,35.10039],[-87.06784,35.10037],[-87.0671,35.09983],[-87.06655,35.09969],[-87.06615,35.09927],[-87.0659,35.09847],[-87.06569,35.09834],[-87.06545,35.09844],[-87.0644,35.09612],[-87.06442,35.09496],[-87.06407,35.09353],[-87.06521,35.09031],[-87.06675,35.08929],[-87.06706,35.08787],[-87.06691,35.08756],[-87.06625,35.08709],[-87.06643,35.08663],[-87.06653,35.08527],[-87.06756,35.08463],[-87.06764,35.08386],[-87.0696,35.08217],[-87.07145,35.07964],[-87.07187,35.07933],[-87.07255,35.07931],[-87.07336,35.07876],[-87.07453,35.07752],[-87.07503,35.07672],[-87.07471,35.07452],[-87.07424,35.07399],[-87.07409,35.0731],[-87.07447,35.07243],[-87.0745,35.07174],[-87.07496,35.07103],[-87.07415,35.06819],[-87.07443,35.06649],[-87.07499,35.06459],[-87.0745,35.06392],[-87.0727,35.06312],[-87.07223,35.06268],[-87.07217,35.06239],[-87.0728,35.06006],[-87.07469,35.05789],[-87.07294,35.05978],[-87.07323,35.05939],[-87.07473,35.05785],[-87.07675,35.05691],[-87.07767,35.05664],[-87.07807,35.05634],[-87.07896,35.05531],[-87.0794,35.05388],[-87.07981,35.05329],[-87.08139,35.05318],[-87.08181,35.05275],[-87.0823,35.05088],[-87.08224,35.05058],[-87.08181,35.0503],[-87.08213,35.04944],[-87.08355,35.04708],[-87.08411,35.04564],[-87.08426,35.04448],[-87.08401,35.04238],[-87.08425,35.04129],[-87.08458,35.04077],[-87.08546,35.04003],[-87.08741,35.03931],[-87.08736,35.03835],[-87.0884,35.0374],[-87.08825,35.03615],[-87.08968,35.03356],[-87.09012,35.03214],[-87.09017,35.03183],[-87.08979,35.03132],[-87.08861,35.03089],[-87.08852,35.02917],[-87.08839,35.02896],[-87.08761,35.02855],[-87.08765,35.02768],[-87.08893,35.02588],[-87.09013,35.0255],[-87.09031,35.02532],[-87.09029,35.02329],[-87.09092,35.02303],[-87.09145,35.02227],[-87.09232,35.02199],[-87.09287,35.02072],[-87.09385,35.02005],[-87.09421,35.01943],[-87.09599,35.01815],[-87.09601,35.01701],[-87.09692,35.01537],[-87.09726,35.01435],[-87.09733,35.01208],[-87.09753,35.01179],[-87.09899,35.01076],[-87.09965,35.00765],[-87.09995,35.00695],[-87.09991,35.00657],[-87.09937,35.00579],[-87.09921,35.00463]]]}}
