{"type":"Feature","properties":{"id":"roaring-fork","name":"Roaring Fork","waterbodyType":"creek","throughLakeIds":[],"allowOpenEnds":false,"source":"nhd-hu8-06010107","approximate":false,"labelAnchor":[-83.45782,35.68855],"bounds":[-83.51159,35.65517,-83.44037,35.71747],"crs":"EPSG:4326","coordinateOrder":"longitude,latitude","partCount":1,"vertexCount":117,"lengthKm":11.54,"sourceIds":["{368FA95D-BAEF-4700-820F-D7052FECB292}","51638802","{23625F39-61A2-49F0-B623-8196ABE9076A}","51638428","{F781A4A2-B264-4E27-A368-D07F978079B7}","51638390","51638362","{5E3410BF-EA09-4CE2-B10F-6287F5CBFDB3}","{7D608BA1-4B60-4061-BD01-97C02F17B7E6}","51638004","{211AFE17-9BCC-4E13-A7FB-3682943B9C82}","51637980","{F97C11D5-81BF-49CF-9339-DD1FC8F45CFB}"],"sourceRetrieved":"2026-09-11","geometrySource":"nhd","hu8":"06010107","simplification":{"toleranceM":10,"verticesBefore":1361,"verticesAfter":117,"budgetBytes":81920},"trace":{"anchor":{"lat":35.688547,"lon":-83.457767,"snapDistM":4.6},"up":{"spec":"headwater","reason":"headwater","terminus":[-83.44037,35.655172],"distKmFromAnchor":4.35},"down":{"spec":"mouth","reason":"name-change","terminus":[-83.5115438,35.7170522],"enteredNames":["West Prong Little Pigeon River"],"distKmFromAnchor":7.43},"vaaUsed":false,"toleranceM":12}},"geometry":{"type":"MultiLineString","coordinates":[[[-83.44037,35.65517],[-83.44089,35.6562],[-83.44097,35.65695],[-83.44123,35.65733],[-83.44132,35.65862],[-83.44185,35.65984],[-83.44371,35.66168],[-83.4435,35.66269],[-83.44386,35.66341],[-83.44367,35.66402],[-83.44382,35.66442],[-83.44528,35.66601],[-83.4453,35.66643],[-83.44626,35.66848],[-83.44745,35.66937],[-83.44798,35.67053],[-83.44796,35.67118],[-83.44927,35.67264],[-83.44935,35.67359],[-83.45015,35.67451],[-83.45012,35.67504],[-83.45043,35.67543],[-83.45034,35.67746],[-83.45055,35.67848],[-83.45167,35.68073],[-83.45193,35.6817],[-83.4528,35.68205],[-83.45338,35.68278],[-83.45389,35.68304],[-83.4541,35.68352],[-83.45478,35.68392],[-83.45483,35.68434],[-83.45528,35.68507],[-83.45546,35.68597],[-83.45595,35.68632],[-83.4563,35.68699],[-83.45755,35.6879],[-83.45797,35.68908],[-83.45851,35.68923],[-83.45893,35.68973],[-83.45938,35.6899],[-83.45939,35.69021],[-83.45982,35.69062],[-83.46107,35.69116],[-83.46175,35.69174],[-83.46308,35.69191],[-83.46333,35.69219],[-83.46325,35.6926],[-83.46354,35.69298],[-83.46354,35.69328],[-83.46393,35.69368],[-83.46472,35.69409],[-83.46536,35.69409],[-83.46573,35.69447],[-83.46627,35.69462],[-83.4677,35.6945],[-83.46816,35.69533],[-83.46859,35.69541],[-83.4689,35.69571],[-83.46962,35.69575],[-83.47023,35.6966],[-83.47075,35.69774],[-83.47146,35.69828],[-83.47127,35.69908],[-83.47173,35.69968],[-83.47174,35.7],[-83.47095,35.70049],[-83.47075,35.70129],[-83.46984,35.70279],[-83.46998,35.70493],[-83.47106,35.70594],[-83.4712,35.70643],[-83.47169,35.707],[-83.47187,35.70778],[-83.47231,35.70821],[-83.47172,35.70938],[-83.47259,35.70957],[-83.47406,35.70927],[-83.47487,35.70951],[-83.47528,35.70984],[-83.47613,35.71008],[-83.47652,35.71034],[-83.47816,35.71011],[-83.47921,35.71082],[-83.47991,35.71081],[-83.48054,35.71112],[-83.48106,35.71111],[-83.48158,35.71129],[-83.48216,35.71118],[-83.4829,35.71211],[-83.48288,35.71248],[-83.48328,35.71255],[-83.48423,35.71351],[-83.48473,35.71375],[-83.48496,35.71464],[-83.48638,35.71504],[-83.4873,35.7158],[-83.48808,35.71617],[-83.48888,35.71628],[-83.49004,35.71698],[-83.49049,35.71695],[-83.49123,35.71648],[-83.49187,35.7163],[-83.49317,35.71622],[-83.49394,35.71674],[-83.49531,35.7168],[-83.49648,35.71664],[-83.49833,35.71691],[-83.50032,35.71675],[-83.50287,35.71735],[-83.50422,35.71713],[-83.50611,35.71726],[-83.50697,35.71747],[-83.50725,35.71731],[-83.50852,35.71726],[-83.5101,35.71682],[-83.51159,35.71706]]]}}
