{"type":"Feature","properties":{"id":"elk-river-lower","name":"Elk River (Prospect to state line)","waterbodyType":"river","throughLakeIds":["wheeler-reservoir"],"allowOpenEnds":false,"source":"nhd-hu8-06030004","approximate":false,"labelAnchor":[-86.99475,35.01392],"bounds":[-87.27853,34.76136,-86.8847,35.02861],"crs":"EPSG:4326","coordinateOrder":"longitude,latitude","partCount":1,"vertexCount":295,"lengthKm":71.54,"sourceIds":["128246456","128246455","128246468","128246503","128246505","128246510","128246573","128246574","128246568","128246563","128246498","128246487","128246486","128246489","128246485","128246443","128246418","128246237","128246234","128246247","128246289","128246297","128246361","128246352","128246354","128246342","128246335","128246312","138656590","{6EEE8B46-578F-4315-B7E7-4EE3A09DB3D1}","128246453","128246459","128246513","128246565","128246659","128246685","128246695","128246762","128246837","128246847","128246982","128247035","128247058","128247076","128247081","128247118","128247180","128247248","128247270","128247294","128247346","128247447","128247545","128247575","128247682","128247733","128247819","128247849","128247875","128247924","128247925","128247910","128247905","128247898","128247893","128247887","128247918","128247920","128247909","128247877","128248079","128248116","128248143","128248179","128248203","128248259","128248308","128248345","128248362","128248402","128248426","128248450","128248489","128248510","128248531","128248554","128248606","128248636","128248648","128248652","128248656","128248659","128248670","128248672","128248688","128248689","128248691","128248690","128248686","128248615","128248612","128248627","128248638","128248671","128248681","128248724","128248727","128248744","128248763","128248769","128248779","128248792","128248797","128248802","147604844","128248810","147604846","147604848","147604850","147604852","147604854","{4E4045EE-301C-44AC-8AC0-7DF421642255}"],"sourceRetrieved":"2026-09-11","geometrySource":"nhd","hu8":"06030004","simplification":{"toleranceM":10,"verticesBefore":2436,"verticesAfter":295,"budgetBytes":81920},"trace":{"anchor":{"lat":35.0142,"lon":-86.9947,"snapDistM":31.1},"up":{"spec":"headwater","reason":"headwater","terminus":[-86.884699,35.023129],"distKmFromAnchor":14.6},"down":{"spec":"mouth","reason":"terminal-node","terminus":[-87.26532,34.76136],"enteredNames":null,"distKmFromAnchor":57.1},"vaaUsed":false,"toleranceM":12}},"geometry":{"type":"MultiLineString","coordinates":[[[-86.8847,35.02313],[-86.88511,35.02251],[-86.88626,35.02153],[-86.89163,35.01864],[-86.89484,35.01631],[-86.89572,35.01591],[-86.89703,35.01574],[-86.89955,35.01574],[-86.90357,35.01533],[-86.9078,35.01596],[-86.90991,35.01594],[-86.91438,35.01557],[-86.91551,35.01585],[-86.91707,35.01685],[-86.91856,35.01835],[-86.91976,35.02046],[-86.92074,35.02162],[-86.92416,35.0242],[-86.92616,35.02619],[-86.9279,35.02716],[-86.92903,35.02752],[-86.93013,35.02757],[-86.9328,35.02729],[-86.93476,35.02687],[-86.93743,35.02667],[-86.93972,35.02708],[-86.94342,35.02842],[-86.94468,35.02861],[-86.94582,35.0286],[-86.94703,35.02812],[-86.94745,35.02767],[-86.94758,35.02711],[-86.9466,35.02219],[-86.94593,35.02004],[-86.94522,35.01871],[-86.944,35.01754],[-86.93981,35.01286],[-86.93935,35.01142],[-86.93946,35.01089],[-86.93995,35.01039],[-86.94245,35.00893],[-86.94481,35.00796],[-86.94637,35.00757],[-86.94773,35.00752],[-86.9494,35.00764],[-86.95299,35.00836],[-86.95541,35.00847],[-86.95744,35.00838],[-86.95893,35.008],[-86.96228,35.00671],[-86.96441,35.00545],[-86.96762,35.00456],[-86.9696,35.00429],[-86.97228,35.00417],[-86.9781,35.00443],[-86.97904,35.00461],[-86.97967,35.00488],[-86.98249,35.00753],[-86.98466,35.0093],[-86.98508,35.00944],[-86.98598,35.01076],[-86.98663,35.01136],[-86.98728,35.013],[-86.98778,35.01359],[-86.98843,35.01395],[-86.9894,35.01417],[-86.99337,35.01377],[-86.99875,35.01431],[-87.00095,35.01429],[-87.00202,35.01392],[-87.00331,35.01317],[-87.0055,35.01131],[-87.00957,35.00569],[-87.01056,35.00389],[-87.01306,35.00149],[-87.01462,35.00028],[-87.01563,34.99987],[-87.01664,34.9998],[-87.01855,35.00005],[-87.02053,35.00004],[-87.02302,35.0005],[-87.02627,35.00075],[-87.02846,35.00054],[-87.02971,35.0001],[-87.03017,34.99958],[-87.03034,34.99896],[-87.02995,34.99527],[-87.02881,34.99335],[-87.02733,34.99208],[-87.02519,34.99134],[-87.02192,34.99089],[-87.01369,34.98887],[-87.00984,34.98827],[-87.00882,34.98792],[-87.00785,34.98722],[-87.007,34.98597],[-87.00579,34.98288],[-87.00524,34.97868],[-87.00525,34.97693],[-87.00548,34.97563],[-87.00573,34.97513],[-87.00752,34.9731],[-87.00842,34.97252],[-87.01163,34.97078],[-87.01502,34.96943],[-87.01924,34.96749],[-87.02424,34.96646],[-87.02872,34.96527],[-87.03061,34.9641],[-87.03419,34.96076],[-87.03635,34.95832],[-87.03869,34.95443],[-87.04186,34.95154],[-87.04244,34.95042],[-87.0424,34.94739],[-87.04228,34.94679],[-87.04175,34.94642],[-87.04145,34.94553],[-87.04112,34.94283],[-87.04071,34.94119],[-87.04106,34.94055],[-87.04099,34.93906],[-87.04183,34.93559],[-87.04188,34.93295],[-87.04215,34.93036],[-87.04194,34.92901],[-87.04208,34.92795],[-87.04241,34.92721],[-87.04321,34.92632],[-87.04643,34.92426],[-87.04842,34.92335],[-87.05061,34.92259],[-87.05509,34.91993],[-87.05979,34.91789],[-87.06242,34.91584],[-87.06338,34.91461],[-87.06366,34.91286],[-87.06343,34.9114],[-87.06238,34.90868],[-87.0616,34.90774],[-87.05991,34.90672],[-87.05622,34.90506],[-87.0529,34.90382],[-87.0508,34.90328],[-87.04524,34.90234],[-87.04378,34.90193],[-87.04252,34.90136],[-87.04137,34.90033],[-87.04027,34.89839],[-87.04045,34.89679],[-87.04113,34.89576],[-87.04172,34.89533],[-87.04263,34.89507],[-87.04799,34.89592],[-87.05078,34.89671],[-87.05249,34.89743],[-87.05501,34.89885],[-87.05663,34.8992],[-87.0593,34.89895],[-87.06256,34.89887],[-87.06641,34.89915],[-87.06714,34.89938],[-87.06907,34.89955],[-87.07168,34.89963],[-87.0734,34.9001],[-87.07485,34.90076],[-87.07552,34.90081],[-87.07987,34.90222],[-87.08052,34.90217],[-87.08101,34.90193],[-87.0851,34.90152],[-87.08685,34.90084],[-87.08874,34.90054],[-87.08957,34.90061],[-87.09355,34.89939],[-87.09487,34.89937],[-87.0957,34.89976],[-87.10111,34.90321],[-87.10307,34.90425],[-87.10585,34.9051],[-87.10721,34.90518],[-87.10762,34.90497],[-87.1083,34.90398],[-87.11067,34.89806],[-87.11096,34.89633],[-87.10931,34.8905],[-87.10822,34.88752],[-87.10749,34.88643],[-87.1067,34.88586],[-87.10639,34.88517],[-87.10537,34.88377],[-87.10487,34.88236],[-87.10471,34.88098],[-87.10533,34.88014],[-87.10493,34.87831],[-87.10525,34.87713],[-87.10568,34.87611],[-87.10633,34.87539],[-87.10715,34.87498],[-87.10846,34.87468],[-87.11034,34.87297],[-87.11148,34.87044],[-87.1121,34.86885],[-87.11083,34.86425],[-87.11125,34.86001],[-87.11308,34.85741],[-87.11379,34.85586],[-87.11501,34.85478],[-87.11539,34.85363],[-87.11545,34.85182],[-87.11745,34.8499],[-87.11714,34.84836],[-87.11832,34.84717],[-87.12152,34.84735],[-87.12305,34.84621],[-87.12532,34.84425],[-87.12732,34.8415],[-87.12826,34.83995],[-87.12907,34.83806],[-87.12926,34.83722],[-87.12909,34.836],[-87.12838,34.83386],[-87.12892,34.82971],[-87.12922,34.82859],[-87.12945,34.82792],[-87.13339,34.82376],[-87.13495,34.8231],[-87.13751,34.82256],[-87.1397,34.8226],[-87.14161,34.82294],[-87.1436,34.82243],[-87.14623,34.82225],[-87.1484,34.82234],[-87.1512,34.82195],[-87.15376,34.82118],[-87.15608,34.82074],[-87.15825,34.81986],[-87.16489,34.81847],[-87.17026,34.81873],[-87.1712,34.81889],[-87.1731,34.81963],[-87.177,34.82185],[-87.17806,34.82294],[-87.17886,34.82338],[-87.18106,34.82579],[-87.18195,34.82792],[-87.18333,34.83004],[-87.19087,34.83233],[-87.19612,34.83267],[-87.20047,34.83086],[-87.2034,34.82886],[-87.20455,34.82772],[-87.20567,34.8259],[-87.20654,34.82301],[-87.20734,34.82189],[-87.20896,34.82073],[-87.20978,34.81896],[-87.21184,34.81653],[-87.21298,34.8158],[-87.21395,34.81538],[-87.21526,34.81522],[-87.21652,34.81527],[-87.21706,34.81503],[-87.219,34.81347],[-87.22068,34.81276],[-87.22144,34.81193],[-87.22379,34.81002],[-87.22559,34.80887],[-87.22774,34.80812],[-87.23007,34.80642],[-87.23078,34.80613],[-87.23142,34.8054],[-87.23268,34.80441],[-87.23387,34.80396],[-87.23504,34.80311],[-87.23604,34.80189],[-87.23761,34.80095],[-87.23923,34.7995],[-87.24075,34.79877],[-87.24227,34.79769],[-87.24539,34.79524],[-87.24663,34.79404],[-87.24878,34.79267],[-87.25223,34.79014],[-87.25857,34.78704],[-87.26682,34.78573],[-87.27193,34.78395],[-87.2752,34.7823],[-87.27707,34.78082],[-87.27823,34.77876],[-87.27853,34.77633],[-87.27782,34.77317],[-87.27423,34.7701],[-87.26819,34.76578],[-87.26532,34.76136]]]}}
