{"type":"Feature","properties":{"id":"stones-river","name":"Stones River (Davidson County)","waterbodyType":"river","throughLakeIds":[],"allowOpenEnds":false,"source":"nhd-hu8-05130203","approximate":false,"labelAnchor":[-86.63342,36.18625],"bounds":[-86.66717,36.15703,-86.61845,36.19279],"crs":"EPSG:4326","coordinateOrder":"longitude,latitude","partCount":1,"vertexCount":52,"lengthKm":11.33,"sourceIds":["51411119","51411141","51411157","51411185","51411149"],"sourceRetrieved":"2026-09-11","geometrySource":"nhd","hu8":"05130203","simplification":{"toleranceM":10,"verticesBefore":117,"verticesAfter":52,"budgetBytes":81920},"trace":{"anchor":{"lat":36.1865,"lon":-86.6328,"snapDistM":62.5},"up":{"spec":"headwater","reason":"headwater","terminus":[-86.618452,36.157033],"distKmFromAnchor":4.43},"down":{"spec":"mouth","reason":"terminal-node","terminus":[-86.663539,36.192791],"enteredNames":null,"distKmFromAnchor":6.65},"vaaUsed":false,"toleranceM":12}},"geometry":{"type":"MultiLineString","coordinates":[[[-86.61845,36.15703],[-86.62005,36.1586],[-86.62151,36.16086],[-86.6223,36.16138],[-86.625,36.16234],[-86.62723,36.16352],[-86.62819,36.16426],[-86.63011,36.1664],[-86.63478,36.17023],[-86.63839,36.17123],[-86.64038,36.17199],[-86.64137,36.17278],[-86.6415,36.17386],[-86.64101,36.17587],[-86.63857,36.17749],[-86.63545,36.17857],[-86.63407,36.17982],[-86.63325,36.18101],[-86.63322,36.18443],[-86.63342,36.18625],[-86.63325,36.18506],[-86.63334,36.18612],[-86.63361,36.18655],[-86.63401,36.18678],[-86.63448,36.18694],[-86.63645,36.18689],[-86.63996,36.18724],[-86.64592,36.18759],[-86.64792,36.18752],[-86.64962,36.18712],[-86.65068,36.18631],[-86.65262,36.18425],[-86.65404,36.17978],[-86.65459,36.17637],[-86.65558,36.17443],[-86.65645,36.17322],[-86.65692,36.17283],[-86.65836,36.17209],[-86.65983,36.17154],[-86.66082,36.17136],[-86.66307,36.17158],[-86.6657,36.17333],[-86.66662,36.17446],[-86.667,36.17531],[-86.66717,36.17615],[-86.66715,36.17784],[-86.66675,36.17933],[-86.66468,36.18434],[-86.66418,36.18723],[-86.66284,36.19035],[-86.6629,36.19155],[-86.66354,36.19279]]]}}
