{"type":"Feature","properties":{"id":"caney-fork-river","name":"Caney Fork River (Center Hill tailwater)","waterbodyType":"tailrace","throughLakeIds":[],"allowOpenEnds":false,"source":"nhd-hu8-05130108","approximate":false,"labelAnchor":[-85.82666,36.09797],"bounds":[-85.95158,36.09794,-85.80211,36.24867],"crs":"EPSG:4326","coordinateOrder":"longitude,latitude","partCount":1,"vertexCount":195,"lengthKm":43.47,"sourceIds":["136993173","136993172","136993345","136993341","136993324","136993325","136993326","136993327","136993323","136993322","136993333","136993337","136993342","136993347","136993349","136993354","136993355","136993356","136993171","136993170","136993169","136993168","136993167","136993166","136993315","136993310","136993303","136993165","136993164","136993163","136993083","136993082","136993081","136993080","136993079","136993078","136993077","136993076","136993075","136993058","136993059","136993057","136993056","136993055","136993054","136993242","136993241","136993240","136993247","136993246","136993248","136993251","136993255","136993256","136993258","136993257","136993254","136993253","136993252","136993250","147450083"],"sourceRetrieved":"2026-09-11","geometrySource":"nhd","hu8":"05130108","simplification":{"toleranceM":10,"verticesBefore":2291,"verticesAfter":195,"budgetBytes":81920},"trace":{"anchor":{"lat":36.0978,"lon":-85.8272,"snapDistM":52.3},"up":{"spec":"dam:Center Hill Lake","reason":"dam","terminus":[-85.826276,36.097938],"distKmFromAnchor":0},"down":{"spec":"mouth","reason":"terminal-node","terminus":[-85.941322,36.239023],"enteredNames":null,"distKmFromAnchor":43.61},"vaaUsed":false,"toleranceM":12}},"geometry":{"type":"MultiLineString","coordinates":[[[-85.82628,36.09794],[-85.82664,36.09795],[-85.82672,36.09847],[-85.82748,36.09865],[-85.82849,36.09951],[-85.83131,36.10026],[-85.8353,36.10232],[-85.83584,36.10283],[-85.83638,36.10308],[-85.83825,36.10336],[-85.84286,36.10483],[-85.84815,36.10527],[-85.84978,36.10552],[-85.85123,36.10599],[-85.8521,36.10643],[-85.85256,36.10691],[-85.85262,36.10779],[-85.85234,36.10853],[-85.84989,36.11117],[-85.84928,36.11169],[-85.84736,36.11265],[-85.84453,36.1154],[-85.84366,36.11705],[-85.84365,36.11764],[-85.84107,36.12253],[-85.84076,36.12345],[-85.8404,36.12385],[-85.83929,36.12678],[-85.83924,36.12776],[-85.83894,36.12823],[-85.83828,36.12877],[-85.83717,36.12911],[-85.83556,36.12837],[-85.83174,36.12572],[-85.83132,36.12517],[-85.82846,36.12255],[-85.82733,36.12236],[-85.82533,36.12272],[-85.82493,36.12304],[-85.82353,36.12337],[-85.82046,36.12453],[-85.81603,36.12713],[-85.81524,36.12746],[-85.81373,36.12852],[-85.81332,36.12901],[-85.8125,36.12948],[-85.81023,36.13048],[-85.80695,36.13258],[-85.80607,36.13277],[-85.80503,36.13347],[-85.80391,36.13488],[-85.80292,36.13825],[-85.80214,36.13922],[-85.80211,36.13958],[-85.80236,36.1401],[-85.80317,36.141],[-85.80372,36.14123],[-85.80526,36.14252],[-85.80668,36.14264],[-85.80793,36.14257],[-85.8135,36.1415],[-85.8168,36.14022],[-85.81987,36.13845],[-85.82052,36.13853],[-85.8215,36.13804],[-85.82239,36.13788],[-85.82283,36.13758],[-85.82418,36.13731],[-85.82502,36.13694],[-85.82662,36.13668],[-85.82698,36.13629],[-85.82771,36.13647],[-85.82862,36.13705],[-85.8306,36.13897],[-85.83286,36.14231],[-85.83582,36.1457],[-85.83708,36.14644],[-85.83845,36.14674],[-85.83966,36.1466],[-85.8443,36.14812],[-85.84756,36.14837],[-85.84882,36.14872],[-85.8509,36.14897],[-85.85402,36.14961],[-85.85772,36.1501],[-85.85961,36.14968],[-85.86065,36.1489],[-85.86155,36.14792],[-85.86242,36.1466],[-85.86287,36.14521],[-85.86738,36.14017],[-85.86871,36.13918],[-85.86952,36.13898],[-85.87073,36.13978],[-85.87298,36.14031],[-85.87395,36.14075],[-85.87525,36.14188],[-85.87566,36.14243],[-85.87605,36.14345],[-85.87601,36.14466],[-85.87516,36.14687],[-85.87423,36.14809],[-85.87283,36.1507],[-85.87106,36.15293],[-85.87069,36.15394],[-85.87114,36.15568],[-85.87219,36.15757],[-85.87346,36.15927],[-85.87554,36.16123],[-85.87787,36.16292],[-85.88076,36.16423],[-85.88419,36.16521],[-85.89262,36.17009],[-85.89997,36.17259],[-85.90332,36.17414],[-85.90874,36.17813],[-85.90936,36.17873],[-85.9091,36.17967],[-85.90818,36.18102],[-85.90665,36.18407],[-85.90508,36.18606],[-85.90458,36.18716],[-85.90384,36.19021],[-85.90389,36.19167],[-85.9042,36.19221],[-85.90618,36.19343],[-85.90786,36.1948],[-85.90876,36.19526],[-85.91299,36.19555],[-85.91557,36.19532],[-85.91699,36.19546],[-85.91954,36.19623],[-85.92513,36.19845],[-85.92827,36.19916],[-85.93111,36.20002],[-85.93294,36.20088],[-85.93632,36.20312],[-85.93831,36.20421],[-85.94382,36.20621],[-85.9475,36.20827],[-85.94776,36.20868],[-85.94978,36.2105],[-85.95158,36.21307],[-85.95157,36.21395],[-85.95139,36.21427],[-85.94858,36.21858],[-85.94732,36.22015],[-85.94233,36.22384],[-85.93999,36.22529],[-85.93892,36.2258],[-85.93804,36.22604],[-85.9334,36.22474],[-85.93091,36.22368],[-85.93037,36.2232],[-85.92793,36.21988],[-85.92657,36.21758],[-85.92606,36.2164],[-85.92525,36.21278],[-85.92444,36.21186],[-85.92376,36.21173],[-85.92172,36.21196],[-85.92069,36.2123],[-85.91897,36.2132],[-85.91782,36.2142],[-85.91617,36.21628],[-85.91541,36.21745],[-85.9154,36.21792],[-85.91513,36.21848],[-85.91168,36.22339],[-85.90934,36.22764],[-85.90862,36.22973],[-85.90914,36.23559],[-85.90916,36.23819],[-85.90899,36.23871],[-85.90853,36.23932],[-85.90536,36.2423],[-85.90462,36.24323],[-85.90416,36.24416],[-85.90403,36.24486],[-85.90444,36.24609],[-85.90489,36.24648],[-85.90853,36.2485],[-85.9096,36.24867],[-85.91107,36.24858],[-85.91401,36.24772],[-85.91952,36.24446],[-85.92055,36.24372],[-85.92232,36.24208],[-85.92527,36.23876],[-85.92607,36.23832],[-85.93459,36.23806],[-85.93789,36.2381],[-85.93961,36.23834],[-85.94139,36.23885],[-85.94132,36.23902]]]}}
