{"type":"Feature","properties":{"id":"little-tennessee-river","name":"Little Tennessee River","waterbodyType":"river","throughLakeIds":["tellico-lake","chilhowee-lake","calderwood-lake","watts-bar-lake"],"allowOpenEnds":false,"source":"nhd-hu8-06010204","approximate":false,"labelAnchor":[-84.13714,35.56794],"bounds":[-84.26507,35.44403,-83.80448,35.78363],"crs":"EPSG:4326","coordinateOrder":"longitude,latitude","partCount":1,"vertexCount":460,"lengthKm":92.84,"sourceIds":["112258469","112258507","112258531","112258639","112259147","112259171","112259679","112259691","112259719","112259827","112260163","112260171","112259997","112259963","112259877","112259917","112259939","112260035","112260045","112260109","112260187","112260211","{4AD35DE5-6A32-4735-8F32-320527BC8D55}","112260085","112260069","112259885","112259869","{C06A4A13-C11A-4DAC-BCD9-701F4BB51573}","112259907","{3DED32A5-2F17-4A97-8F9A-928831259E19}","112259911","112259753","112259755","112259843","112260433","112260619","{EAAB6AD4-17E1-4B44-B61D-436D390F19DC}","{EE01F8EE-FC25-4D6F-A80C-B61ED953ED43}","112260969","112261127","112261129","112261233","112261343","112261501","112261891","{AEB0B947-FD6F-429B-B723-F57F1B626E44}","{BD775514-D4C7-41DB-8C28-6370CC0B79B8}","112261969","112262005","112262039","112262071","112262125","{87BB00A0-A48F-4B0F-90D6-1CC53121BC31}","112262189","{54575712-248C-4EFF-B232-46F67F76197F}","{A63FEFFC-883F-4595-A846-201108443F85}","112262261","112262445","112262499","112262593","112262603","112262551","{16D4287E-28EC-4B03-B4B9-637DEE226D6E}","112262379","{6C16B8EA-AE9D-47A1-BE7E-E73941FF2998}","112262263","{3C6BB90A-A673-4788-BB52-C465D8FAE3FB}","112262285","112262365","{A1A1997B-2941-4F1A-A880-EFD3B818D0F6}","112262419","112262457","112262529","112262527","112262525","112262515","112262577","112262609","112262655","112262749","{CBC5C18C-547A-40A0-B95B-90C834B81788}","112262813","112262821","{38A7C0D5-2311-4952-B9E4-B533C505CBC6}","112262901","112262915","112262937","112263015","{9554862E-DE91-42BF-868C-0FA5BBA59A2F}","112263049","112263307","{51B83E50-227E-4167-B343-7876833B9905}","112263395","112263393","112263513","{4E559111-C659-4AB2-883A-2E6320CCDA61}","{C2A52A18-21A5-452F-A937-D42C0605A39C}","112263627","112263695","112263815","112263891","{87BBA285-9FFC-410E-92D1-FA788E10C672}","112263969","{D4D7F5C6-269F-4E99-99AF-4BD5E47738A9}","112263989","112263981","{524B3CAE-3B01-474C-997C-62E718A07FC8}","112263955","{C5FC4CD9-B50E-483E-9D0B-15410407190A}","{88CDD640-37B6-48F9-AC0C-2EF043CE53EA}","{72D906A8-0DD4-4DC6-97D3-45D36CAE1662}","112263865","112263749","{DDE5021F-520C-415E-9C03-F771EB60CC67}","112263729","112263607","{C6E082FA-5408-453C-BFE6-E3337DDA5F35}","112263535","112263511","{74519B76-FF40-47AC-83AA-D4FF763D682C}","{83C56D10-A843-4547-A533-030049557B71}","{22380AA7-BB20-4898-A472-C4357980320F}","{0615BC09-2156-4CEB-8C17-B173BB3FEA3C}","{720B4A8B-46E1-44CE-93D4-2C9BA0CE5A77}","{66BE6799-ADF7-42AB-A0DB-16994CBC7E4A}","112263371","112263419","112263435","112263465","112263531","{8BF5721E-FC21-4A93-AC88-B05B6B2E5BE3}","112263545","112263569","{D58C8FC0-16DE-4A90-BEEF-90B8DAD7854E}","112263567","{CCBA995D-2D9E-4DD9-9CDE-9F5D815F8E26}","{8FB612E6-B5AC-4956-843D-4D8760AD304F}","112263527","112263587","{391D6300-7E2C-45A9-A0DD-954BB944F08A}","112263681","112263757","112263817","112264049","112264069","{CC6E0F2A-BC30-4B64-8C88-1889429C3A04}","{B9C5BE5A-F961-4CF7-8AC0-2FDBDED3E1A5}","112264081","{97CECDDC-403D-4FB5-9505-FFDF056D052E}","112264059","{E638F329-07FC-441C-B01D-F0C7904FB5C5}","112264029","{3E8FF55C-13D9-423A-AA82-C438CDBA0933}","{1EEC9292-1D9D-403D-859E-6CB76B93E436}","112263987","{F18FAE4A-B1CA-40C7-9C3B-F6F733670B60}","112263977","112264109","{7C5E43B9-6460-41A4-8BE5-47807978E7A3}","{D073389D-2212-4744-9955-E2E40723712F}","{7892F7A5-531B-404E-9F77-49D86C17BFFA}","{E6DEC95E-72A3-45D1-BB3A-1E71C077ECCB}","112264077","{F6B4290F-D49F-4BC9-A697-F4D67764DAAC}","112264091","{89FCED22-BB05-445D-AB20-CA2DA472879B}","{474D9155-90CD-4D66-B04A-B4833880EAD3}","{B3F7BC81-C6AA-448D-93FD-5EC725A9388E}","112264209","{FD525EF1-FCDC-4B54-9DA1-1AB02C9325F9}","112264255","112264277","{349BB476-FAD3-4497-8580-C1575CDE4A73}","112264313","{0AFB24A7-88E1-4236-B47E-F39CBCD3CBD0}","{BB37876D-2125-4CA3-B9B9-C2125B1B0364}","{BB68446A-3900-4D32-95D4-40CA14FFF595}","112264317","{57257954-1650-434F-9F4E-14B8762F5AE7}","112258535","112258641","112258839","112258847","112258861","112258943","112259307","112259419","112259433","112259445","112259449","112259575","112259665","112259771","112259767","112259765","112259769","112259739","112259671","112259563","112259555","112259431","112259189","112259157","112259043","112258983","112258973","112258873","112258845","112258723","112258627","112258621","112258611","112258565","112258559","112258437","112258255","112258235","112258027","112257919","112257595","112257567","112257529","112257527","112257411","112257199","112257109","112257007","112257013","112257011","112256753","112256739","112256721","112256687","112256475","112256449","112256347","112256289","112256253","112256145","112256135","112256129","112256085","112255743","112255015","112254665","112254449","112254185","112254001","112253873","112253549","112253409","112253227","112253121","112253097","112253053","112253017","112252989","112252907","112252823","112252779","112252771","112252755","112252685","112252667","112252649","112252637","112252497","112252481","112252451","112252417","112252391","112252383","132363794"],"sourceRetrieved":"2026-09-11","geometrySource":"nhd","hu8":"06010204","simplification":{"toleranceM":10,"verticesBefore":1985,"verticesAfter":460,"budgetBytes":81920},"trace":{"anchor":{"lat":35.56794,"lon":-84.13714,"snapDistM":0.3},"up":{"spec":"headwater","reason":"headwater","terminus":[-83.804484,35.451827],"distKmFromAnchor":52.84},"down":{"spec":"mouth","reason":"terminal-node","terminus":[-84.260591,35.783629],"enteredNames":null,"distKmFromAnchor":40.26},"vaaUsed":false,"toleranceM":12}},"geometry":{"type":"MultiLineString","coordinates":[[[-83.80448,35.45183],[-83.80455,35.44982],[-83.80559,35.44881],[-83.8061,35.44684],[-83.80678,35.44521],[-83.80722,35.44464],[-83.80798,35.4442],[-83.80876,35.44403],[-83.81008,35.44424],[-83.81118,35.44489],[-83.81556,35.44616],[-83.81672,35.44722],[-83.81741,35.44898],[-83.81796,35.44976],[-83.81924,35.45046],[-83.82094,35.45084],[-83.82239,35.45097],[-83.82462,35.45051],[-83.82614,35.45051],[-83.83021,35.45139],[-83.83138,35.45142],[-83.83236,35.45119],[-83.83446,35.44975],[-83.83532,35.44933],[-83.83677,35.44895],[-83.83815,35.44897],[-83.83907,35.44918],[-83.83997,35.44978],[-83.84306,35.45262],[-83.84398,35.45305],[-83.84458,35.45316],[-83.84974,35.45199],[-83.85157,35.45209],[-83.85247,35.45193],[-83.85574,35.45094],[-83.85747,35.45026],[-83.86001,35.44965],[-83.86173,35.44907],[-83.86367,35.44871],[-83.86602,35.44853],[-83.86645,35.44884],[-83.86685,35.44969],[-83.86776,35.45266],[-83.86787,35.45425],[-83.86909,35.45663],[-83.87107,35.45855],[-83.87446,35.46059],[-83.87934,35.46252],[-83.88076,35.46285],[-83.88291,35.4631],[-83.88827,35.46307],[-83.89053,35.46263],[-83.89294,35.46184],[-83.8955,35.46161],[-83.8988,35.46288],[-83.90146,35.46462],[-83.90528,35.46539],[-83.9062,35.46581],[-83.90724,35.46608],[-83.90983,35.46633],[-83.91127,35.46622],[-83.91258,35.46563],[-83.91529,35.46367],[-83.91629,35.4621],[-83.9186,35.46108],[-83.92026,35.45925],[-83.92261,35.45604],[-83.92622,35.45216],[-83.92788,35.45061],[-83.92874,35.45002],[-83.92968,35.44981],[-83.93279,35.4496],[-83.93598,35.44836],[-83.93709,35.44826],[-83.93895,35.44853],[-83.93978,35.44879],[-83.9412,35.44968],[-83.94434,35.45086],[-83.94594,35.45212],[-83.94718,35.45346],[-83.94773,35.45543],[-83.94833,35.45637],[-83.95243,35.45934],[-83.95353,35.46061],[-83.95618,35.46309],[-83.95756,35.46373],[-83.95826,35.46386],[-83.9596,35.46397],[-83.96033,35.46372],[-83.96161,35.46363],[-83.96289,35.46402],[-83.96468,35.46512],[-83.96519,35.46594],[-83.96549,35.46726],[-83.96554,35.47011],[-83.9654,35.47094],[-83.96502,35.47167],[-83.96421,35.47254],[-83.96293,35.47322],[-83.96198,35.47357],[-83.95885,35.47422],[-83.95316,35.47671],[-83.95056,35.47804],[-83.94777,35.47886],[-83.94285,35.48101],[-83.94192,35.48229],[-83.93864,35.48598],[-83.9384,35.48689],[-83.9385,35.48756],[-83.93883,35.48822],[-83.93925,35.48862],[-83.9435,35.49063],[-83.94767,35.49118],[-83.94992,35.49089],[-83.95057,35.49057],[-83.95112,35.49007],[-83.95207,35.48977],[-83.95439,35.48953],[-83.95848,35.48968],[-83.96215,35.4924],[-83.96372,35.49377],[-83.96448,35.49467],[-83.96762,35.497],[-83.96845,35.4983],[-83.96939,35.49896],[-83.9704,35.5],[-83.97161,35.50078],[-83.97313,35.50129],[-83.97508,35.50104],[-83.97571,35.50047],[-83.97703,35.49861],[-83.97836,35.49606],[-83.97929,35.49381],[-83.98029,35.49021],[-83.98043,35.4882],[-83.98071,35.48771],[-83.98141,35.48716],[-83.98254,35.48686],[-83.98486,35.48684],[-83.98591,35.48713],[-83.98678,35.4875],[-83.98904,35.48899],[-83.98936,35.49151],[-83.98924,35.49405],[-83.98941,35.49529],[-83.98988,35.49667],[-83.99096,35.49808],[-83.9917,35.49831],[-83.99344,35.49968],[-83.99375,35.50019],[-83.99372,35.50069],[-83.99442,35.50116],[-83.99883,35.50307],[-83.99958,35.5036],[-84.00031,35.50458],[-84.00337,35.50536],[-84.00447,35.506],[-84.00729,35.50876],[-84.00792,35.5096],[-84.0087,35.51022],[-84.01029,35.51269],[-84.01079,35.51441],[-84.01068,35.51543],[-84.01022,35.517],[-84.00786,35.52107],[-84.0067,35.52241],[-84.00583,35.52309],[-84.00462,35.52372],[-84.00157,35.5246],[-83.9982,35.52525],[-83.99616,35.52595],[-83.99502,35.52724],[-83.99406,35.52889],[-83.99362,35.53047],[-83.99415,35.53268],[-83.9956,35.53527],[-83.99796,35.53847],[-83.99837,35.53999],[-83.99823,35.54137],[-83.99772,35.54236],[-83.99635,35.5442],[-83.99424,35.54634],[-83.99357,35.5478],[-83.9937,35.54871],[-83.99431,35.54976],[-83.99528,35.55087],[-83.9968,35.5519],[-84.00068,35.55357],[-84.00186,35.55334],[-84.00488,35.55337],[-84.00865,35.55303],[-84.01109,35.55188],[-84.01225,35.55107],[-84.01438,35.54914],[-84.01473,35.54901],[-84.016,35.54859],[-84.01892,35.54809],[-84.02112,35.54789],[-84.02591,35.5482],[-84.02737,35.54812],[-84.03535,35.54356],[-84.03633,35.54309],[-84.04004,35.54194],[-84.04159,35.54199],[-84.04279,35.54227],[-84.0485,35.54551],[-84.05105,35.54612],[-84.05341,35.54635],[-84.05603,35.54584],[-84.05963,35.54548],[-84.06061,35.54561],[-84.06282,35.5456],[-84.06501,35.54612],[-84.06719,35.54628],[-84.06961,35.54621],[-84.07241,35.54509],[-84.07277,35.54507],[-84.07353,35.5446],[-84.07573,35.54448],[-84.07707,35.54399],[-84.0793,35.54216],[-84.08071,35.54145],[-84.08167,35.54116],[-84.08418,35.54102],[-84.08562,35.5415],[-84.08877,35.54382],[-84.0888,35.54426],[-84.0896,35.54516],[-84.09163,35.54601],[-84.09286,35.54672],[-84.09583,35.54722],[-84.09647,35.54827],[-84.09745,35.54906],[-84.0976,35.54937],[-84.10054,35.55185],[-84.10568,35.55564],[-84.10662,35.55589],[-84.10777,35.55584],[-84.10814,35.55612],[-84.10954,35.5566],[-84.10996,35.55691],[-84.11035,35.55685],[-84.11077,35.55716],[-84.11244,35.55709],[-84.11558,35.55927],[-84.11689,35.56037],[-84.11739,35.56125],[-84.11917,35.56287],[-84.11962,35.56375],[-84.12,35.56406],[-84.12001,35.56432],[-84.12368,35.56709],[-84.1279,35.56711],[-84.13249,35.56839],[-84.13532,35.56842],[-84.13553,35.56823],[-84.13636,35.56819],[-84.13666,35.56793],[-84.13714,35.56794],[-84.13806,35.56769],[-84.13861,35.56734],[-84.13909,35.56732],[-84.14152,35.56519],[-84.14191,35.56438],[-84.14163,35.56209],[-84.1412,35.56145],[-84.14067,35.5609],[-84.13654,35.55764],[-84.1362,35.55722],[-84.13596,35.55626],[-84.13559,35.55595],[-84.13557,35.5557],[-84.13447,35.5543],[-84.13427,35.5509],[-84.13451,35.55008],[-84.13531,35.54871],[-84.13525,35.54715],[-84.13758,35.54493],[-84.1438,35.54466],[-84.14443,35.54496],[-84.14791,35.54752],[-84.14799,35.54802],[-84.14889,35.54979],[-84.14917,35.55476],[-84.15055,35.55709],[-84.15529,35.56071],[-84.15711,35.56154],[-84.15941,35.56227],[-84.16269,35.56462],[-84.16351,35.56488],[-84.16575,35.56536],[-84.16897,35.56536],[-84.17731,35.56662],[-84.17899,35.56702],[-84.18213,35.57076],[-84.18215,35.57101],[-84.18252,35.57132],[-84.18293,35.57214],[-84.1833,35.57244],[-84.18371,35.57326],[-84.18408,35.57357],[-84.1841,35.57382],[-84.18447,35.57413],[-84.18758,35.57862],[-84.18816,35.58012],[-84.18811,35.5834],[-84.18843,35.58634],[-84.18891,35.5869],[-84.19144,35.5891],[-84.1977,35.59371],[-84.19777,35.59403],[-84.19809,35.59427],[-84.19816,35.59459],[-84.19848,35.59483],[-84.19898,35.59571],[-84.20161,35.59816],[-84.20207,35.59843],[-84.20393,35.59846],[-84.20649,35.59774],[-84.20724,35.59774],[-84.20774,35.5979],[-84.2083,35.59834],[-84.20834,35.60181],[-84.20979,35.60301],[-84.21109,35.60324],[-84.21141,35.60348],[-84.21227,35.6037],[-84.21297,35.60425],[-84.21336,35.60488],[-84.21699,35.60761],[-84.21761,35.60837],[-84.21908,35.61131],[-84.21945,35.61159],[-84.22239,35.61248],[-84.22443,35.61336],[-84.22601,35.61452],[-84.22767,35.61495],[-84.22957,35.61631],[-84.22993,35.6163],[-84.2303,35.61657],[-84.23763,35.6164],[-84.24601,35.61593],[-84.25,35.61676],[-84.25083,35.61671],[-84.25218,35.6177],[-84.25255,35.62281],[-84.25004,35.62494],[-84.2491,35.62912],[-84.24846,35.63092],[-84.24614,35.63337],[-84.24492,35.63429],[-84.24457,35.63434],[-84.2429,35.63582],[-84.23676,35.64005],[-84.23525,35.64145],[-84.23533,35.64264],[-84.23454,35.64336],[-84.23479,35.64732],[-84.23404,35.64804],[-84.23418,35.64814],[-84.23435,35.65077],[-84.23528,35.65145],[-84.23537,35.65221],[-84.23632,35.65376],[-84.23854,35.65539],[-84.23921,35.65536],[-84.24185,35.65724],[-84.24266,35.65749],[-84.24395,35.65751],[-84.24766,35.66013],[-84.24787,35.66275],[-84.24737,35.66321],[-84.24758,35.66515],[-84.24828,35.66566],[-84.24829,35.66584],[-84.24919,35.66667],[-84.24926,35.66851],[-84.24908,35.6692],[-84.24883,35.66943],[-84.24889,35.66968],[-84.24843,35.67009],[-84.24846,35.67049],[-84.24767,35.67121],[-84.2477,35.67179],[-84.24582,35.67349],[-84.24481,35.67494],[-84.24414,35.67826],[-84.2443,35.68269],[-84.24469,35.68325],[-84.24514,35.68554],[-84.24744,35.69025],[-84.2477,35.69352],[-84.24821,35.6939],[-84.24844,35.69753],[-84.24877,35.69777],[-84.24886,35.70123],[-84.24905,35.70137],[-84.24922,35.70201],[-84.24936,35.7041],[-84.24923,35.70422],[-84.24939,35.7067],[-84.24924,35.70703],[-84.24936,35.70822],[-84.24922,35.70877],[-84.24926,35.7101],[-84.24905,35.71036],[-84.24909,35.71094],[-84.24884,35.71116],[-84.24883,35.71167],[-84.24845,35.71201],[-84.24845,35.71678],[-84.24764,35.71855],[-84.24759,35.71913],[-84.2465,35.72076],[-84.24641,35.72152],[-84.24558,35.72228],[-84.24572,35.72372],[-84.24531,35.72424],[-84.2455,35.72727],[-84.24597,35.72764],[-84.24649,35.72888],[-84.24711,35.72951],[-84.24723,35.73131],[-84.24754,35.73202],[-84.2477,35.73447],[-84.24826,35.73487],[-84.24826,35.7356],[-84.24971,35.73664],[-84.25179,35.73903],[-84.25197,35.73971],[-84.25246,35.74045],[-84.25259,35.74236],[-84.25286,35.74256],[-84.25327,35.74341],[-84.25889,35.74933],[-84.2642,35.75341],[-84.26434,35.75488],[-84.26485,35.75591],[-84.26507,35.75936],[-84.26463,35.76],[-84.26015,35.76405],[-84.25538,35.76426],[-84.2545,35.76505],[-84.25452,35.76523],[-84.25406,35.76576],[-84.25407,35.76793],[-84.25396,35.76829],[-84.25363,35.7686],[-84.25365,35.76899],[-84.25319,35.76941],[-84.2534,35.77268],[-84.25569,35.77314],[-84.25779,35.77391],[-84.25953,35.77618],[-84.25977,35.7779],[-84.25908,35.77982],[-84.25809,35.78148],[-84.25836,35.78264],[-84.25962,35.78348],[-84.26059,35.78363]]]}}
