{"type":"Feature","properties":{"id":"wolf-river-fentress","name":"Wolf River (Fentress County headwaters)","waterbodyType":"creek","throughLakeIds":["dale-hollow-lake"],"allowOpenEnds":false,"source":"nhd-hu8-05130105","approximate":false,"labelAnchor":[-85.0477,36.53649],"bounds":[-85.2985,36.49597,-84.88141,36.63472],"crs":"EPSG:4326","coordinateOrder":"longitude,latitude","partCount":1,"vertexCount":414,"lengthKm":69.6,"sourceIds":["48155915","48155911","48155889","48155743","48155544","48155576","48155619","48155654","48155412","48155525","48155598","48155368","48155445","48155559","48155721","48155948","48155993","48156025","48155821","48155927","48155965","48156043","48156197","48156234","48156845","48155483","48155236","48155117","48155102","48155018","48155004","48154918","48154728","48154642","48154397","48154320","48154172","48154107","48154272","48154276","48154049","48153848","48153586","48153574","48153560","48153501","48153485","48153478","48153487","48153495","48153550","48153554","48153615","48153892","48153896","48153878","48153797","48153673","147450062","48153694","48153939","48153774","48153757","48153732","48153643","48153647","48153681","48153690","48153736","48153740","48153677","48153669","48153623","48153596","48153590","48153592","48153659","48153661","{EC10393B-22B2-44B7-A539-30A630697332}","48153666","48153607","48153818","48153835","48153887","48153904","48153911","48154159","48154168","48154218"],"sourceRetrieved":"2026-09-11","geometrySource":"nhd","hu8":"05130105","simplification":{"toleranceM":10,"verticesBefore":1069,"verticesAfter":414,"budgetBytes":81920},"trace":{"anchor":{"lat":36.5365,"lon":-85.0477,"snapDistM":0.6},"up":{"spec":"headwater","reason":"headwater","terminus":[-84.881414,36.495973],"distKmFromAnchor":26.9},"down":{"spec":"mouth","reason":"name-change","terminus":[-85.298205,36.612382],"enteredNames":["Obey River"],"distKmFromAnchor":42.28},"vaaUsed":false,"toleranceM":12}},"geometry":{"type":"MultiLineString","coordinates":[[[-84.88141,36.49597],[-84.88188,36.49692],[-84.88208,36.49884],[-84.88291,36.5018],[-84.88374,36.50298],[-84.8854,36.50347],[-84.8857,36.50472],[-84.88632,36.50588],[-84.88671,36.50715],[-84.88671,36.50814],[-84.88692,36.50874],[-84.88665,36.50967],[-84.88705,36.51204],[-84.8878,36.5127],[-84.89537,36.51608],[-84.89721,36.51611],[-84.89818,36.51665],[-84.8987,36.5176],[-84.8999,36.51839],[-84.90027,36.51899],[-84.9005,36.52022],[-84.90034,36.52116],[-84.90061,36.52187],[-84.90042,36.52262],[-84.90067,36.52293],[-84.90143,36.52329],[-84.90167,36.52375],[-84.90097,36.52611],[-84.90215,36.52709],[-84.90414,36.52767],[-84.90588,36.52786],[-84.90677,36.52821],[-84.90793,36.52833],[-84.91082,36.52782],[-84.91065,36.52722],[-84.91073,36.52686],[-84.91207,36.52591],[-84.91266,36.52529],[-84.91504,36.52488],[-84.91631,36.52419],[-84.91941,36.52331],[-84.92012,36.5229],[-84.92068,36.52197],[-84.92136,36.52184],[-84.92312,36.52254],[-84.92456,36.52372],[-84.92629,36.5244],[-84.92671,36.52533],[-84.92722,36.52575],[-84.92962,36.52672],[-84.93014,36.52794],[-84.93084,36.52854],[-84.93129,36.5287],[-84.9325,36.52872],[-84.93301,36.52899],[-84.93295,36.52997],[-84.93352,36.53045],[-84.93564,36.53107],[-84.93788,36.5311],[-84.93983,36.53177],[-84.94134,36.53202],[-84.94385,36.53318],[-84.95154,36.53512],[-84.95222,36.53547],[-84.95265,36.5363],[-84.95242,36.53782],[-84.95212,36.5392],[-84.9513,36.54104],[-84.9512,36.54204],[-84.95152,36.54335],[-84.95264,36.5444],[-84.95408,36.54503],[-84.95621,36.54539],[-84.95879,36.54508],[-84.96111,36.54499],[-84.96178,36.54455],[-84.96188,36.54406],[-84.96167,36.54291],[-84.96175,36.54153],[-84.96206,36.54124],[-84.96339,36.54124],[-84.96545,36.54217],[-84.96893,36.54439],[-84.96953,36.54499],[-84.96975,36.54548],[-84.96979,36.54628],[-84.96915,36.54859],[-84.97015,36.54973],[-84.97124,36.55033],[-84.9717,36.55048],[-84.97222,36.55044],[-84.97248,36.55019],[-84.97302,36.54856],[-84.9736,36.54787],[-84.97407,36.54761],[-84.97573,36.54709],[-84.97649,36.54709],[-84.9782,36.54751],[-84.97925,36.54797],[-84.97959,36.54834],[-84.98021,36.54954],[-84.98101,36.55308],[-84.98125,36.55324],[-84.98213,36.55307],[-84.98516,36.55072],[-84.98492,36.55032],[-84.98457,36.55011],[-84.98278,36.54948],[-84.98149,36.54936],[-84.98121,36.5492],[-84.98115,36.54895],[-84.98169,36.54803],[-84.98216,36.54648],[-84.98266,36.54554],[-84.98414,36.54486],[-84.9853,36.5449],[-84.98663,36.54467],[-84.98756,36.54425],[-84.98862,36.54344],[-84.9898,36.54319],[-84.99053,36.54344],[-84.99244,36.54553],[-84.99566,36.5478],[-84.99871,36.54902],[-84.99953,36.5492],[-85.0006,36.54916],[-85.00148,36.54939],[-85.00208,36.54999],[-85.00281,36.55143],[-85.00306,36.55158],[-85.00331,36.55153],[-85.00372,36.55114],[-85.00378,36.55022],[-85.00356,36.5493],[-85.0029,36.54802],[-85.00423,36.54454],[-85.00407,36.54368],[-85.00315,36.54231],[-85.00329,36.54192],[-85.00351,36.54188],[-85.00414,36.54204],[-85.00499,36.54251],[-85.00653,36.5438],[-85.01146,36.54612],[-85.01344,36.54637],[-85.01716,36.5463],[-85.01804,36.54639],[-85.01959,36.54685],[-85.02085,36.54758],[-85.02523,36.55112],[-85.02917,36.5526],[-85.02938,36.55281],[-85.02974,36.55284],[-85.0331,36.55429],[-85.03432,36.55447],[-85.03499,36.55409],[-85.03513,36.55347],[-85.03418,36.55119],[-85.03411,36.55073],[-85.03444,36.54993],[-85.03509,36.54963],[-85.03568,36.54968],[-85.0366,36.55012],[-85.03823,36.55202],[-85.03881,36.55213],[-85.03934,36.55176],[-85.03952,36.55126],[-85.03916,36.54862],[-85.03935,36.54712],[-85.0392,36.54492],[-85.03952,36.54366],[-85.04087,36.54206],[-85.04344,36.54037],[-85.04534,36.5376],[-85.04608,36.53682],[-85.04655,36.53663],[-85.04768,36.53649],[-85.04835,36.53668],[-85.04905,36.53716],[-85.05042,36.53863],[-85.0477,36.53649],[-85.0516,36.53999],[-85.05223,36.54107],[-85.05284,36.54272],[-85.05321,36.54276],[-85.05386,36.54212],[-85.05481,36.5418],[-85.05543,36.54182],[-85.056,36.54215],[-85.0565,36.54379],[-85.0581,36.54702],[-85.05859,36.54761],[-85.05897,36.54784],[-85.05966,36.54796],[-85.06123,36.54756],[-85.06217,36.54709],[-85.06259,36.54707],[-85.06306,36.54731],[-85.06286,36.54769],[-85.05929,36.55022],[-85.05682,36.55166],[-85.05629,36.5526],[-85.05642,36.55309],[-85.05769,36.55381],[-85.05848,36.55404],[-85.05977,36.55397],[-85.06239,36.55334],[-85.06351,36.55328],[-85.06669,36.5536],[-85.07071,36.55351],[-85.07155,36.55363],[-85.07235,36.55394],[-85.07321,36.5548],[-85.0733,36.55548],[-85.07201,36.55736],[-85.07014,36.55802],[-85.06815,36.55808],[-85.06777,36.55831],[-85.06773,36.55858],[-85.06864,36.55931],[-85.07067,36.56011],[-85.07343,36.56006],[-85.07427,36.56026],[-85.07487,36.56092],[-85.07544,36.56293],[-85.07697,36.5637],[-85.08002,36.56451],[-85.08068,36.56486],[-85.08064,36.56609],[-85.08041,36.56681],[-85.07929,36.56858],[-85.07974,36.56916],[-85.08025,36.56929],[-85.0818,36.56924],[-85.08523,36.57013],[-85.08788,36.57058],[-85.09255,36.57105],[-85.09342,36.57097],[-85.0945,36.57057],[-85.09593,36.5703],[-85.09852,36.56987],[-85.09886,36.56994],[-85.09929,36.57028],[-85.1003,36.57236],[-85.10213,36.5752],[-85.10522,36.57671],[-85.10588,36.57718],[-85.10648,36.57792],[-85.10659,36.5784],[-85.10619,36.57993],[-85.10489,36.58207],[-85.10506,36.58247],[-85.10535,36.58267],[-85.10641,36.58271],[-85.10862,36.58241],[-85.10988,36.58189],[-85.11071,36.5813],[-85.11154,36.58095],[-85.11304,36.58062],[-85.1143,36.58067],[-85.11489,36.58083],[-85.11604,36.58146],[-85.11768,36.58297],[-85.11854,36.58435],[-85.11874,36.58587],[-85.11755,36.58762],[-85.117,36.58985],[-85.11587,36.59067],[-85.11555,36.59118],[-85.11284,36.59277],[-85.10853,36.59236],[-85.10662,36.59353],[-85.106,36.59427],[-85.10514,36.59723],[-85.10513,36.59769],[-85.10558,36.5983],[-85.10656,36.59884],[-85.10782,36.59881],[-85.10901,36.5995],[-85.11013,36.59986],[-85.11151,36.60059],[-85.11293,36.60164],[-85.11549,36.60406],[-85.11636,36.60431],[-85.11742,36.60403],[-85.11838,36.60345],[-85.1189,36.60279],[-85.11904,36.60164],[-85.11946,36.60124],[-85.11998,36.60127],[-85.12089,36.6019],[-85.12292,36.6029],[-85.12358,36.60277],[-85.12521,36.60131],[-85.12668,36.59904],[-85.12902,36.59713],[-85.13047,36.59642],[-85.13309,36.59562],[-85.13697,36.59602],[-85.13886,36.59646],[-85.13953,36.59688],[-85.14028,36.59776],[-85.14029,36.59931],[-85.14119,36.60206],[-85.14318,36.60549],[-85.14323,36.60647],[-85.14381,36.60689],[-85.14683,36.60819],[-85.14798,36.60839],[-85.15053,36.60959],[-85.15137,36.61068],[-85.1514,36.61232],[-85.15319,36.61339],[-85.15595,36.61384],[-85.15792,36.61372],[-85.16111,36.61389],[-85.16296,36.61462],[-85.16445,36.61576],[-85.16568,36.6161],[-85.16666,36.61655],[-85.1685,36.61786],[-85.16951,36.61968],[-85.16987,36.62404],[-85.17019,36.62485],[-85.17037,36.62638],[-85.17138,36.62955],[-85.1733,36.63024],[-85.17691,36.63192],[-85.17914,36.63229],[-85.17975,36.63216],[-85.1802,36.63201],[-85.18119,36.63066],[-85.1834,36.62997],[-85.18489,36.62837],[-85.18652,36.62725],[-85.18803,36.62583],[-85.19012,36.62325],[-85.1904,36.62228],[-85.19021,36.6213],[-85.18874,36.61931],[-85.18745,36.619],[-85.18646,36.61911],[-85.18337,36.61885],[-85.1825,36.61848],[-85.1815,36.61767],[-85.18158,36.61619],[-85.1829,36.61545],[-85.185,36.6149],[-85.1884,36.61521],[-85.1905,36.61583],[-85.19277,36.61577],[-85.19627,36.61732],[-85.19957,36.61912],[-85.2005,36.6194],[-85.20148,36.61937],[-85.20828,36.61998],[-85.20918,36.62037],[-85.21052,36.62132],[-85.2115,36.62281],[-85.21219,36.62428],[-85.21425,36.62685],[-85.21595,36.62665],[-85.21775,36.6262],[-85.21854,36.62547],[-85.21896,36.62484],[-85.22012,36.62195],[-85.22281,36.61837],[-85.22435,36.6175],[-85.22551,36.61722],[-85.22659,36.61726],[-85.22829,36.61782],[-85.2286,36.6186],[-85.22887,36.62053],[-85.23038,36.62292],[-85.23157,36.62363],[-85.23266,36.62569],[-85.23441,36.62713],[-85.2358,36.62778],[-85.23768,36.62892],[-85.24316,36.62929],[-85.2463,36.62904],[-85.24825,36.6286],[-85.25187,36.62719],[-85.25356,36.62794],[-85.25618,36.62881],[-85.25704,36.62884],[-85.25878,36.6285],[-85.26111,36.62759],[-85.26263,36.62847],[-85.2651,36.63031],[-85.26605,36.63196],[-85.26754,36.63307],[-85.26904,36.6337],[-85.27011,36.63338],[-85.27408,36.63343],[-85.2781,36.63182],[-85.28036,36.63183],[-85.28278,36.63238],[-85.28725,36.63304],[-85.2879,36.63319],[-85.28827,36.6335],[-85.28962,36.634],[-85.29385,36.63472],[-85.29469,36.63311],[-85.29494,36.63097],[-85.29597,36.6297],[-85.29624,36.62865],[-85.29658,36.62482],[-85.29576,36.62121],[-85.29778,36.61908],[-85.29845,36.61765],[-85.2985,36.61679],[-85.29821,36.61506],[-85.2982,36.61238]]]}}
