{"type":"Feature","properties":{"id":"forge-creek-johnson","name":"Forge Creek (Johnson County)","waterbodyType":"creek","throughLakeIds":[],"allowOpenEnds":false,"source":"nhd-hu8-06010103","approximate":false,"labelAnchor":[-81.76384,36.44851],"bounds":[-81.78556,36.43289,-81.75208,36.45668],"crs":"EPSG:4326","coordinateOrder":"longitude,latitude","partCount":1,"vertexCount":46,"lengthKm":5.13,"sourceIds":["89938721","89938669","89938611","89938487","89938475","89938417","89938893","89939049","89939177","89939221","89939519","89939523","89939607"],"sourceRetrieved":"2026-09-11","geometrySource":"nhd","hu8":"06010103","simplification":{"toleranceM":10,"verticesBefore":380,"verticesAfter":46,"budgetBytes":81920},"trace":{"anchor":{"lat":36.448508,"lon":-81.763836,"snapDistM":0},"up":{"spec":"headwater","reason":"headwater","terminus":[-81.752085,36.456679],"distKmFromAnchor":1.67},"down":{"spec":"mouth","reason":"name-change","terminus":[-81.785557,36.433367],"enteredNames":["Roan Creek"],"distKmFromAnchor":3.24},"vaaUsed":false,"toleranceM":12}},"geometry":{"type":"MultiLineString","coordinates":[[[-81.75208,36.45668],[-81.75451,36.45549],[-81.75578,36.45359],[-81.75759,36.45301],[-81.75852,36.45219],[-81.75907,36.4519],[-81.76098,36.45191],[-81.76238,36.45087],[-81.76338,36.45037],[-81.76323,36.44924],[-81.76384,36.44851],[-81.76397,36.44789],[-81.7643,36.44739],[-81.76384,36.44851],[-81.76458,36.44693],[-81.76667,36.44558],[-81.76834,36.44508],[-81.7706,36.44333],[-81.77066,36.44259],[-81.77008,36.44168],[-81.77022,36.44122],[-81.77076,36.44079],[-81.77293,36.43996],[-81.77345,36.43854],[-81.7737,36.43662],[-81.77412,36.43573],[-81.77439,36.43549],[-81.77535,36.43559],[-81.77571,36.43543],[-81.77594,36.43405],[-81.77614,36.43387],[-81.77647,36.43389],[-81.7769,36.43454],[-81.77726,36.43477],[-81.77784,36.43487],[-81.77851,36.43468],[-81.77855,36.43444],[-81.77821,36.43407],[-81.77819,36.43379],[-81.77851,36.43331],[-81.77913,36.43306],[-81.78087,36.43289],[-81.78288,36.43365],[-81.78447,36.43374],[-81.78515,36.43373],[-81.78556,36.43337]]]}}
