{"type":"Feature","properties":{"id":"indian-creek-claiborne","name":"Indian Creek (Claiborne County)","waterbodyType":"creek","throughLakeIds":[],"allowOpenEnds":false,"source":"nhd-hu8-06010206","approximate":false,"labelAnchor":[-83.52688,36.62263],"bounds":[-83.60933,36.55694,-83.40067,36.66399],"crs":"EPSG:4326","coordinateOrder":"longitude,latitude","partCount":1,"vertexCount":507,"lengthKm":50.28,"sourceIds":["44949375","44949353","44949281","44949243","44949257","44949261","44949253","44949255","44949249","44949247","44949245","44949251","44949193","44949199","44949187","44949141","44949127","44949117","167678125","167678124","44949063","44949057","44949043","44949029","44949027","44948947","44948943","44948881","44948855","44948851","44948833","44948783","44948703","44948809","44949539","44949485","44949583","44949573","44949561","44949593","44949623","44949631","44949677","44949729","44949803","44949827","44949757","44949867","44949875","44949953","44950013","44950107","44950139","44950215","44950307","44950343","44950383"],"sourceRetrieved":"2026-09-11","geometrySource":"nhd","hu8":"06010206","simplification":{"toleranceM":10,"verticesBefore":2539,"verticesAfter":507,"budgetBytes":81920},"trace":{"anchor":{"lat":36.62263,"lon":-83.52688,"snapDistM":0.2},"up":{"spec":"headwater","reason":"headwater","terminus":[-83.434438,36.661098],"distKmFromAnchor":24.76},"down":{"spec":"mouth","reason":"name-change","terminus":[-83.606378,36.556944],"enteredNames":["Powell River"],"distKmFromAnchor":24.82},"vaaUsed":false,"toleranceM":12}},"geometry":{"type":"MultiLineString","coordinates":[[[-83.43444,36.6611],[-83.43413,36.66031],[-83.43363,36.65965],[-83.43087,36.65814],[-83.42979,36.65807],[-83.42892,36.65751],[-83.42811,36.65672],[-83.42735,36.65644],[-83.42687,36.65562],[-83.42558,36.65562],[-83.42248,36.65681],[-83.42171,36.65739],[-83.41974,36.65795],[-83.41867,36.65865],[-83.41774,36.65885],[-83.41698,36.65931],[-83.41339,36.66031],[-83.41296,36.6606],[-83.41254,36.66061],[-83.41235,36.66078],[-83.41251,36.66126],[-83.41232,36.66162],[-83.41165,36.662],[-83.41114,36.66178],[-83.41068,36.66196],[-83.40935,36.66322],[-83.40866,36.66328],[-83.40779,36.66311],[-83.40664,36.66372],[-83.40566,36.66399],[-83.40477,36.66338],[-83.40361,36.66158],[-83.40377,36.66066],[-83.40336,36.65997],[-83.40363,36.65985],[-83.40401,36.6591],[-83.4038,36.65912],[-83.40385,36.65894],[-83.40354,36.65885],[-83.4036,36.65871],[-83.40333,36.65842],[-83.40302,36.65868],[-83.40305,36.65835],[-83.40263,36.6584],[-83.40278,36.658],[-83.40206,36.65766],[-83.40127,36.65682],[-83.40103,36.65604],[-83.40104,36.65461],[-83.40067,36.65422],[-83.40121,36.65383],[-83.40185,36.65372],[-83.40193,36.65343],[-83.40262,36.653],[-83.40273,36.65275],[-83.40346,36.65278],[-83.40377,36.65225],[-83.40479,36.65172],[-83.40595,36.65073],[-83.4063,36.65055],[-83.40704,36.65076],[-83.40826,36.65002],[-83.40935,36.64912],[-83.40961,36.6491],[-83.41019,36.64863],[-83.41078,36.6484],[-83.41451,36.64565],[-83.41449,36.6451],[-83.415,36.64502],[-83.41691,36.64357],[-83.41725,36.64347],[-83.41773,36.64376],[-83.41779,36.64422],[-83.41837,36.64417],[-83.41854,36.64402],[-83.41886,36.6443],[-83.41914,36.64421],[-83.41929,36.64377],[-83.41903,36.64366],[-83.41929,36.64303],[-83.41951,36.64299],[-83.41976,36.64315],[-83.42006,36.64303],[-83.42022,36.64316],[-83.42034,36.64302],[-83.42016,36.64275],[-83.42069,36.64263],[-83.42068,36.64239],[-83.42176,36.6422],[-83.42224,36.642],[-83.42224,36.64168],[-83.4226,36.6417],[-83.4234,36.64114],[-83.42388,36.64109],[-83.42501,36.64018],[-83.42503,36.63914],[-83.42535,36.63905],[-83.42594,36.63934],[-83.42691,36.63897],[-83.42696,36.63862],[-83.42746,36.63793],[-83.42776,36.63779],[-83.42811,36.63787],[-83.42828,36.6381],[-83.4295,36.63807],[-83.43006,36.63789],[-83.43027,36.63755],[-83.43218,36.63716],[-83.43245,36.63703],[-83.43251,36.63674],[-83.43333,36.63653],[-83.4335,36.6367],[-83.43408,36.63681],[-83.43431,36.63704],[-83.43476,36.63708],[-83.4352,36.63681],[-83.43526,36.63626],[-83.43556,36.63581],[-83.43613,36.63546],[-83.43659,36.63555],[-83.43688,36.63596],[-83.43729,36.63597],[-83.43739,36.63629],[-83.43811,36.63611],[-83.43887,36.63544],[-83.44011,36.63602],[-83.44054,36.63586],[-83.44084,36.63533],[-83.44116,36.63549],[-83.44326,36.63481],[-83.44417,36.63386],[-83.44472,36.63359],[-83.44568,36.63349],[-83.44622,36.63369],[-83.44717,36.63348],[-83.44783,36.63271],[-83.44856,36.63304],[-83.44952,36.63296],[-83.45063,36.63316],[-83.45154,36.63231],[-83.45278,36.63181],[-83.45325,36.63206],[-83.45367,36.63198],[-83.45489,36.63128],[-83.45642,36.63066],[-83.45649,36.63048],[-83.45597,36.62929],[-83.45607,36.62898],[-83.45678,36.62913],[-83.4578,36.62972],[-83.45806,36.62971],[-83.45851,36.62954],[-83.45866,36.62819],[-83.46025,36.62807],[-83.46131,36.62838],[-83.46178,36.62831],[-83.46212,36.62851],[-83.46302,36.62843],[-83.46341,36.62731],[-83.46432,36.62623],[-83.46399,36.62481],[-83.46425,36.62436],[-83.46456,36.62425],[-83.46522,36.62436],[-83.46573,36.62469],[-83.46734,36.6271],[-83.46796,36.62766],[-83.46811,36.62847],[-83.46871,36.62839],[-83.46986,36.62734],[-83.47112,36.62711],[-83.47245,36.62723],[-83.47344,36.62689],[-83.47363,36.62667],[-83.47359,36.62568],[-83.47375,36.62556],[-83.47591,36.62556],[-83.47899,36.62618],[-83.47936,36.62642],[-83.47988,36.62725],[-83.48014,36.62723],[-83.48063,36.62681],[-83.48129,36.62666],[-83.4821,36.62745],[-83.48295,36.62728],[-83.48325,36.62675],[-83.48381,36.6263],[-83.48441,36.62628],[-83.48477,36.6266],[-83.4849,36.62757],[-83.4856,36.62798],[-83.48684,36.62792],[-83.48742,36.62769],[-83.48993,36.62733],[-83.49109,36.62764],[-83.49182,36.62803],[-83.49226,36.62715],[-83.4929,36.627],[-83.4936,36.62706],[-83.49368,36.62763],[-83.49345,36.6283],[-83.49366,36.62908],[-83.49361,36.63011],[-83.49385,36.63034],[-83.49421,36.63014],[-83.49473,36.62929],[-83.49567,36.62858],[-83.49589,36.62814],[-83.49587,36.62746],[-83.49611,36.62726],[-83.49671,36.62718],[-83.49753,36.62734],[-83.49821,36.62762],[-83.49933,36.62852],[-83.5,36.62829],[-83.5008,36.62734],[-83.50216,36.62797],[-83.50439,36.62812],[-83.50457,36.62835],[-83.5042,36.62882],[-83.5047,36.62939],[-83.508,36.63047],[-83.50809,36.6316],[-83.50837,36.63186],[-83.50923,36.63192],[-83.51008,36.63172],[-83.51035,36.63148],[-83.51059,36.63083],[-83.51156,36.62979],[-83.51297,36.62956],[-83.51344,36.62978],[-83.51344,36.63088],[-83.51371,36.63123],[-83.51428,36.63128],[-83.51549,36.63087],[-83.51598,36.63104],[-83.51633,36.63287],[-83.51671,36.63281],[-83.51733,36.63218],[-83.5177,36.63204],[-83.51794,36.63219],[-83.51784,36.63296],[-83.51799,36.6334],[-83.51838,36.63358],[-83.51927,36.63343],[-83.52026,36.63281],[-83.52116,36.63251],[-83.52177,36.63185],[-83.52202,36.6318],[-83.52278,36.63204],[-83.52351,36.63172],[-83.52353,36.63137],[-83.52274,36.63044],[-83.52264,36.62972],[-83.52302,36.62941],[-83.52414,36.62896],[-83.52427,36.62844],[-83.52409,36.62816],[-83.52332,36.6277],[-83.52188,36.62778],[-83.52188,36.62743],[-83.52223,36.62707],[-83.52264,36.62678],[-83.52525,36.62666],[-83.52629,36.6264],[-83.52594,36.62576],[-83.52487,36.62469],[-83.52432,36.62257],[-83.52466,36.62199],[-83.52507,36.62193],[-83.52569,36.6221],[-83.52688,36.62263],[-83.52793,36.62266],[-83.52801,36.62288],[-83.52737,36.6234],[-83.52745,36.62438],[-83.52854,36.62462],[-83.52938,36.62546],[-83.5298,36.62532],[-83.53008,36.625],[-83.52991,36.62311],[-83.53021,36.62234],[-83.53048,36.62233],[-83.53157,36.62306],[-83.5328,36.62308],[-83.53375,36.62249],[-83.53431,36.62158],[-83.53501,36.62151],[-83.52688,36.62263],[-83.53512,36.62154],[-83.53616,36.62192],[-83.53689,36.62177],[-83.53785,36.62096],[-83.53881,36.61895],[-83.5392,36.61877],[-83.54076,36.61872],[-83.54131,36.61849],[-83.5417,36.61811],[-83.54165,36.61738],[-83.54102,36.61645],[-83.53883,36.6151],[-83.53839,36.61456],[-83.53837,36.61368],[-83.53899,36.613],[-83.53948,36.6128],[-83.54038,36.61294],[-83.54114,36.61339],[-83.54149,36.61407],[-83.54155,36.61521],[-83.54183,36.61551],[-83.54228,36.61561],[-83.54288,36.61542],[-83.54312,36.61513],[-83.54307,36.61438],[-83.54258,36.61347],[-83.54256,36.61299],[-83.54305,36.61263],[-83.5436,36.61259],[-83.54392,36.61288],[-83.54418,36.61406],[-83.54458,36.61483],[-83.54584,36.61594],[-83.5463,36.61591],[-83.5465,36.61542],[-83.54642,36.61474],[-83.546,36.61354],[-83.54429,36.61065],[-83.54388,36.60945],[-83.54405,36.6089],[-83.54443,36.60889],[-83.54573,36.60952],[-83.54657,36.61028],[-83.54837,36.61241],[-83.54951,36.61322],[-83.55129,36.61404],[-83.55335,36.61457],[-83.55417,36.61503],[-83.55493,36.61523],[-83.55505,36.61437],[-83.55407,36.61187],[-83.55414,36.61106],[-83.55475,36.61003],[-83.55425,36.60819],[-83.55446,36.60798],[-83.55505,36.60803],[-83.55737,36.60911],[-83.55812,36.60913],[-83.55837,36.60825],[-83.55785,36.60624],[-83.55795,36.60594],[-83.55888,36.60604],[-83.55942,36.60643],[-83.55963,36.60702],[-83.55956,36.60847],[-83.5601,36.60999],[-83.56064,36.61087],[-83.56131,36.61139],[-83.56189,36.61153],[-83.5626,36.61142],[-83.56484,36.60985],[-83.56538,36.60987],[-83.56597,36.61013],[-83.56605,36.61061],[-83.56567,36.61082],[-83.56499,36.61083],[-83.56461,36.61109],[-83.56456,36.61185],[-83.56497,36.61207],[-83.56554,36.61191],[-83.56739,36.61061],[-83.56769,36.61013],[-83.56784,36.60858],[-83.56813,36.6083],[-83.56895,36.60795],[-83.56972,36.60779],[-83.57012,36.60797],[-83.57025,36.60843],[-83.57069,36.60881],[-83.57094,36.60995],[-83.57134,36.61035],[-83.57192,36.60992],[-83.57244,36.6088],[-83.57305,36.60824],[-83.57547,36.60797],[-83.57641,36.60768],[-83.57666,36.60724],[-83.5766,36.60693],[-83.57583,36.60552],[-83.57593,36.60524],[-83.57639,36.60518],[-83.57741,36.60562],[-83.57792,36.60611],[-83.57793,36.60686],[-83.57828,36.60721],[-83.57887,36.60708],[-83.57909,36.60686],[-83.57953,36.60501],[-83.5802,36.60421],[-83.5809,36.60414],[-83.58132,36.60432],[-83.58126,36.60526],[-83.58145,36.60557],[-83.58183,36.60566],[-83.58228,36.60545],[-83.58245,36.60482],[-83.58169,36.6028],[-83.58169,36.60239],[-83.58226,36.60215],[-83.58368,36.60258],[-83.58433,36.60263],[-83.58461,36.60241],[-83.58458,36.60186],[-83.58365,36.60123],[-83.58305,36.60056],[-83.58219,36.60005],[-83.5807,36.59989],[-83.57955,36.5994],[-83.57906,36.59878],[-83.57906,36.59819],[-83.57939,36.59775],[-83.58001,36.59765],[-83.58154,36.59818],[-83.58202,36.59816],[-83.58359,36.5974],[-83.58425,36.59666],[-83.58406,36.59567],[-83.58416,36.59545],[-83.58494,36.5944],[-83.5856,36.59393],[-83.58636,36.59369],[-83.58713,36.59366],[-83.5894,36.59457],[-83.59024,36.59519],[-83.59364,36.59938],[-83.59427,36.59973],[-83.59497,36.59956],[-83.59529,36.59913],[-83.59527,36.59787],[-83.59442,36.59636],[-83.59407,36.59374],[-83.59352,36.59218],[-83.59312,36.59154],[-83.59294,36.59069],[-83.59318,36.59011],[-83.59382,36.58962],[-83.5949,36.5897],[-83.59629,36.59097],[-83.59647,36.59157],[-83.59567,36.59318],[-83.5957,36.59377],[-83.59592,36.59419],[-83.59646,36.59478],[-83.59774,36.59562],[-83.59821,36.59587],[-83.59901,36.59595],[-83.59969,36.59581],[-83.60016,36.59548],[-83.60042,36.59422],[-83.60009,36.59329],[-83.59869,36.59189],[-83.59776,36.59021],[-83.59781,36.58934],[-83.59833,36.58815],[-83.59822,36.58748],[-83.59834,36.58718],[-83.59873,36.58689],[-83.59929,36.58679],[-83.60043,36.58707],[-83.60187,36.58782],[-83.6025,36.58883],[-83.60379,36.5892],[-83.60468,36.5889],[-83.60514,36.58805],[-83.60271,36.58468],[-83.6012,36.58342],[-83.59935,36.58254],[-83.5966,36.58174],[-83.59607,36.58127],[-83.59636,36.57931],[-83.59635,36.57747],[-83.59528,36.57441],[-83.59567,36.57349],[-83.59585,36.57025],[-83.59548,36.56954],[-83.59472,36.56875],[-83.5944,36.56783],[-83.59464,36.56742],[-83.59521,36.56725],[-83.59758,36.5677],[-83.59949,36.5699],[-83.6013,36.57059],[-83.60225,36.57138],[-83.6034,36.57141],[-83.60388,36.57109],[-83.60415,36.57057],[-83.6042,36.56842],[-83.60488,36.56723],[-83.60453,36.56483],[-83.60472,36.56355],[-83.60524,36.56318],[-83.60654,36.563],[-83.60905,36.56314],[-83.60933,36.56284],[-83.60915,36.56239],[-83.60758,36.56065],[-83.60672,36.55933],[-83.60638,36.55694]]]}}
