{"type":"Feature","properties":{"id":"mill-creek-overton","name":"Mill Creek (Overton County)","waterbodyType":"creek","throughLakeIds":["standingstone-lake","cordell-hull-reservoir"],"allowOpenEnds":false,"source":"nhd-hu8-05130106","approximate":false,"labelAnchor":[-85.48675,36.48237],"bounds":[-85.56517,36.43907,-85.35239,36.50052],"crs":"EPSG:4326","coordinateOrder":"longitude,latitude","partCount":1,"vertexCount":247,"lengthKm":34.54,"sourceIds":["136973830","136973832","136973834","136973836","136973840","136973838","136973842","136973844","136973846","136973848","136973850","136973852","136973854","136973856","136974957","136974961","136974959","136971895","136971897","136971899","136971901","136971903","136971905","136971907","136973828","136973826","136973954","136973952","136973950","136973948","136973946","136973944","136973942","136973940","136973938","136973936","136973934","136973932","136973930","136973928","136973926","136973924","136973922","136974924","136973999","136974001"],"sourceRetrieved":"2026-09-11","geometrySource":"nhd","hu8":"05130106","simplification":{"toleranceM":10,"verticesBefore":2716,"verticesAfter":247,"budgetBytes":81920},"trace":{"anchor":{"lat":36.4824,"lon":-85.4867,"snapDistM":5.5},"up":{"spec":"headwater","reason":"headwater","terminus":[-85.352394,36.439069],"distKmFromAnchor":20.19},"down":{"spec":"mouth","reason":"terminal-node","terminus":[-85.565171,36.48964],"enteredNames":null,"distKmFromAnchor":13.41},"vaaUsed":false,"toleranceM":12}},"geometry":{"type":"MultiLineString","coordinates":[[[-85.35239,36.43907],[-85.35352,36.44008],[-85.35347,36.44107],[-85.35388,36.44288],[-85.35445,36.44376],[-85.35504,36.4443],[-85.35754,36.44482],[-85.35839,36.44463],[-85.36071,36.44495],[-85.36266,36.4449],[-85.36392,36.44604],[-85.36594,36.44643],[-85.36714,36.44716],[-85.36844,36.44763],[-85.36941,36.44911],[-85.36994,36.44938],[-85.372,36.45325],[-85.37284,36.45414],[-85.37301,36.45455],[-85.37427,36.45558],[-85.37456,36.45629],[-85.37467,36.45748],[-85.37512,36.45793],[-85.37531,36.45944],[-85.37589,36.45964],[-85.37655,36.46028],[-85.37767,36.462],[-85.37808,36.46235],[-85.37851,36.46329],[-85.38034,36.46409],[-85.38127,36.46485],[-85.38163,36.46554],[-85.38195,36.46759],[-85.38371,36.4693],[-85.38518,36.46899],[-85.3869,36.46905],[-85.38835,36.46948],[-85.38966,36.46925],[-85.39172,36.47007],[-85.39239,36.47087],[-85.39281,36.47089],[-85.39348,36.47065],[-85.39395,36.47079],[-85.39437,36.47184],[-85.39469,36.47214],[-85.39539,36.47201],[-85.39596,36.47123],[-85.39761,36.47133],[-85.39906,36.47246],[-85.39957,36.47327],[-85.40019,36.47352],[-85.40211,36.4726],[-85.40468,36.47178],[-85.406,36.4719],[-85.40686,36.47172],[-85.41005,36.47222],[-85.411,36.47214],[-85.41376,36.47044],[-85.41395,36.46993],[-85.41382,36.46797],[-85.41448,36.46713],[-85.41524,36.46643],[-85.41712,36.46632],[-85.41802,36.46738],[-85.41814,36.46777],[-85.41834,36.46879],[-85.41807,36.47009],[-85.41852,36.47143],[-85.42035,36.47252],[-85.42256,36.47315],[-85.42347,36.4746],[-85.42422,36.47497],[-85.42466,36.47545],[-85.42489,36.47619],[-85.4252,36.47648],[-85.42897,36.47665],[-85.43035,36.47653],[-85.43213,36.4766],[-85.43286,36.47646],[-85.43425,36.47588],[-85.4358,36.47489],[-85.43751,36.47464],[-85.43835,36.47473],[-85.43951,36.47567],[-85.44029,36.47742],[-85.44158,36.47886],[-85.44252,36.48021],[-85.44301,36.48061],[-85.44594,36.48106],[-85.44652,36.4809],[-85.44707,36.48036],[-85.4475,36.48031],[-85.44812,36.4805],[-85.44968,36.48138],[-85.45174,36.48342],[-85.45215,36.48519],[-85.45232,36.48782],[-85.45275,36.48904],[-85.45314,36.4895],[-85.45352,36.48967],[-85.454,36.48972],[-85.45549,36.48936],[-85.45749,36.48838],[-85.45811,36.48792],[-85.46014,36.4872],[-85.46079,36.4873],[-85.46241,36.4879],[-85.4652,36.48946],[-85.46584,36.48951],[-85.46644,36.48929],[-85.46646,36.4888],[-85.46461,36.48643],[-85.46405,36.48521],[-85.46267,36.4839],[-85.46206,36.48354],[-85.46099,36.48331],[-85.45725,36.48348],[-85.45691,36.48319],[-85.45697,36.4826],[-85.45761,36.48203],[-85.45915,36.48133],[-85.46333,36.48065],[-85.4662,36.47988],[-85.46846,36.48047],[-85.46898,36.48045],[-85.46944,36.47993],[-85.46944,36.47943],[-85.4685,36.47791],[-85.46769,36.47703],[-85.46764,36.4764],[-85.46787,36.47564],[-85.46817,36.47545],[-85.4722,36.4747],[-85.4729,36.47399],[-85.47331,36.47386],[-85.47362,36.47392],[-85.47449,36.47456],[-85.47598,36.47516],[-85.47671,36.4758],[-85.47699,36.4763],[-85.47729,36.47858],[-85.47798,36.47954],[-85.47856,36.47979],[-85.47921,36.47967],[-85.48194,36.47832],[-85.48675,36.48237],[-85.48202,36.47829],[-85.48232,36.47827],[-85.48368,36.47887],[-85.48458,36.47948],[-85.48547,36.48035],[-85.48674,36.48236],[-85.48747,36.48282],[-85.48844,36.48316],[-85.48994,36.48291],[-85.49225,36.48177],[-85.49399,36.48043],[-85.49452,36.47932],[-85.49512,36.47883],[-85.4965,36.47831],[-85.49748,36.47829],[-85.49851,36.47906],[-85.50009,36.48087],[-85.5006,36.48257],[-85.50149,36.48324],[-85.50342,36.48361],[-85.50385,36.48397],[-85.50406,36.48448],[-85.50417,36.48575],[-85.50408,36.4862],[-85.50371,36.48676],[-85.50237,36.4876],[-85.50042,36.48791],[-85.49732,36.48792],[-85.49708,36.4882],[-85.49697,36.48876],[-85.49732,36.48935],[-85.49852,36.49024],[-85.4991,36.49049],[-85.50202,36.49002],[-85.50294,36.48959],[-85.50358,36.48947],[-85.5066,36.48956],[-85.50771,36.49051],[-85.50863,36.49197],[-85.50901,36.49298],[-85.50912,36.49457],[-85.50944,36.49526],[-85.51009,36.49584],[-85.51085,36.49612],[-85.51169,36.49608],[-85.51293,36.49534],[-85.51348,36.49451],[-85.51383,36.4932],[-85.51408,36.49292],[-85.51531,36.49295],[-85.5169,36.49255],[-85.51765,36.4926],[-85.51816,36.49298],[-85.51904,36.49449],[-85.52044,36.49604],[-85.52162,36.49773],[-85.52335,36.49909],[-85.52402,36.49939],[-85.52484,36.49926],[-85.52527,36.49888],[-85.52502,36.49718],[-85.52558,36.49679],[-85.52646,36.49673],[-85.52786,36.49708],[-85.53168,36.4976],[-85.53272,36.49801],[-85.53354,36.49856],[-85.5348,36.49837],[-85.53778,36.49863],[-85.54006,36.49951],[-85.54218,36.4997],[-85.54483,36.50052],[-85.5454,36.5005],[-85.54588,36.50025],[-85.54641,36.49969],[-85.54842,36.49858],[-85.54895,36.49628],[-85.54869,36.49501],[-85.54979,36.49475],[-85.55102,36.49319],[-85.55153,36.49298],[-85.5521,36.49294],[-85.55368,36.49311],[-85.55398,36.4934],[-85.55393,36.49392],[-85.55409,36.49413],[-85.55489,36.49444],[-85.55575,36.49453],[-85.55565,36.49593],[-85.55611,36.49829],[-85.55671,36.49959],[-85.55738,36.49988],[-85.55804,36.49936],[-85.56075,36.49614],[-85.56126,36.49573],[-85.56193,36.49547],[-85.56203,36.49426],[-85.56313,36.49394],[-85.56325,36.49299],[-85.5642,36.49209],[-85.56517,36.48964]]]}}
