{"type":"Feature","properties":{"id":"south-holston-river","name":"South Fork Holston River (South Holston tailwater)","waterbodyType":"tailrace","throughLakeIds":["boone-lake"],"allowOpenEnds":false,"source":"nhd-hu8-06010102","approximate":false,"labelAnchor":[-82.09709,36.5234],"bounds":[-82.26394,36.46396,-82.09074,36.52734],"crs":"EPSG:4326","coordinateOrder":"longitude,latitude","partCount":1,"vertexCount":149,"lengthKm":24.82,"sourceIds":["43583392","43583296","43583402","43583404","43583362","43583262","43583519","43583940","43584046","43584272","43584674","43584690","43584366","43584210","43584242","43584246","43584138","43584632","43585042","43585576","43585626","43585698","43585768","43585837","43585846","43585856","43585910","43585922","43586254","43586326","43586374","43586436","43586762","43586796","43586828","43586840","43586876","43587312","43587404","43587428","43587200","43587146","43587102","43587068","167741403","43587060"],"sourceRetrieved":"2026-09-11","geometrySource":"nhd","hu8":"06010102","simplification":{"toleranceM":10,"verticesBefore":299,"verticesAfter":149,"budgetBytes":81920},"trace":{"anchor":{"lat":36.5236,"lon":-82.0973,"snapDistM":28.9},"up":{"spec":"dam:South Holston Lake","reason":"headwater","terminus":[-82.090739,36.523968],"distKmFromAnchor":0.68},"down":{"spec":"mouth","reason":"cycle-guard","terminus":[-82.26315,36.476948],"enteredNames":null,"distKmFromAnchor":24.15},"vaaUsed":false,"toleranceM":12}},"geometry":{"type":"MultiLineString","coordinates":[[[-82.09074,36.52397],[-82.09676,36.52363],[-82.09807,36.52283],[-82.09988,36.52215],[-82.10149,36.52206],[-82.10183,36.52251],[-82.10437,36.52396],[-82.10545,36.52476],[-82.10723,36.52544],[-82.10866,36.52626],[-82.10966,36.52706],[-82.11133,36.52734],[-82.11201,36.52723],[-82.11234,36.527],[-82.1134,36.52692],[-82.11425,36.52625],[-82.11459,36.52515],[-82.11445,36.52334],[-82.11386,36.52173],[-82.11341,36.51966],[-82.11233,36.51751],[-82.10917,36.51408],[-82.1084,36.51296],[-82.10734,36.51056],[-82.10718,36.50978],[-82.1073,36.50834],[-82.10848,36.50592],[-82.10898,36.50533],[-82.11048,36.50446],[-82.11128,36.50443],[-82.11255,36.50468],[-82.11397,36.50541],[-82.11445,36.50602],[-82.11605,36.50699],[-82.1225,36.50931],[-82.12463,36.51048],[-82.12718,36.51237],[-82.12933,36.51372],[-82.13026,36.51375],[-82.1327,36.51447],[-82.13386,36.51463],[-82.13431,36.51485],[-82.13445,36.51512],[-82.13644,36.51609],[-82.13731,36.51604],[-82.13846,36.51531],[-82.13869,36.51426],[-82.13942,36.51349],[-82.13989,36.51338],[-82.14242,36.51347],[-82.14339,36.51377],[-82.14428,36.51441],[-82.14599,36.5174],[-82.14713,36.51835],[-82.14753,36.51859],[-82.1484,36.51876],[-82.14979,36.51858],[-82.15038,36.51809],[-82.15089,36.51722],[-82.15155,36.51482],[-82.15165,36.51318],[-82.15126,36.51161],[-82.15062,36.51093],[-82.14994,36.51059],[-82.14857,36.5085],[-82.14823,36.50713],[-82.14816,36.50564],[-82.14833,36.50509],[-82.14889,36.50453],[-82.14973,36.50395],[-82.15259,36.50281],[-82.15389,36.50253],[-82.15708,36.50264],[-82.15809,36.50238],[-82.15909,36.50138],[-82.16031,36.49887],[-82.1614,36.49798],[-82.16265,36.49725],[-82.16743,36.49536],[-82.16997,36.49547],[-82.17483,36.49499],[-82.1778,36.49505],[-82.18121,36.4947],[-82.18287,36.49465],[-82.18447,36.4948],[-82.18645,36.49449],[-82.19045,36.49451],[-82.19291,36.49392],[-82.19396,36.49321],[-82.19461,36.49228],[-82.19498,36.49048],[-82.19509,36.48849],[-82.1949,36.48825],[-82.19483,36.48731],[-82.19499,36.48668],[-82.19545,36.48635],[-82.1957,36.48573],[-82.19601,36.48547],[-82.19695,36.48524],[-82.20141,36.48511],[-82.20237,36.48481],[-82.20448,36.48325],[-82.20467,36.48286],[-82.20521,36.48238],[-82.20527,36.48202],[-82.20608,36.4814],[-82.20795,36.48048],[-82.20866,36.47993],[-82.2101,36.47748],[-82.21469,36.47619],[-82.21607,36.47616],[-82.21816,36.47549],[-82.21898,36.47495],[-82.21905,36.47463],[-82.22009,36.47361],[-82.22082,36.47216],[-82.22117,36.46593],[-82.22194,36.46507],[-82.22307,36.46456],[-82.22435,36.46422],[-82.22534,36.46414],[-82.22753,36.46424],[-82.22906,36.46396],[-82.23079,36.46417],[-82.23177,36.46453],[-82.23455,36.46624],[-82.23545,36.46642],[-82.23683,36.46732],[-82.23718,36.46785],[-82.23882,36.46901],[-82.24059,36.47116],[-82.24167,36.47178],[-82.24363,36.47195],[-82.24708,36.47147],[-82.24815,36.47151],[-82.24914,36.47207],[-82.24982,36.47331],[-82.2503,36.4739],[-82.25086,36.47429],[-82.25381,36.47456],[-82.25653,36.47658],[-82.25739,36.47704],[-82.25899,36.47737],[-82.26174,36.47673],[-82.26278,36.47674],[-82.26315,36.47695],[-82.26394,36.47704],[-82.26315,36.47695],[-82.26341,36.47698]]]}}
