{"type":"Feature","properties":{"id":"reedy-creek","name":"Reedy Creek","waterbodyType":"creek","throughLakeIds":[],"allowOpenEnds":false,"source":"nhd-hu8-06010102","approximate":false,"labelAnchor":[-82.57285,36.55233],"bounds":[-82.57757,36.53868,-82.27706,36.6115],"crs":"EPSG:4326","coordinateOrder":"longitude,latitude","partCount":1,"vertexCount":337,"lengthKm":37.99,"sourceIds":["43585184","43584738","43584730","43584744","43584696","43584484","43584638","43584978","43585132","43585492","43585490","43585462","43585094","43584774","43584762","43584534","43584316","43584266","43584152","43583912","43583856","43583796","43583428","43583252","43583170","43583090","43582998","43582758","43582706","43582676","43582786","43582822","43582724","43582626","43582546","43582510","43582334","43582198","43582326","43582324","43582118","43582100","43582040","43581736","43581708","43581238","43581194","43580582","43585208"],"sourceRetrieved":"2026-09-11","geometrySource":"nhd","hu8":"06010102","simplification":{"toleranceM":10,"verticesBefore":2156,"verticesAfter":337,"budgetBytes":81920},"trace":{"anchor":{"lat":36.5523,"lon":-82.5729,"snapDistM":5.9},"up":{"spec":"headwater","reason":"headwater","terminus":[-82.277063,36.611501],"distKmFromAnchor":37.73},"down":{"spec":"mouth","reason":"terminal-node","terminus":[-82.577567,36.550314],"enteredNames":null,"distKmFromAnchor":0.25},"vaaUsed":false,"toleranceM":12}},"geometry":{"type":"MultiLineString","coordinates":[[[-82.27706,36.6115],[-82.27802,36.61102],[-82.27821,36.61073],[-82.27819,36.60944],[-82.2775,36.60807],[-82.27748,36.6075],[-82.27799,36.60684],[-82.27836,36.60568],[-82.27885,36.60511],[-82.27907,36.60385],[-82.27972,36.6034],[-82.28081,36.60212],[-82.28331,36.60063],[-82.28475,36.60036],[-82.28542,36.60009],[-82.28648,36.5993],[-82.28762,36.59815],[-82.28881,36.59747],[-82.29035,36.59703],[-82.29204,36.59601],[-82.29447,36.59517],[-82.29711,36.59364],[-82.30208,36.58994],[-82.30305,36.58816],[-82.30415,36.58772],[-82.30547,36.58751],[-82.3064,36.58695],[-82.30697,36.58618],[-82.3096,36.58511],[-82.31038,36.5849],[-82.3114,36.58496],[-82.31257,36.5845],[-82.31386,36.58336],[-82.31655,36.5822],[-82.31733,36.58159],[-82.31813,36.58146],[-82.31907,36.58165],[-82.31978,36.58206],[-82.32072,36.58236],[-82.32228,36.58169],[-82.32406,36.58193],[-82.32509,36.58166],[-82.32571,36.58187],[-82.32655,36.58165],[-82.32716,36.58176],[-82.32723,36.58131],[-82.32793,36.5808],[-82.3285,36.58055],[-82.32999,36.58048],[-82.33044,36.5803],[-82.33017,36.57991],[-82.33046,36.57955],[-82.33211,36.57899],[-82.33308,36.57843],[-82.33361,36.57861],[-82.33427,36.57848],[-82.33471,36.57786],[-82.33529,36.57745],[-82.33538,36.57645],[-82.33594,36.57575],[-82.33613,36.57516],[-82.33642,36.57494],[-82.33906,36.57488],[-82.34103,36.57425],[-82.34443,36.57279],[-82.34563,36.57249],[-82.34634,36.57269],[-82.34729,36.57319],[-82.34735,36.57338],[-82.34711,36.57354],[-82.34709,36.57384],[-82.34726,36.57407],[-82.34799,36.57423],[-82.34801,36.57513],[-82.34817,36.57534],[-82.34912,36.57517],[-82.34956,36.57559],[-82.35007,36.57575],[-82.35095,36.57572],[-82.35168,36.57531],[-82.35206,36.57527],[-82.35261,36.57552],[-82.35346,36.57562],[-82.35424,36.57609],[-82.35467,36.57603],[-82.35525,36.57564],[-82.35582,36.57602],[-82.357,36.5764],[-82.3576,36.57677],[-82.35933,36.57668],[-82.36085,36.57719],[-82.36266,36.57757],[-82.36308,36.57733],[-82.36318,36.57655],[-82.36348,36.57608],[-82.36448,36.57559],[-82.3653,36.57547],[-82.36581,36.57507],[-82.36703,36.57469],[-82.36986,36.57312],[-82.37113,36.57323],[-82.37172,36.57311],[-82.37258,36.57263],[-82.37341,36.57265],[-82.37418,36.57248],[-82.37563,36.57269],[-82.37676,36.57263],[-82.38069,36.572],[-82.38181,36.572],[-82.38358,36.57231],[-82.38381,36.5722],[-82.38409,36.57153],[-82.38516,36.57173],[-82.3854,36.57142],[-82.3857,36.57134],[-82.38739,36.57181],[-82.38814,36.57114],[-82.39,36.5704],[-82.39246,36.57042],[-82.39273,36.57024],[-82.39283,36.56976],[-82.39323,36.56959],[-82.39424,36.56995],[-82.39617,36.56942],[-82.39645,36.56904],[-82.39813,36.56886],[-82.39852,36.56911],[-82.3992,36.56902],[-82.39999,36.56934],[-82.40103,36.56929],[-82.40175,36.56959],[-82.40323,36.57082],[-82.40502,36.57041],[-82.40558,36.57008],[-82.40699,36.57038],[-82.40744,36.57064],[-82.40777,36.57121],[-82.40785,36.57209],[-82.41084,36.57299],[-82.41212,36.5733],[-82.41188,36.57267],[-82.41213,36.57237],[-82.41451,36.5731],[-82.41573,36.57317],[-82.41599,36.57335],[-82.41622,36.5741],[-82.41997,36.5746],[-82.42083,36.57453],[-82.42174,36.57478],[-82.42298,36.57483],[-82.42326,36.57478],[-82.42366,36.5743],[-82.42459,36.57388],[-82.42514,36.57337],[-82.42675,36.57302],[-82.42744,36.57304],[-82.42809,36.57256],[-82.42845,36.57203],[-82.42958,36.57142],[-82.43047,36.57027],[-82.43119,36.57004],[-82.43332,36.57123],[-82.43432,36.57163],[-82.43518,36.57239],[-82.43566,36.57296],[-82.4357,36.57322],[-82.43598,36.57332],[-82.43589,36.57353],[-82.43665,36.57377],[-82.43688,36.5745],[-82.43929,36.57628],[-82.43984,36.57626],[-82.44036,36.57581],[-82.44076,36.57462],[-82.44103,36.57077],[-82.44305,36.57002],[-82.44496,36.56994],[-82.44526,36.57005],[-82.4463,36.57105],[-82.44706,36.57144],[-82.44774,36.57146],[-82.44836,36.57123],[-82.44944,36.57043],[-82.44977,36.57],[-82.45083,36.56982],[-82.45091,36.56938],[-82.45067,36.56899],[-82.45101,36.56873],[-82.45149,36.56583],[-82.45187,36.56509],[-82.45272,36.56476],[-82.45438,36.56359],[-82.45562,36.56318],[-82.4578,36.56288],[-82.45847,36.56217],[-82.45932,36.56177],[-82.46203,36.56136],[-82.4628,36.56146],[-82.46336,36.56172],[-82.46705,36.56092],[-82.469,36.559],[-82.46909,36.55803],[-82.46953,36.55765],[-82.47035,36.55771],[-82.4711,36.55821],[-82.47175,36.55795],[-82.47178,36.55735],[-82.47219,36.55724],[-82.47356,36.55838],[-82.47375,36.55908],[-82.47419,36.55905],[-82.4749,36.55861],[-82.47569,36.55868],[-82.47572,36.55806],[-82.47599,36.55784],[-82.47581,36.55766],[-82.47583,36.55738],[-82.47539,36.55711],[-82.47644,36.55659],[-82.47476,36.55529],[-82.47493,36.55427],[-82.47672,36.55382],[-82.47771,36.55326],[-82.47885,36.55326],[-82.4827,36.5523],[-82.48328,36.55287],[-82.48355,36.55289],[-82.48377,36.55174],[-82.48408,36.55143],[-82.48514,36.55091],[-82.48744,36.55034],[-82.48816,36.54975],[-82.48945,36.5497],[-82.48945,36.55032],[-82.48972,36.55033],[-82.48995,36.55014],[-82.49035,36.54916],[-82.49193,36.54867],[-82.49211,36.54845],[-82.49202,36.54792],[-82.49215,36.54771],[-82.49244,36.5477],[-82.49293,36.54806],[-82.49308,36.54724],[-82.49337,36.54709],[-82.49395,36.54712],[-82.4942,36.5474],[-82.49398,36.54856],[-82.49409,36.54875],[-82.49465,36.54881],[-82.49547,36.54857],[-82.49596,36.54825],[-82.49699,36.54705],[-82.49791,36.54689],[-82.50049,36.54498],[-82.50056,36.54413],[-82.5009,36.5439],[-82.50023,36.54319],[-82.50112,36.54294],[-82.50026,36.54238],[-82.50043,36.54198],[-82.50285,36.54057],[-82.50359,36.54052],[-82.50631,36.54075],[-82.50687,36.54041],[-82.5077,36.53939],[-82.5084,36.53909],[-82.51031,36.53901],[-82.51178,36.53868],[-82.51296,36.53934],[-82.51386,36.53924],[-82.51439,36.53933],[-82.51477,36.53989],[-82.5163,36.54043],[-82.51651,36.54128],[-82.51706,36.54181],[-82.51724,36.54233],[-82.51858,36.54304],[-82.51964,36.54396],[-82.52064,36.54436],[-82.522,36.54528],[-82.52343,36.54587],[-82.52317,36.54665],[-82.5233,36.54689],[-82.52437,36.54691],[-82.52492,36.54748],[-82.52592,36.54735],[-82.52669,36.54796],[-82.52808,36.54868],[-82.52895,36.54877],[-82.52975,36.54972],[-82.53094,36.55015],[-82.53181,36.55096],[-82.53191,36.55149],[-82.5316,36.55175],[-82.53175,36.5521],[-82.53259,36.55207],[-82.5331,36.55169],[-82.53383,36.55198],[-82.5359,36.55348],[-82.53841,36.55456],[-82.54208,36.55767],[-82.54273,36.55803],[-82.5437,36.55813],[-82.54531,36.55797],[-82.54642,36.55725],[-82.54681,36.55683],[-82.5468,36.55662],[-82.54622,36.55595],[-82.54463,36.55463],[-82.54458,36.55433],[-82.54477,36.55403],[-82.54517,36.55388],[-82.55064,36.55406],[-82.5538,36.55533],[-82.55488,36.55607],[-82.55611,36.55637],[-82.55706,36.5572],[-82.5588,36.55754],[-82.56181,36.5572],[-82.56428,36.55664],[-82.56496,36.55624],[-82.56661,36.55592],[-82.56766,36.55519],[-82.56844,36.55393],[-82.56907,36.55371],[-82.56906,36.55264],[-82.56994,36.55085],[-82.5705,36.55081],[-82.5712,36.55102],[-82.57226,36.55173],[-82.57327,36.55267],[-82.5743,36.55291],[-82.57534,36.55247],[-82.57285,36.55233],[-82.57576,36.55236],[-82.57757,36.55031]]]}}
