{"type":"Feature","properties":{"id":"duck-river-tailwater","name":"Duck River (Normandy tailwater)","waterbodyType":"tailrace","throughLakeIds":[],"allowOpenEnds":false,"source":"nhd-hu8-06040002","approximate":false,"labelAnchor":[-86.46281,35.48274],"bounds":[-87.00473,35.44316,-86.24352,35.63149],"crs":"EPSG:4326","coordinateOrder":"longitude,latitude","partCount":1,"vertexCount":1112,"lengthKm":178.85,"sourceIds":["{D18C2E5F-8125-46DF-BBB1-CD00E49D755E}","136617026","136617027","136617028","136617029","136617031","136617030","136617032","136617033","136617034","136617035","136617036","136617037","136617038","136617039","136617040","136617041","136617042","136617043","136617044","136617045","136617046","136617047","136617048","136617049","136617050","136617053","136617054","136617052","136617051","136617055","136617056","136617057","136617058","136617059","136617060","136617061","136617063","136617173","136617066","136617067","136617068","136617069","136617070","136617072","136617071","136617073","136617074","136617075","136617076","136617077","136617078","136617079","136617080","136617081","136617151","136617084","136617150","136617086","136617087","136617088","136617149","136617090","136617665","136617687","136617688","136617667","136617668","136617669","136617689","136617685","136617671","136617692","136617695","136617696","136617672","136617673","136617674","136617675","136617676","136617678","136617677","136617680","136617679","{B4253530-72A6-4BFA-BA2A-4E78BF380179}","136616606","136616607","136616605","136616604","136616603","136616602","136616601","136616600","136616598","136616599","136616597","136616596","136616720","136616594","136616721","136616592","136616591","136616590","136616589","136616723","136616724","{12E956F0-9427-4E90-A2C5-349784A88D18}","136616875","136616760","136616759","136616758","136616757","136616755","136616754","136616753","136616752","136616756","136616751","136616770","136616769","136616576","136616575","136616574","136616573","136616572","136616570","136616571","136616569","136616529","{1A33AA4E-2B6D-48D0-9170-42E147BAA6BD}","136616528","136616527","136616526","136616777","136616776","136616775","136616767","136616766","136616765","136616764","136616763","136616762","136616761","136616490","136616774","136616773","136616772","136616771","136616961","136616957","136616956","136616955","136616954","136616369","136616368","136616367","136616366","136616361","136616362","136616365","136616364","136616363","136616350","136616351","136616352","136616353","136616354","136616355","136616356","136616357","136616358","136616359","136616360","136616343","136616348","136616347","136616346","136616345","136616344","136616342","136616341","136616340","136616339","136616338","{E773111E-A185-4A31-B697-BB0C7625D6A5}","136616336","136616337","136616335","136616334","136616309","136616308","136616310","136616414","136616413","136616418","136616415","136616416","136616417","136616426","136616424","136616425","{5AC70F27-2C64-44AA-A42B-BDD1AE217988}","136555436"],"sourceRetrieved":"2026-09-11","geometrySource":"nhd","hu8":"06040002","simplification":{"toleranceM":10,"verticesBefore":10812,"verticesAfter":1112,"budgetBytes":81920},"trace":{"anchor":{"lat":35.4829,"lon":-86.4626,"snapDistM":26.2},"up":{"spec":"dam:Normandy Lake","reason":"dam","terminus":[-86.246699,35.465139],"distKmFromAnchor":43.96},"down":{"spec":"mouth","reason":"terminal-node","terminus":[-87.00155,35.607065],"enteredNames":null,"distKmFromAnchor":135.97},"vaaUsed":false,"toleranceM":12}},"geometry":{"type":"MultiLineString","coordinates":[[[-86.2467,35.46514],[-86.24636,35.46283],[-86.24596,35.46171],[-86.24371,35.45779],[-86.24352,35.45656],[-86.24369,35.45546],[-86.24397,35.45479],[-86.24458,35.4541],[-86.24656,35.45293],[-86.24782,35.4525],[-86.24957,35.45242],[-86.25216,35.45309],[-86.25377,35.45442],[-86.25499,35.45596],[-86.2578,35.4578],[-86.26036,35.45817],[-86.26085,35.4584],[-86.26152,35.45902],[-86.26254,35.4606],[-86.26319,35.46215],[-86.26298,35.46243],[-86.26279,35.46361],[-86.26191,35.46429],[-86.26144,35.46497],[-86.26112,35.46683],[-86.26128,35.46788],[-86.26222,35.46882],[-86.26374,35.46868],[-86.26395,35.46892],[-86.26401,35.46945],[-86.26465,35.47018],[-86.26476,35.4707],[-86.26462,35.47098],[-86.26651,35.47233],[-86.26844,35.47471],[-86.26948,35.47535],[-86.27075,35.4756],[-86.27092,35.47588],[-86.27203,35.47549],[-86.27281,35.47586],[-86.27389,35.4761],[-86.27553,35.47786],[-86.27605,35.47786],[-86.27727,35.47872],[-86.27829,35.47878],[-86.28047,35.47997],[-86.28121,35.48005],[-86.28169,35.47971],[-86.28281,35.47746],[-86.28352,35.47642],[-86.284,35.47417],[-86.28341,35.47302],[-86.28385,35.47235],[-86.28957,35.46888],[-86.29442,35.46689],[-86.29675,35.4657],[-86.29855,35.46523],[-86.29894,35.46528],[-86.29934,35.46556],[-86.29979,35.46649],[-86.29974,35.46969],[-86.30021,35.47035],[-86.30081,35.47049],[-86.30221,35.4705],[-86.30269,35.47085],[-86.30363,35.47101],[-86.30432,35.47094],[-86.30487,35.47075],[-86.30572,35.46996],[-86.30632,35.46967],[-86.30733,35.46813],[-86.30805,35.46739],[-86.30835,35.4674],[-86.30963,35.46816],[-86.31016,35.46872],[-86.31177,35.47137],[-86.31275,35.47242],[-86.31377,35.47492],[-86.31443,35.47536],[-86.31582,35.47572],[-86.31906,35.47602],[-86.31991,35.47556],[-86.32169,35.4737],[-86.32233,35.47339],[-86.32291,35.4735],[-86.32321,35.47438],[-86.32297,35.47589],[-86.32157,35.47763],[-86.32109,35.47893],[-86.32121,35.48049],[-86.32155,35.48087],[-86.32271,35.48045],[-86.32437,35.48047],[-86.32706,35.47889],[-86.32808,35.47846],[-86.32918,35.47838],[-86.33125,35.47853],[-86.33201,35.47842],[-86.33212,35.47766],[-86.33284,35.47733],[-86.33371,35.47744],[-86.33524,35.47729],[-86.33691,35.47741],[-86.34143,35.47829],[-86.34245,35.47836],[-86.34319,35.47799],[-86.34429,35.47702],[-86.34537,35.47589],[-86.34587,35.47494],[-86.34646,35.47278],[-86.34667,35.4713],[-86.34658,35.46952],[-86.34622,35.46767],[-86.34632,35.46521],[-86.3476,35.4626],[-86.34835,35.46193],[-86.34927,35.46157],[-86.35276,35.46108],[-86.35419,35.46111],[-86.35449,35.46128],[-86.35549,35.46142],[-86.35725,35.46271],[-86.36075,35.46593],[-86.3642,35.46747],[-86.36464,35.4675],[-86.36751,35.46855],[-86.37197,35.47059],[-86.37385,35.47091],[-86.37632,35.47099],[-86.37688,35.47091],[-86.37788,35.47031],[-86.37917,35.46892],[-86.37965,35.46712],[-86.3795,35.46649],[-86.37869,35.46487],[-86.37833,35.4632],[-86.37427,35.45937],[-86.37382,35.45831],[-86.37405,35.45705],[-86.37393,35.45653],[-86.37121,35.45486],[-86.37076,35.45421],[-86.37077,35.45365],[-86.37104,35.45333],[-86.37152,35.45308],[-86.37602,35.45154],[-86.37639,35.45106],[-86.3769,35.44963],[-86.37871,35.4474],[-86.38091,35.4455],[-86.3821,35.44425],[-86.38342,35.44342],[-86.38423,35.44316],[-86.38554,35.44354],[-86.38773,35.4446],[-86.39002,35.44825],[-86.39045,35.449],[-86.3905,35.44979],[-86.38997,35.45148],[-86.38979,35.45271],[-86.38992,35.45304],[-86.39035,35.45334],[-86.39339,35.45464],[-86.39471,35.45494],[-86.39612,35.45504],[-86.39785,35.45501],[-86.40041,35.45473],[-86.40352,35.45392],[-86.40473,35.45371],[-86.40551,35.45375],[-86.40635,35.45407],[-86.4074,35.45471],[-86.40801,35.45531],[-86.40851,35.45613],[-86.40858,35.45684],[-86.40808,35.45774],[-86.40544,35.45984],[-86.40471,35.46025],[-86.40128,35.46139],[-86.39963,35.4625],[-86.39733,35.46296],[-86.39685,35.46332],[-86.39628,35.46436],[-86.39554,35.46589],[-86.39519,35.46718],[-86.39528,35.47055],[-86.39589,35.47245],[-86.39655,35.47344],[-86.39766,35.47436],[-86.39851,35.47466],[-86.40392,35.4747],[-86.40497,35.47443],[-86.40687,35.47338],[-86.40883,35.47296],[-86.40944,35.47288],[-86.41327,35.47307],[-86.41449,35.4729],[-86.41481,35.47252],[-86.41521,35.47132],[-86.41511,35.46905],[-86.41493,35.46871],[-86.41281,35.46691],[-86.41274,35.46629],[-86.41304,35.4654],[-86.41367,35.46481],[-86.4151,35.46417],[-86.41834,35.46332],[-86.41998,35.46329],[-86.42235,35.46375],[-86.42413,35.46426],[-86.42492,35.46505],[-86.42632,35.46572],[-86.42839,35.46776],[-86.43012,35.46854],[-86.43048,35.46925],[-86.4307,35.4734],[-86.43109,35.47486],[-86.43193,35.47548],[-86.43431,35.47657],[-86.43589,35.47695],[-86.43641,35.47687],[-86.43811,35.47583],[-86.43915,35.47536],[-86.44033,35.47422],[-86.4417,35.47339],[-86.44262,35.47314],[-86.44362,35.47308],[-86.44573,35.47247],[-86.44739,35.47243],[-86.44913,35.47173],[-86.44967,35.47082],[-86.44988,35.47005],[-86.44956,35.4674],[-86.44909,35.46625],[-86.44807,35.46471],[-86.44696,35.46404],[-86.44633,35.4634],[-86.44611,35.46246],[-86.44618,35.46193],[-86.44739,35.46044],[-86.44831,35.46001],[-86.45045,35.45825],[-86.45495,35.45507],[-86.4559,35.4547],[-86.45666,35.45487],[-86.45707,35.45524],[-86.45747,35.45629],[-86.45752,35.45717],[-86.457,35.45846],[-86.45477,35.46199],[-86.45452,35.46273],[-86.45948,35.46744],[-86.46297,35.46969],[-86.46373,35.47047],[-86.46397,35.47119],[-86.46423,35.47375],[-86.46415,35.47667],[-86.46378,35.47788],[-86.46262,35.47981],[-86.46221,35.48101],[-86.46232,35.48142],[-86.46213,35.48169],[-86.46245,35.48235],[-86.46291,35.48283],[-86.46434,35.48351],[-86.46491,35.48347],[-86.4655,35.48323],[-86.46673,35.48314],[-86.46751,35.48289],[-86.46927,35.48271],[-86.46991,35.48248],[-86.47023,35.48176],[-86.47035,35.47969],[-86.46986,35.47674],[-86.47046,35.47633],[-86.4727,35.47543],[-86.47339,35.47533],[-86.47429,35.4755],[-86.47623,35.47619],[-86.47776,35.47695],[-86.47903,35.47726],[-86.48339,35.47799],[-86.4845,35.47801],[-86.48489,35.47786],[-86.48566,35.47713],[-86.48673,35.47554],[-86.48727,35.47346],[-86.48731,35.47132],[-86.48752,35.47101],[-86.48735,35.4698],[-86.48791,35.46849],[-86.48818,35.46826],[-86.48853,35.46625],[-86.48921,35.46538],[-86.48999,35.46485],[-86.49053,35.46472],[-86.49118,35.465],[-86.49296,35.46643],[-86.49392,35.46745],[-86.49388,35.46821],[-86.4917,35.47076],[-86.49174,35.4712],[-86.49197,35.47147],[-86.49243,35.47179],[-86.49294,35.47193],[-86.49452,35.47192],[-86.49525,35.47167],[-86.49655,35.47076],[-86.49888,35.46831],[-86.50216,35.46726],[-86.50289,35.46782],[-86.50381,35.46908],[-86.50491,35.4716],[-86.50524,35.47358],[-86.50512,35.47403],[-86.50534,35.47586],[-86.50519,35.47655],[-86.50487,35.47717],[-86.5043,35.47766],[-86.50239,35.47833],[-86.50057,35.47927],[-86.49931,35.48055],[-86.49875,35.48176],[-86.49703,35.48334],[-86.49575,35.48479],[-86.49533,35.48561],[-86.4953,35.486],[-86.49548,35.4862],[-86.49628,35.48658],[-86.49778,35.48659],[-86.50112,35.48566],[-86.50169,35.48566],[-86.50284,35.48611],[-86.50376,35.48673],[-86.50672,35.48913],[-86.50818,35.48937],[-86.50949,35.48922],[-86.51118,35.48872],[-86.51275,35.48798],[-86.5138,35.48738],[-86.51496,35.4864],[-86.51573,35.48516],[-86.51635,35.4829],[-86.51687,35.48258],[-86.51717,35.48154],[-86.51779,35.48124],[-86.51818,35.48032],[-86.51962,35.48037],[-86.52146,35.48088],[-86.52321,35.4819],[-86.52459,35.48334],[-86.5269,35.48531],[-86.52805,35.4872],[-86.52854,35.48838],[-86.5288,35.49058],[-86.52883,35.49278],[-86.52845,35.49551],[-86.52777,35.49629],[-86.52762,35.49672],[-86.52645,35.49796],[-86.52623,35.49843],[-86.52629,35.49888],[-86.52685,35.49933],[-86.52794,35.49969],[-86.53044,35.49971],[-86.5315,35.49957],[-86.53217,35.49977],[-86.53344,35.49979],[-86.53422,35.50019],[-86.53445,35.50065],[-86.53457,35.50124],[-86.53444,35.50198],[-86.53344,35.50494],[-86.53305,35.50547],[-86.53295,35.50624],[-86.53157,35.50733],[-86.53123,35.50786],[-86.53131,35.50856],[-86.53218,35.51008],[-86.5326,35.51039],[-86.53315,35.51039],[-86.53405,35.50992],[-86.53605,35.50811],[-86.53746,35.50764],[-86.53886,35.5063],[-86.53939,35.50564],[-86.53982,35.50463],[-86.54035,35.50426],[-86.54093,35.50415],[-86.54153,35.50444],[-86.54212,35.50502],[-86.54239,35.50558],[-86.5424,35.50717],[-86.54215,35.50749],[-86.54208,35.50794],[-86.5425,35.51033],[-86.54249,35.51151],[-86.54195,35.51417],[-86.54086,35.51523],[-86.53906,35.51583],[-86.53819,35.51594],[-86.53745,35.51635],[-86.53724,35.51666],[-86.53741,35.51757],[-86.53829,35.51928],[-86.53849,35.52109],[-86.5383,35.52148],[-86.53791,35.52176],[-86.53739,35.52187],[-86.53599,35.52174],[-86.53459,35.52139],[-86.53428,35.52117],[-86.5325,35.52066],[-86.53103,35.51996],[-86.53049,35.51985],[-86.52987,35.52],[-86.52873,35.52109],[-86.52831,35.52209],[-86.52844,35.52285],[-86.52817,35.52362],[-86.52824,35.52415],[-86.52842,35.52493],[-86.52951,35.52675],[-86.5295,35.52809],[-86.53011,35.53005],[-86.53026,35.5321],[-86.53008,35.53287],[-86.52946,35.53398],[-86.52831,35.53534],[-86.52736,35.53603],[-86.5264,35.5372],[-86.52669,35.53744],[-86.52632,35.53835],[-86.52659,35.53925],[-86.52875,35.54007],[-86.53042,35.54015],[-86.53264,35.53822],[-86.5339,35.53652],[-86.53594,35.53525],[-86.53657,35.53511],[-86.53859,35.536],[-86.53998,35.53693],[-86.54108,35.53826],[-86.5419,35.53887],[-86.54238,35.53978],[-86.54209,35.54009],[-86.54303,35.54137],[-86.54393,35.54209],[-86.54492,35.54223],[-86.54541,35.54207],[-86.54578,35.54163],[-86.54666,35.53978],[-86.54672,35.53919],[-86.54727,35.53822],[-86.54831,35.53735],[-86.54944,35.53686],[-86.55218,35.53672],[-86.55569,35.53716],[-86.56105,35.53856],[-86.56275,35.5388],[-86.56343,35.53866],[-86.56446,35.53789],[-86.56477,35.53788],[-86.56684,35.53624],[-86.5678,35.53597],[-86.56872,35.53612],[-86.57006,35.53681],[-86.57074,35.53736],[-86.57094,35.53775],[-86.57264,35.53877],[-86.57325,35.5395],[-86.57334,35.54106],[-86.57302,35.54317],[-86.57319,35.54345],[-86.57239,35.54549],[-86.57228,35.54619],[-86.57241,35.54649],[-86.57248,35.55109],[-86.57313,35.55252],[-86.57432,35.55331],[-86.5757,35.55351],[-86.57704,35.55328],[-86.57996,35.55239],[-86.58044,35.55261],[-86.58184,35.55249],[-86.58241,35.55311],[-86.58239,35.55337],[-86.58272,35.55387],[-86.58451,35.55501],[-86.58519,35.55526],[-86.58638,35.55532],[-86.58744,35.55508],[-86.58797,35.55476],[-86.58822,35.55431],[-86.58849,35.5533],[-86.58846,35.55268],[-86.58882,35.55197],[-86.58908,35.55077],[-86.5893,35.54708],[-86.59024,35.54576],[-86.59071,35.54555],[-86.59188,35.54538],[-86.59446,35.54537],[-86.59478,35.54555],[-86.59583,35.54565],[-86.59619,35.54552],[-86.59739,35.54611],[-86.59879,35.5472],[-86.59972,35.54742],[-86.60109,35.54712],[-86.60166,35.54685],[-86.60243,35.54603],[-86.60287,35.54529],[-86.60293,35.54487],[-86.60275,35.54447],[-86.6011,35.54345],[-86.59836,35.54272],[-86.5966,35.54272],[-86.59585,35.54224],[-86.59497,35.53891],[-86.59496,35.53771],[-86.59459,35.53649],[-86.59498,35.53509],[-86.59507,35.53363],[-86.59533,35.53297],[-86.59597,35.53284],[-86.59682,35.53305],[-86.60135,35.53478],[-86.60288,35.53556],[-86.60467,35.53678],[-86.60695,35.53928],[-86.60749,35.53959],[-86.60789,35.53963],[-86.60896,35.53942],[-86.61046,35.53882],[-86.61148,35.5387],[-86.61197,35.53835],[-86.61411,35.53761],[-86.61517,35.53708],[-86.61642,35.53599],[-86.61781,35.53421],[-86.618,35.53364],[-86.61868,35.53305],[-86.61959,35.53305],[-86.62241,35.53399],[-86.62342,35.53451],[-86.62384,35.53498],[-86.62458,35.53672],[-86.6244,35.53697],[-86.62447,35.53739],[-86.62546,35.53859],[-86.62578,35.53929],[-86.62615,35.54038],[-86.62573,35.54196],[-86.6258,35.54227],[-86.62631,35.54271],[-86.62829,35.5435],[-86.62915,35.54439],[-86.63005,35.54823],[-86.6307,35.54931],[-86.63135,35.54953],[-86.63294,35.54923],[-86.63871,35.54918],[-86.64484,35.54851],[-86.64534,35.54865],[-86.64578,35.549],[-86.64612,35.55013],[-86.64563,35.55232],[-86.64525,35.55281],[-86.64536,35.55315],[-86.64505,35.55404],[-86.64515,35.55496],[-86.64384,35.55646],[-86.64271,35.55898],[-86.64108,35.55964],[-86.63931,35.55986],[-86.63879,35.56007],[-86.63864,35.56029],[-86.63735,35.56071],[-86.63581,35.56088],[-86.63412,35.56083],[-86.63371,35.56105],[-86.63294,35.56115],[-86.63144,35.56122],[-86.63113,35.5611],[-86.62948,35.56144],[-86.62814,35.56191],[-86.62735,35.56272],[-86.62624,35.56442],[-86.62613,35.56619],[-86.62634,35.56811],[-86.62613,35.56838],[-86.62626,35.56882],[-86.62693,35.56953],[-86.62903,35.57043],[-86.63049,35.57141],[-86.63114,35.57205],[-86.63261,35.57426],[-86.63365,35.57541],[-86.63419,35.57559],[-86.63492,35.57635],[-86.63681,35.57785],[-86.63686,35.57806],[-86.63852,35.57891],[-86.64111,35.57971],[-86.64178,35.58083],[-86.64246,35.58271],[-86.64261,35.58293],[-86.64317,35.58315],[-86.64471,35.58316],[-86.64677,35.58268],[-86.64738,35.58272],[-86.64854,35.58235],[-86.64917,35.582],[-86.64929,35.58174],[-86.64989,35.58158],[-86.65012,35.58136],[-86.6507,35.57991],[-86.65137,35.57911],[-86.65473,35.57861],[-86.65656,35.57816],[-86.66032,35.57931],[-86.66226,35.58],[-86.66314,35.58048],[-86.66381,35.58135],[-86.66373,35.58269],[-86.66279,35.58554],[-86.66218,35.58635],[-86.66085,35.58909],[-86.66109,35.58996],[-86.66338,35.59317],[-86.6641,35.59482],[-86.66429,35.59566],[-86.66401,35.59839],[-86.66455,35.60003],[-86.66525,35.60076],[-86.66606,35.60112],[-86.66668,35.60099],[-86.66735,35.60052],[-86.66947,35.59789],[-86.66977,35.59715],[-86.67026,35.59451],[-86.67032,35.59345],[-86.67014,35.5929],[-86.67053,35.59252],[-86.67107,35.59095],[-86.67254,35.59035],[-86.67292,35.58995],[-86.67358,35.58975],[-86.67504,35.58962],[-86.67731,35.58989],[-86.67804,35.5897],[-86.68059,35.59009],[-86.68457,35.58808],[-86.68543,35.58785],[-86.68631,35.58784],[-86.68693,35.58811],[-86.68749,35.58883],[-86.68945,35.59346],[-86.69111,35.59391],[-86.6934,35.59393],[-86.6955,35.59267],[-86.69889,35.59152],[-86.69959,35.59109],[-86.70003,35.59051],[-86.70084,35.58852],[-86.70117,35.58652],[-86.70281,35.58524],[-86.70523,35.58415],[-86.70595,35.58365],[-86.70652,35.58361],[-86.70885,35.58283],[-86.71131,35.5813],[-86.71248,35.58088],[-86.7131,35.58088],[-86.71379,35.58119],[-86.71585,35.58317],[-86.71645,35.58352],[-86.71907,35.58571],[-86.72024,35.58642],[-86.7214,35.58674],[-86.72276,35.58636],[-86.72463,35.58447],[-86.72588,35.5838],[-86.72713,35.58352],[-86.72986,35.58319],[-86.73032,35.58296],[-86.73115,35.58294],[-86.73168,35.58314],[-86.73263,35.58274],[-86.73307,35.5823],[-86.73314,35.58199],[-86.73263,35.57746],[-86.73296,35.57713],[-86.73606,35.57591],[-86.73681,35.5759],[-86.7374,35.57613],[-86.73886,35.5777],[-86.74073,35.57937],[-86.74313,35.58091],[-86.74472,35.58117],[-86.74653,35.58176],[-86.74841,35.58201],[-86.75047,35.58164],[-86.75176,35.58094],[-86.75308,35.57944],[-86.75338,35.57872],[-86.75452,35.57782],[-86.75889,35.57855],[-86.75943,35.57823],[-86.76043,35.57823],[-86.76183,35.5778],[-86.76226,35.5778],[-86.76306,35.57694],[-86.76414,35.57522],[-86.76481,35.57478],[-86.76679,35.57465],[-86.76786,35.57487],[-86.76954,35.57572],[-86.7713,35.57718],[-86.77218,35.57758],[-86.77383,35.5772],[-86.77536,35.57654],[-86.77734,35.57631],[-86.7783,35.57639],[-86.77951,35.57671],[-86.78045,35.57723],[-86.78116,35.57842],[-86.78175,35.57992],[-86.78183,35.58248],[-86.7807,35.58537],[-86.78069,35.5859],[-86.78089,35.5863],[-86.78176,35.5868],[-86.78278,35.58702],[-86.7837,35.58688],[-86.78652,35.58604],[-86.78921,35.5857],[-86.79008,35.586],[-86.79066,35.58714],[-86.79042,35.58796],[-86.78942,35.58922],[-86.78789,35.59074],[-86.78584,35.59187],[-86.78451,35.59215],[-86.78418,35.59239],[-86.78339,35.59259],[-86.78092,35.59275],[-86.7778,35.59421],[-86.77603,35.59785],[-86.77577,35.59875],[-86.77601,35.59955],[-86.77705,35.60074],[-86.7781,35.60242],[-86.78078,35.60369],[-86.78271,35.6067],[-86.78382,35.60772],[-86.78654,35.60848],[-86.78973,35.60911],[-86.79097,35.60911],[-86.79195,35.60877],[-86.79381,35.60663],[-86.79553,35.60547],[-86.79587,35.60506],[-86.79668,35.6047],[-86.80193,35.60516],[-86.80525,35.60629],[-86.80719,35.60742],[-86.80897,35.60965],[-86.80901,35.60998],[-86.80983,35.61132],[-86.80979,35.61302],[-86.81054,35.61419],[-86.81405,35.61711],[-86.81581,35.61831],[-86.81842,35.62087],[-86.81848,35.62137],[-86.81939,35.62241],[-86.81984,35.6226],[-86.82077,35.62382],[-86.82145,35.62436],[-86.82242,35.62449],[-86.82287,35.62437],[-86.82414,35.62338],[-86.8246,35.62228],[-86.82367,35.61951],[-86.82331,35.61922],[-86.82306,35.61813],[-86.82317,35.61785],[-86.82256,35.61632],[-86.82127,35.61437],[-86.81999,35.61344],[-86.81956,35.61286],[-86.81955,35.61222],[-86.81985,35.61129],[-86.8206,35.60994],[-86.82134,35.60909],[-86.82225,35.60875],[-86.82336,35.60883],[-86.82686,35.60957],[-86.82827,35.60959],[-86.82923,35.60945],[-86.8305,35.60824],[-86.83069,35.60773],[-86.83249,35.60645],[-86.83294,35.60574],[-86.83351,35.60555],[-86.83566,35.60412],[-86.83691,35.60308],[-86.83661,35.59999],[-86.83674,35.59833],[-86.83662,35.59655],[-86.83631,35.59622],[-86.83603,35.59508],[-86.83625,35.59474],[-86.83637,35.59368],[-86.83689,35.59282],[-86.83731,35.59245],[-86.83804,35.59211],[-86.84025,35.59172],[-86.84189,35.59199],[-86.84353,35.59271],[-86.84536,35.59421],[-86.84583,35.59482],[-86.847,35.59693],[-86.84776,35.59884],[-86.84811,35.60142],[-86.84773,35.60482],[-86.8485,35.60598],[-86.85069,35.60794],[-86.85084,35.60826],[-86.85149,35.60875],[-86.85355,35.60977],[-86.85445,35.61129],[-86.8549,35.61172],[-86.85604,35.61449],[-86.85346,35.61937],[-86.8528,35.62026],[-86.85244,35.62042],[-86.85105,35.62184],[-86.85025,35.62329],[-86.84925,35.62394],[-86.8473,35.62487],[-86.84574,35.626],[-86.84491,35.627],[-86.84481,35.62773],[-86.84541,35.62864],[-86.84632,35.62927],[-86.84948,35.63049],[-86.85007,35.63038],[-86.85246,35.63057],[-86.85405,35.63046],[-86.85668,35.63099],[-86.85781,35.63139],[-86.85907,35.63149],[-86.86061,35.63079],[-86.86221,35.63037],[-86.86335,35.62989],[-86.86376,35.6295],[-86.86433,35.62827],[-86.86446,35.62739],[-86.86415,35.6261],[-86.86385,35.62576],[-86.86255,35.62496],[-86.86184,35.62401],[-86.86056,35.62286],[-86.86023,35.62209],[-86.86032,35.62128],[-86.86242,35.61856],[-86.86291,35.61819],[-86.86382,35.61791],[-86.86865,35.6175],[-86.87214,35.61669],[-86.87608,35.61537],[-86.878,35.61456],[-86.87912,35.6137],[-86.87985,35.6129],[-86.88006,35.61203],[-86.87956,35.61023],[-86.87525,35.6044],[-86.87518,35.60411],[-86.87548,35.60363],[-86.87526,35.60212],[-86.87541,35.60118],[-86.87576,35.60085],[-86.87654,35.60046],[-86.87759,35.60073],[-86.8791,35.60184],[-86.88154,35.6032],[-86.88387,35.60484],[-86.88467,35.60545],[-86.88531,35.6065],[-86.88722,35.60828],[-86.88873,35.61037],[-86.89023,35.61173],[-86.89106,35.61192],[-86.89201,35.61165],[-86.89272,35.61122],[-86.89442,35.60958],[-86.89548,35.60822],[-86.89575,35.60729],[-86.89827,35.60328],[-86.89878,35.60177],[-86.8995,35.60057],[-86.89969,35.59981],[-86.89956,35.59914],[-86.89836,35.59837],[-86.8941,35.59722],[-86.89243,35.59691],[-86.88954,35.59671],[-86.88827,35.59633],[-86.8856,35.59289],[-86.88456,35.59224],[-86.88302,35.59189],[-86.88064,35.59216],[-86.87396,35.5939],[-86.87169,35.59508],[-86.86866,35.5971],[-86.86781,35.59741],[-86.86716,35.59742],[-86.86627,35.59696],[-86.8654,35.59577],[-86.86427,35.59329],[-86.86398,35.59254],[-86.86403,35.59215],[-86.86334,35.59056],[-86.86344,35.58819],[-86.86315,35.58789],[-86.86308,35.58715],[-86.86368,35.585],[-86.86434,35.58346],[-86.86474,35.58326],[-86.86506,35.58286],[-86.86549,35.58174],[-86.86537,35.58069],[-86.86583,35.57881],[-86.86528,35.57686],[-86.86532,35.57548],[-86.8673,35.57391],[-86.86803,35.57318],[-86.86813,35.57276],[-86.86854,35.5725],[-86.86887,35.57252],[-86.86937,35.57197],[-86.86984,35.57184],[-86.87047,35.57142],[-86.87067,35.57104],[-86.87102,35.57091],[-86.87124,35.57057],[-86.87197,35.57006],[-86.87474,35.56864],[-86.87609,35.56687],[-86.87641,35.56613],[-86.87775,35.56043],[-86.87794,35.56013],[-86.87815,35.55851],[-86.87981,35.55524],[-86.88181,35.55293],[-86.8826,35.55237],[-86.88407,35.55215],[-86.88584,35.55158],[-86.88708,35.55147],[-86.88833,35.55109],[-86.8924,35.55057],[-86.89717,35.55087],[-86.89816,35.55135],[-86.89892,35.55199],[-86.89959,35.55318],[-86.8995,35.55453],[-86.89827,35.55851],[-86.8978,35.55905],[-86.89772,35.55946],[-86.89642,35.56062],[-86.89458,35.56169],[-86.89395,35.56257],[-86.89377,35.56381],[-86.89379,35.56633],[-86.89403,35.56658],[-86.89406,35.56718],[-86.89385,35.56773],[-86.89432,35.56814],[-86.89588,35.56864],[-86.8965,35.56872],[-86.89713,35.56858],[-86.89987,35.56651],[-86.90245,35.56499],[-86.90313,35.56484],[-86.90574,35.56492],[-86.90803,35.566],[-86.90926,35.56682],[-86.91056,35.56801],[-86.91286,35.56933],[-86.91582,35.57209],[-86.9167,35.57264],[-86.91776,35.57309],[-86.91828,35.57316],[-86.92151,35.57304],[-86.92409,35.57193],[-86.92473,35.5714],[-86.92623,35.56817],[-86.92623,35.56768],[-86.92696,35.56638],[-86.92738,35.56598],[-86.92729,35.56517],[-86.92793,35.56424],[-86.92839,35.56406],[-86.92881,35.56315],[-86.92866,35.5629],[-86.92882,35.56246],[-86.92921,35.5622],[-86.9301,35.56018],[-86.93083,35.55967],[-86.9331,35.55855],[-86.93519,35.55765],[-86.93622,35.55743],[-86.93739,35.55763],[-86.93847,35.55804],[-86.93928,35.55927],[-86.93945,35.55982],[-86.93908,35.5605],[-86.93629,35.56327],[-86.93543,35.56443],[-86.93441,35.56691],[-86.93453,35.56839],[-86.93538,35.57024],[-86.93746,35.57227],[-86.93855,35.57309],[-86.93923,35.57396],[-86.94026,35.57468],[-86.94112,35.57481],[-86.94359,35.57458],[-86.94521,35.57403],[-86.94632,35.57401],[-86.94765,35.57357],[-86.94808,35.57312],[-86.94912,35.57116],[-86.95143,35.56833],[-86.9524,35.56736],[-86.95335,35.56698],[-86.95432,35.567],[-86.95865,35.56779],[-86.96382,35.56837],[-86.96772,35.56933],[-86.96973,35.57006],[-86.97046,35.57076],[-86.97066,35.57199],[-86.97001,35.57468],[-86.96876,35.57753],[-86.96878,35.5781],[-86.96907,35.57858],[-86.96965,35.57896],[-86.97031,35.57917],[-86.97825,35.58055],[-86.98235,35.58075],[-86.98366,35.58064],[-86.98478,35.58083],[-86.98593,35.58158],[-86.98668,35.58229],[-86.98795,35.5846],[-86.98822,35.58637],[-86.98794,35.58816],[-86.98748,35.58863],[-86.98657,35.58876],[-86.98196,35.58759],[-86.97979,35.58719],[-86.97543,35.58734],[-86.97163,35.58631],[-86.96749,35.58471],[-86.96672,35.58454],[-86.96597,35.58463],[-86.96512,35.58519],[-86.96323,35.58689],[-86.95964,35.59209],[-86.95848,35.59429],[-86.9579,35.59575],[-86.95778,35.59679],[-86.95819,35.59814],[-86.95923,35.59868],[-86.96444,35.60014],[-86.96621,35.60017],[-86.96731,35.59989],[-86.96828,35.59933],[-86.96906,35.59838],[-86.96965,35.5967],[-86.96993,35.59489],[-86.97065,35.59235],[-86.97112,35.59131],[-86.97189,35.59032],[-86.97264,35.58993],[-86.97483,35.58966],[-86.97832,35.58989],[-86.9798,35.59036],[-86.9812,35.59112],[-86.98521,35.59372],[-86.98722,35.59522],[-86.98951,35.59718],[-86.99219,35.59837],[-86.99289,35.59848],[-86.99353,35.59824],[-86.9969,35.59575],[-86.99827,35.5951],[-87.0019,35.59536],[-87.00301,35.59588],[-87.00357,35.59643],[-87.00445,35.59826],[-87.00473,35.60027],[-87.00412,35.6042],[-87.00394,35.60442],[-87.00345,35.60457],[-87.00194,35.60551],[-87.00161,35.60624],[-87.00155,35.60707]]]}}
