{"type":"Feature","properties":{"id":"gap-creek-claiborne","name":"Gap Creek (Claiborne County)","waterbodyType":"creek","throughLakeIds":[],"allowOpenEnds":false,"source":"nhd-hu8-06010206","approximate":false,"labelAnchor":[-83.67465,36.56524],"bounds":[-83.68256,36.54182,-83.6588,36.59924],"crs":"EPSG:4326","coordinateOrder":"longitude,latitude","partCount":1,"vertexCount":126,"lengthKm":11.88,"sourceIds":["44950459","44950353","44950349","44950299","44950205","44949861","44950557","44950651","44950681","44950749"],"sourceRetrieved":"2026-09-11","geometrySource":"nhd","hu8":"06010206","simplification":{"toleranceM":10,"verticesBefore":641,"verticesAfter":126,"budgetBytes":81920},"trace":{"anchor":{"lat":36.56524,"lon":-83.674653,"snapDistM":0},"up":{"spec":"headwater","reason":"headwater","terminus":[-83.658801,36.599237],"distKmFromAnchor":6.61},"down":{"spec":"mouth","reason":"terminal-node","terminus":[-83.682564,36.541823],"enteredNames":null,"distKmFromAnchor":4.26},"vaaUsed":false,"toleranceM":12}},"geometry":{"type":"MultiLineString","coordinates":[[[-83.6588,36.59924],[-83.65935,36.59874],[-83.65992,36.59854],[-83.66036,36.5986],[-83.66112,36.59834],[-83.66269,36.59833],[-83.66313,36.5978],[-83.66474,36.5982],[-83.66582,36.59873],[-83.66659,36.59862],[-83.66848,36.59781],[-83.66879,36.59786],[-83.66949,36.59863],[-83.66966,36.59854],[-83.6705,36.59524],[-83.67103,36.59438],[-83.67105,36.59409],[-83.67351,36.59136],[-83.67423,36.59138],[-83.6744,36.5911],[-83.67511,36.59072],[-83.67579,36.59042],[-83.67613,36.59044],[-83.67624,36.59012],[-83.67599,36.59],[-83.67654,36.58974],[-83.67648,36.58924],[-83.67678,36.5887],[-83.67664,36.58842],[-83.67789,36.5871],[-83.67862,36.58523],[-83.67879,36.58352],[-83.67935,36.5828],[-83.67925,36.5817],[-83.67937,36.58134],[-83.67904,36.58083],[-83.67978,36.58058],[-83.67938,36.57893],[-83.67973,36.57791],[-83.68144,36.57516],[-83.68143,36.57472],[-83.68162,36.57451],[-83.68128,36.57404],[-83.68143,36.57368],[-83.68091,36.57304],[-83.68004,36.57234],[-83.67935,36.57202],[-83.67913,36.57133],[-83.67959,36.5708],[-83.67881,36.57026],[-83.67744,36.56868],[-83.6769,36.56738],[-83.67635,36.56726],[-83.67634,36.56682],[-83.67656,36.56673],[-83.67645,36.5664],[-83.67541,36.56542],[-83.67465,36.56524],[-83.67476,36.56493],[-83.67452,36.5647],[-83.67388,36.56477],[-83.67249,36.56339],[-83.67211,36.56272],[-83.67244,36.56225],[-83.67288,36.56224],[-83.6729,36.56211],[-83.672,36.56146],[-83.67175,36.5608],[-83.67107,36.56082],[-83.67113,36.56032],[-83.67465,36.56524],[-83.67113,36.56032],[-83.67132,36.56004],[-83.67045,36.55935],[-83.67027,36.5588],[-83.66961,36.55887],[-83.66943,36.55857],[-83.66959,36.55824],[-83.66936,36.5579],[-83.66965,36.55728],[-83.66947,36.55697],[-83.66958,36.55686],[-83.66986,36.55701],[-83.67004,36.55694],[-83.67038,36.55645],[-83.67056,36.55551],[-83.66973,36.55451],[-83.66957,36.55406],[-83.66889,36.55412],[-83.66896,36.55376],[-83.66923,36.55351],[-83.66915,36.55329],[-83.66845,36.55345],[-83.66828,36.5533],[-83.66847,36.55293],[-83.66836,36.55278],[-83.66796,36.55293],[-83.66749,36.55247],[-83.66713,36.55256],[-83.66685,36.55234],[-83.66737,36.55171],[-83.66709,36.55114],[-83.66576,36.55024],[-83.66534,36.54979],[-83.665,36.54848],[-83.66436,36.54753],[-83.66455,36.54642],[-83.66508,36.54583],[-83.6653,36.54493],[-83.66612,36.54409],[-83.66653,36.54337],[-83.66767,36.54263],[-83.66845,36.54272],[-83.67066,36.5436],[-83.67135,36.54362],[-83.67169,36.54322],[-83.67223,36.54308],[-83.67336,36.54355],[-83.67435,36.54297],[-83.67525,36.54293],[-83.67584,36.54315],[-83.67727,36.54278],[-83.67793,36.54224],[-83.67931,36.54259],[-83.68059,36.54205],[-83.68256,36.54182]]]}}
