{"type":"Feature","properties":{"id":"brush-creek-cocke","name":"Brush Creek (Cocke County)","waterbodyType":"creek","throughLakeIds":[],"allowOpenEnds":false,"source":"nhd-hu8-06010105","approximate":false,"labelAnchor":[-82.93447,35.95872],"bounds":[-82.93561,35.94051,-82.9065,35.97985],"crs":"EPSG:4326","coordinateOrder":"longitude,latitude","partCount":1,"vertexCount":70,"lengthKm":8.07,"sourceIds":["90661665","90661215","90660993","90660811","90660735","90660681","90660619","90660605","90660539","90660323","90660257","90659959","90661817","90662241","90662255","90662535","90662735","90662743"],"sourceRetrieved":"2026-09-11","geometrySource":"nhd","hu8":"06010105","simplification":{"toleranceM":10,"verticesBefore":332,"verticesAfter":70,"budgetBytes":81920},"trace":{"anchor":{"lat":35.9587,"lon":-82.9345,"snapDistM":3.4},"up":{"spec":"headwater","reason":"headwater","terminus":[-82.907096,35.979849],"distKmFromAnchor":5.27},"down":{"spec":"mouth","reason":"name-change","terminus":[-82.92868,35.940508],"enteredNames":["French Broad River"],"distKmFromAnchor":1.92},"vaaUsed":false,"toleranceM":12}},"geometry":{"type":"MultiLineString","coordinates":[[[-82.9071,35.97985],[-82.90691,35.97801],[-82.9065,35.97679],[-82.90708,35.97528],[-82.90681,35.97326],[-82.90801,35.97303],[-82.90931,35.97297],[-82.91255,35.97191],[-82.91361,35.9711],[-82.91398,35.97037],[-82.91587,35.96902],[-82.91622,35.96888],[-82.91739,35.96902],[-82.91802,35.96881],[-82.92005,35.96786],[-82.9207,35.96742],[-82.92127,35.96665],[-82.92167,35.96658],[-82.92232,35.96608],[-82.92271,35.96605],[-82.9231,35.9663],[-82.92323,35.96602],[-82.92362,35.9664],[-82.92452,35.96637],[-82.9255,35.96658],[-82.92861,35.96569],[-82.92911,35.96546],[-82.93002,35.96467],[-82.93114,35.96485],[-82.93154,35.96448],[-82.93224,35.9643],[-82.933,35.96363],[-82.93391,35.96353],[-82.93418,35.96278],[-82.93472,35.96222],[-82.93429,35.96123],[-82.93437,35.95993],[-82.93467,35.95952],[-82.93547,35.95989],[-82.93561,35.95955],[-82.93445,35.9587],[-82.93434,35.95741],[-82.93416,35.95724],[-82.93336,35.95766],[-82.93276,35.9576],[-82.93261,35.95743],[-82.93278,35.95687],[-82.93368,35.95605],[-82.93448,35.95561],[-82.9345,35.95532],[-82.93384,35.95457],[-82.934,35.9543],[-82.93447,35.95872],[-82.93411,35.95425],[-82.93484,35.95402],[-82.93498,35.95382],[-82.93473,35.95302],[-82.93517,35.95224],[-82.93525,35.95166],[-82.93421,35.9512],[-82.93444,35.94963],[-82.93402,35.94883],[-82.93344,35.94818],[-82.93354,35.94684],[-82.93314,35.94599],[-82.93341,35.94414],[-82.93267,35.94296],[-82.93163,35.94231],[-82.93045,35.94081],[-82.92868,35.94051]]]}}
