{"type":"Feature","properties":{"id":"buffalo-river","name":"Buffalo River","waterbodyType":"river","throughLakeIds":[],"allowOpenEnds":false,"source":"nhd-hu8-06040004","approximate":false,"labelAnchor":[-87.84081,35.54051],"bounds":[-87.86489,35.38908,-87.27687,35.99581],"crs":"EPSG:4326","coordinateOrder":"longitude,latitude","partCount":1,"vertexCount":529,"lengthKm":202.5,"sourceIds":["128953674","128953703","128953722","128953732","128953750","128953775","128953883","128953947","128954006","128954045","128954054","{6E115DF6-B08D-4568-8A4D-50C5EF047505}","128954049","128954108","128954160","128954212","128954224","128954239","128954248","128954377","128954392","128954407","128954412","128954473","128954499","128954542","128954550","128954560","128954624","128954670","128954648","128954635","128954643","128954657","128954678","128954684","128954696","128954871","128954942","128954960","128954984","128955131","128955149","128955176","128955185","128955262","128955290","128955327","128955322","128955080","128954704","128954923","128954998","128955052","128955047","128954910","128954811","128954812","128954880","128955141","128955145","128955143","128955066","128955048","128954796","128954791","128954826","128954839","128955032","128955034","128955035","128955023","128955009","128955028","128955124","128955171","128955284","128955355","128955371","128955392","128955404","128955446","128955449","128955453","128955452","128955423","128955350","128955312","128955461","128955517","128955538","128955537","128955481","128955470","128955347","128955376","128955380","128955379","128955368","128955341","128955339","128955225","128955212","128955206","128955217","128955189","128955246","128955247","128955216","128955098","128955039","128955012","128954931","128954917","128954882","128955297","128955280","128955266","128955116","128955071","128955087","128955074","128955043","128954832","128954927","128954977","128955029","128955033","128955024","128954913","128954764","128954709","128954734","128954710","128954687","128954800","128954849","128955094","128955093","128955022","128954991","128954753","128954720","128954722","128954563","128954551","128954553","128954546","128954559","128954513","128954507","128954504","128954398","128954421","128954449","128954447","128954389","128954428","128954422","128954352","128954280","128954256","128954241","128954199","128954236","128954294","128954342","128954492","128954510","128954515","128954519","128954518","128954483","128954455","128954431","128954288","128954426","128954571","128954590","128954610","128954641","128954714","128954735","128954777","128954955","128955011","128955081","128955295","128955294","128955158","128955221","128955468","128955525","128955622","128955621","128955658","128955664","128955709","128955711","128955701","128955726","128955741","128955745","128955744","128955772","128955747","128955740","128955736","128955788","128955791","128955805","128955804","128955753","128955731","128955728","128955698","128955673","128955620","128955602","128955625","128955648","128955669","128955693","128955684","128955661","128955671","128955710","128955743","128955742","128955691","128955645","128955288","128955214","128955091","128954966","128954932","128953640","128953589","128953602","128953604","128953615","128953614","128953618","128953581","128953572","128953442","128953443","128953438","128953446","128953452","128953451","128953440","128953374","128953357","128953353","128953327","128953275","128953257","128953208","128953188","128953193","128953195","128953194","128953122","128953075","128953003","128952986","128952996","128953000","128953007","128953009","128952992","128952964","{C9C3694F-6E91-4421-811F-F9FD0A1D76BD}","128952937","128952869","128952843","128952795","128952784","128952783","128952748","128952671","128952662","{F7FB48E6-2D50-4482-BDCF-E7CB4286DB38}","128952582","128952571","128952565","128952528","128952486","128952480","128952477","128952463","128952456","128952416","128952395","128952332","128952324","128952306","128952297","128952280","128952259","128952218","128952216","128952212","128952208","128952197","128952198","128952194","128952185","128952177","128952168","128952159","128952134","128952128","128952123","128952111","128952103","128952088","128952082","128952056","128952054","128952021","128951968","128951948","128951916","128951906","128951894","128951875","128951867","128951854","128951851","128951848","128951844","128951836","128951829","{2765851B-119C-40FC-83C3-8C1AAA1CA257}","{1504D444-1C79-4E2F-AE39-702010CB5083}","128951766","128951762","128951757","128951742","128951736","128951729","128951721","128951699","128951695","128951694","128951692","128951685","128951687","128951658","{024D8CC5-C3D5-46C5-8533-50AB4989A1A4}","128951624","128951609","128951606","128951592","128951579","{C224609E-F68A-4006-85F3-9FD810698685}","128951569","{451B3357-10B6-400D-8973-35728C594C20}","128951552","128951512","128951484","128951460","128951458","128951475","128951447","128951456","128951471","128951482","128951477","128951468","128951461","128951451","128951428","128951418","128951396","128951389","128951383","128951371","128951369","128951366","128951363","128951360","{384DE6E9-91E5-4E57-9771-A5B11E877BD3}","128951341","128951338","128951339","128951332","128951326","128951325","128951306","128951298","128951295","128951296","128951293","128951287","128951270","128951262","128951264","128951266","128951268","128951259","128951258","128951241","128951239","128951232","128951228","128951221","128951213","128951211","128951209","128951207","128951203","128951189","128951187","128951185","128951178","128951173","128951170","{136C39FA-6A20-4BBD-951B-427A40746B0A}","128951131","{071A41BC-8499-4024-9AB1-6CE37BCEFA20}","128951129","128951128","128951117","128951114","128951111","128951106","128951103","128951098","128951091","128951089","128951086","128951074","128951077","128951071","128951068","{BB50376A-1AB6-47D0-BA3A-1A775C88C1B9}","128951062","{D16B527D-D2AA-4DE6-9BC8-45A9C7904B8A}"],"sourceRetrieved":"2026-09-11","geometrySource":"nhd","hu8":"06040004","simplification":{"toleranceM":50,"verticesBefore":13662,"verticesAfter":529,"budgetBytes":17694},"trace":{"anchor":{"lat":35.5405,"lon":-87.8408,"snapDistM":1.9},"up":{"spec":"headwater","reason":"headwater","terminus":[-87.27753,35.430691],"distKmFromAnchor":119.78},"down":{"spec":"point:35.996342,-87.838877","reason":"point","terminus":[-87.839122,35.995808],"enteredNames":null,"distKmFromAnchor":88.55},"vaaUsed":false,"toleranceM":12}},"geometry":{"type":"MultiLineString","coordinates":[[[-87.27753,35.43069],[-87.28108,35.42713],[-87.28107,35.42486],[-87.28186,35.42468],[-87.2831,35.42082],[-87.28206,35.41419],[-87.28034,35.41188],[-87.2803,35.40821],[-87.28133,35.40654],[-87.27687,35.38984],[-87.28071,35.38945],[-87.28344,35.39108],[-87.28826,35.39131],[-87.29061,35.39097],[-87.29117,35.38908],[-87.29337,35.39109],[-87.30224,35.39127],[-87.30603,35.39392],[-87.30753,35.39362],[-87.30921,35.39474],[-87.3121,35.39356],[-87.31663,35.39295],[-87.31906,35.39468],[-87.32062,35.39438],[-87.32422,35.3954],[-87.32592,35.3987],[-87.32779,35.39925],[-87.32879,35.39878],[-87.32901,35.3976],[-87.3306,35.39888],[-87.33372,35.39862],[-87.33733,35.39727],[-87.3392,35.39561],[-87.34032,35.39588],[-87.34162,35.39455],[-87.3443,35.39464],[-87.34626,35.39348],[-87.3507,35.39885],[-87.35194,35.39899],[-87.35332,35.39773],[-87.35362,35.39536],[-87.35542,35.3942],[-87.35507,35.3934],[-87.357,35.3915],[-87.36069,35.39115],[-87.36429,35.39311],[-87.36677,35.39551],[-87.36909,35.39489],[-87.37106,35.39738],[-87.37534,35.39615],[-87.37736,35.39395],[-87.37749,35.39543],[-87.37856,35.396],[-87.38031,35.39562],[-87.38291,35.39761],[-87.38685,35.39732],[-87.39207,35.40054],[-87.39206,35.40196],[-87.395,35.40182],[-87.39757,35.40673],[-87.39964,35.40721],[-87.4014,35.40982],[-87.40233,35.40957],[-87.40324,35.4104],[-87.40413,35.41393],[-87.40514,35.41493],[-87.40644,35.42349],[-87.40591,35.42582],[-87.40449,35.42637],[-87.40451,35.42769],[-87.4067,35.4286],[-87.41045,35.42691],[-87.41119,35.42594],[-87.40985,35.4235],[-87.41026,35.42094],[-87.412,35.41995],[-87.413,35.42021],[-87.41463,35.42186],[-87.41642,35.42613],[-87.41522,35.42955],[-87.41852,35.42974],[-87.42013,35.43072],[-87.42181,35.43362],[-87.42145,35.43579],[-87.42377,35.43719],[-87.42394,35.43906],[-87.42285,35.44062],[-87.4253,35.44324],[-87.42546,35.4457],[-87.42376,35.44714],[-87.42484,35.44874],[-87.4279,35.45058],[-87.43418,35.44937],[-87.4379,35.45413],[-87.44171,35.45522],[-87.44019,35.46061],[-87.44069,35.46353],[-87.43988,35.46721],[-87.44129,35.46958],[-87.44437,35.47122],[-87.44687,35.47029],[-87.44823,35.46748],[-87.44514,35.46449],[-87.44534,35.46298],[-87.44666,35.46246],[-87.44924,35.45884],[-87.45145,35.45737],[-87.45741,35.45756],[-87.46129,35.45855],[-87.46444,35.46034],[-87.46623,35.46382],[-87.46428,35.46465],[-87.46619,35.46619],[-87.4664,35.4695],[-87.46781,35.47313],[-87.47333,35.477],[-87.47922,35.47566],[-87.47815,35.47412],[-87.47892,35.47034],[-87.47787,35.47013],[-87.47694,35.46718],[-87.47742,35.46546],[-87.48027,35.46328],[-87.48252,35.46386],[-87.48618,35.46667],[-87.48808,35.46885],[-87.48821,35.47024],[-87.48943,35.47066],[-87.49098,35.46952],[-87.49142,35.46279],[-87.49375,35.46351],[-87.50228,35.46903],[-87.50685,35.46194],[-87.50853,35.46133],[-87.51234,35.46146],[-87.52102,35.46431],[-87.52232,35.46377],[-87.52363,35.46133],[-87.52539,35.46007],[-87.53222,35.4635],[-87.53443,35.46347],[-87.53633,35.46199],[-87.53896,35.46146],[-87.54266,35.46365],[-87.54592,35.4645],[-87.55004,35.46137],[-87.55537,35.4541],[-87.55447,35.45245],[-87.55238,35.45259],[-87.55187,35.45429],[-87.54771,35.45228],[-87.5487,35.45106],[-87.54965,35.44661],[-87.54803,35.44521],[-87.54804,35.44305],[-87.55097,35.44197],[-87.55667,35.4416],[-87.56129,35.43993],[-87.56448,35.4423],[-87.56624,35.44618],[-87.5664,35.44903],[-87.57166,35.45025],[-87.57173,35.45165],[-87.56874,35.45435],[-87.56903,35.45546],[-87.57429,35.45694],[-87.58221,35.45419],[-87.58742,35.45706],[-87.5894,35.45581],[-87.59567,35.45506],[-87.59835,35.45539],[-87.60182,35.4545],[-87.60287,35.45296],[-87.6042,35.44583],[-87.60579,35.44542],[-87.60678,35.44609],[-87.6104,35.44607],[-87.61659,35.44895],[-87.62035,35.45362],[-87.62172,35.45391],[-87.6254,35.44983],[-87.6257,35.44599],[-87.63393,35.44537],[-87.63977,35.44636],[-87.6457,35.4423],[-87.64697,35.43712],[-87.64962,35.43696],[-87.65179,35.43867],[-87.6524,35.44396],[-87.65181,35.44506],[-87.64866,35.44667],[-87.64941,35.45036],[-87.64814,35.45355],[-87.65364,35.45604],[-87.65709,35.45405],[-87.65696,35.45171],[-87.65836,35.44973],[-87.65813,35.44831],[-87.65969,35.44488],[-87.66362,35.44119],[-87.66695,35.44056],[-87.6714,35.44154],[-87.67459,35.44414],[-87.68037,35.4425],[-87.68695,35.44401],[-87.6891,35.44343],[-87.69595,35.44349],[-87.69627,35.44252],[-87.69343,35.43874],[-87.69468,35.43675],[-87.6998,35.4358],[-87.70206,35.43606],[-87.70412,35.43701],[-87.7051,35.43902],[-87.70626,35.43941],[-87.71052,35.43334],[-87.71834,35.42896],[-87.72005,35.42963],[-87.72115,35.43264],[-87.72083,35.43717],[-87.71908,35.44001],[-87.7204,35.4445],[-87.72605,35.44592],[-87.7312,35.44221],[-87.73264,35.43926],[-87.73121,35.43568],[-87.73263,35.435],[-87.73946,35.43439],[-87.74534,35.43609],[-87.748,35.43811],[-87.75734,35.43895],[-87.76188,35.44342],[-87.76733,35.44727],[-87.7692,35.44968],[-87.76933,35.45158],[-87.77248,35.45391],[-87.77544,35.45764],[-87.77899,35.45854],[-87.78538,35.45823],[-87.79387,35.46772],[-87.79702,35.46663],[-87.80105,35.46086],[-87.80168,35.45784],[-87.80502,35.45503],[-87.807,35.45574],[-87.80655,35.4645],[-87.81041,35.46815],[-87.81801,35.46036],[-87.81984,35.45977],[-87.8222,35.4602],[-87.82404,35.46234],[-87.82198,35.46833],[-87.81966,35.46995],[-87.8155,35.47008],[-87.81396,35.47514],[-87.8143,35.4762],[-87.81765,35.47692],[-87.82176,35.47649],[-87.8237,35.47539],[-87.82684,35.47037],[-87.82886,35.46949],[-87.83084,35.46726],[-87.83203,35.46511],[-87.83178,35.46235],[-87.83477,35.45619],[-87.83262,35.44988],[-87.83454,35.44837],[-87.83727,35.449],[-87.83861,35.4513],[-87.83897,35.4543],[-87.8437,35.45682],[-87.8449,35.45831],[-87.84504,35.46093],[-87.84799,35.46612],[-87.84297,35.47408],[-87.8439,35.47657],[-87.84751,35.47776],[-87.85613,35.47584],[-87.85706,35.47697],[-87.85747,35.48077],[-87.85476,35.48264],[-87.84649,35.48278],[-87.83805,35.48517],[-87.83454,35.48865],[-87.83302,35.49442],[-87.83519,35.49978],[-87.83361,35.50052],[-87.82928,35.50062],[-87.82693,35.50319],[-87.8271,35.50872],[-87.82532,35.51103],[-87.82557,35.51189],[-87.82892,35.5129],[-87.83527,35.51149],[-87.83895,35.51203],[-87.8415,35.51308],[-87.84314,35.51603],[-87.8436,35.52027],[-87.84296,35.5224],[-87.83507,35.53014],[-87.83288,35.53308],[-87.83299,35.53583],[-87.83197,35.53551],[-87.83155,35.53607],[-87.83275,35.5374],[-87.83833,35.5382],[-87.84107,35.54015],[-87.83476,35.5419],[-87.83087,35.54527],[-87.82506,35.54507],[-87.81863,35.54234],[-87.81538,35.54267],[-87.81398,35.54176],[-87.80855,35.54542],[-87.81159,35.55287],[-87.81539,35.55755],[-87.81663,35.55754],[-87.81925,35.55956],[-87.82102,35.55986],[-87.82683,35.55797],[-87.82925,35.55798],[-87.83021,35.55845],[-87.8301,35.55989],[-87.8334,35.56003],[-87.83471,35.56077],[-87.8347,35.56363],[-87.83186,35.56615],[-87.82742,35.56709],[-87.82329,35.56708],[-87.8135,35.57117],[-87.81334,35.57207],[-87.81535,35.57364],[-87.81575,35.57524],[-87.82617,35.58069],[-87.83024,35.58408],[-87.83495,35.58272],[-87.8416,35.5831],[-87.84173,35.58512],[-87.83628,35.58912],[-87.83414,35.5924],[-87.83719,35.59445],[-87.84411,35.59529],[-87.84757,35.60024],[-87.84827,35.60264],[-87.84439,35.60464],[-87.83484,35.60301],[-87.83275,35.60175],[-87.83044,35.60317],[-87.8313,35.60874],[-87.82982,35.61324],[-87.83246,35.61628],[-87.83293,35.61885],[-87.83107,35.62124],[-87.83026,35.62426],[-87.83146,35.62693],[-87.83026,35.62784],[-87.82962,35.63171],[-87.81919,35.63099],[-87.82019,35.63433],[-87.82308,35.63721],[-87.82258,35.64184],[-87.81993,35.64291],[-87.81862,35.64547],[-87.81781,35.64885],[-87.8186,35.65097],[-87.81568,35.653],[-87.8155,35.65458],[-87.8137,35.6546],[-87.81302,35.65332],[-87.81129,35.65574],[-87.81264,35.65937],[-87.8148,35.65993],[-87.81578,35.66123],[-87.81628,35.66698],[-87.80952,35.6701],[-87.80408,35.67518],[-87.80001,35.67651],[-87.79851,35.68055],[-87.79611,35.68272],[-87.79657,35.68449],[-87.7985,35.68466],[-87.80258,35.68823],[-87.80335,35.69061],[-87.80162,35.69282],[-87.79926,35.69341],[-87.79566,35.69274],[-87.79286,35.69384],[-87.78992,35.69668],[-87.79055,35.69765],[-87.78601,35.70022],[-87.78541,35.70135],[-87.78588,35.70326],[-87.788,35.70478],[-87.79374,35.70444],[-87.79765,35.71002],[-87.79764,35.71141],[-87.79593,35.71365],[-87.79323,35.7158],[-87.79008,35.71627],[-87.78646,35.72087],[-87.78853,35.72541],[-87.79487,35.72977],[-87.79607,35.73942],[-87.8007,35.74317],[-87.8021,35.74595],[-87.80163,35.74833],[-87.79965,35.74967],[-87.80118,35.7523],[-87.79795,35.75237],[-87.79427,35.75015],[-87.79035,35.75076],[-87.78922,35.7516],[-87.78757,35.75038],[-87.78463,35.75086],[-87.78332,35.75193],[-87.78368,35.75374],[-87.7803,35.75411],[-87.77784,35.76195],[-87.7688,35.76229],[-87.76768,35.76731],[-87.76611,35.7692],[-87.76385,35.76725],[-87.76082,35.76238],[-87.75836,35.76251],[-87.75691,35.76525],[-87.75779,35.76844],[-87.76049,35.77042],[-87.76037,35.77265],[-87.76261,35.77423],[-87.76341,35.77631],[-87.76614,35.77818],[-87.76991,35.77878],[-87.7764,35.7863],[-87.779,35.79084],[-87.77848,35.79472],[-87.77922,35.79774],[-87.78331,35.80065],[-87.78283,35.80355],[-87.78149,35.80478],[-87.77047,35.80758],[-87.76508,35.81167],[-87.76761,35.81229],[-87.76886,35.81353],[-87.77161,35.81361],[-87.77759,35.81255],[-87.7809,35.81092],[-87.78484,35.81411],[-87.78759,35.81515],[-87.78971,35.81382],[-87.79023,35.81198],[-87.79135,35.81151],[-87.79501,35.81153],[-87.8022,35.81398],[-87.80277,35.8156],[-87.80449,35.81656],[-87.80555,35.82262],[-87.80893,35.82609],[-87.80885,35.83075],[-87.81054,35.83442],[-87.8187,35.83722],[-87.8195,35.83985],[-87.81789,35.84222],[-87.81584,35.85057],[-87.81433,35.85177],[-87.81377,35.85388],[-87.81404,35.86298],[-87.81777,35.86468],[-87.81864,35.86686],[-87.82308,35.86596],[-87.82635,35.86781],[-87.83032,35.86892],[-87.8302,35.87578],[-87.83385,35.88179],[-87.83248,35.88312],[-87.82823,35.88449],[-87.82677,35.88976],[-87.83046,35.89153],[-87.83283,35.88956],[-87.83583,35.89116],[-87.83923,35.89044],[-87.83906,35.89314],[-87.8423,35.89587],[-87.84305,35.90397],[-87.84153,35.90772],[-87.84174,35.91034],[-87.84456,35.91448],[-87.84624,35.91545],[-87.84404,35.91694],[-87.84646,35.91985],[-87.84812,35.92401],[-87.84799,35.92621],[-87.84615,35.92795],[-87.85061,35.93199],[-87.85009,35.93373],[-87.85095,35.93721],[-87.85301,35.93859],[-87.8584,35.93995],[-87.86011,35.94166],[-87.8598,35.94286],[-87.85776,35.94334],[-87.85634,35.94633],[-87.8543,35.94757],[-87.85228,35.95059],[-87.85228,35.96214],[-87.85431,35.96636],[-87.85617,35.96769],[-87.85625,35.96929],[-87.85517,35.96979],[-87.85563,35.97129],[-87.86127,35.97334],[-87.86337,35.97491],[-87.86489,35.97673],[-87.8648,35.97851],[-87.86261,35.97901],[-87.8632,35.98127],[-87.86107,35.98432],[-87.85742,35.9868],[-87.85781,35.98857],[-87.85381,35.98975],[-87.85036,35.98912],[-87.84936,35.99037],[-87.84704,35.99116],[-87.84245,35.99076],[-87.84197,35.99155],[-87.84317,35.99275],[-87.84151,35.99548],[-87.84069,35.99581],[-87.84041,35.99493],[-87.83949,35.99502]]]}}
