{"type":"Feature","properties":{"id":"parksville-tailwater","name":"Parksville Lake Tailwater (Ocoee No. 1 reach)","waterbodyType":"tailrace","throughLakeIds":[],"allowOpenEnds":false,"source":"nhd-hu8-06020003","approximate":false,"labelAnchor":[-84.65445,35.09684],"bounds":[-84.69375,35.09474,-84.64782,35.20643],"crs":"EPSG:4326","coordinateOrder":"longitude,latitude","partCount":1,"vertexCount":107,"lengthKm":19.38,"sourceIds":["132759876","132759866","132759859","132759895","132759909","132759920","132759919","132759918","132759908","132759907","132759906","132759905","132759904","132759903","132759902","132759901","132759900","132759899","132759912","132759898","132759897","132759896","132759910","132759894","{D1213A38-DD16-4610-B624-DB3770D3A75D}"],"sourceRetrieved":"2026-09-11","geometrySource":"nhd","hu8":"06020003","simplification":{"toleranceM":10,"verticesBefore":984,"verticesAfter":107,"budgetBytes":81920},"trace":{"anchor":{"lat":35.0969,"lon":-84.6544,"snapDistM":7.9},"up":{"spec":"dam:Lake Ocoee","reason":"dam","terminus":[-84.647821,35.094739],"distKmFromAnchor":0.68},"down":{"spec":"mouth","reason":"terminal-node","terminus":[-84.657411,35.20643],"enteredNames":null,"distKmFromAnchor":18.79},"vaaUsed":false,"toleranceM":12}},"geometry":{"type":"MultiLineString","coordinates":[[[-84.64782,35.09474],[-84.65119,35.09547],[-84.65322,35.09625],[-84.65514,35.09726],[-84.65636,35.09823],[-84.65682,35.09841],[-84.65752,35.09963],[-84.65751,35.09999],[-84.65811,35.10065],[-84.65885,35.10115],[-84.6603,35.10182],[-84.66216,35.10337],[-84.66351,35.10486],[-84.66506,35.10535],[-84.66764,35.10552],[-84.6684,35.10595],[-84.66972,35.10705],[-84.67253,35.10816],[-84.67327,35.10828],[-84.67396,35.10884],[-84.67421,35.10925],[-84.67467,35.11272],[-84.67581,35.11606],[-84.67588,35.11731],[-84.67573,35.11827],[-84.67471,35.11976],[-84.6725,35.12208],[-84.66998,35.1238],[-84.66938,35.12483],[-84.66931,35.12533],[-84.66955,35.1262],[-84.6705,35.12765],[-84.67167,35.12872],[-84.67293,35.13033],[-84.67494,35.13228],[-84.67657,35.13471],[-84.67744,35.1353],[-84.68028,35.13564],[-84.6827,35.13658],[-84.6834,35.13717],[-84.68393,35.13841],[-84.68456,35.13883],[-84.68569,35.13884],[-84.68619,35.13849],[-84.68657,35.13652],[-84.68663,35.135],[-84.68687,35.13413],[-84.68719,35.13365],[-84.68783,35.13344],[-84.68845,35.13344],[-84.68901,35.13355],[-84.68941,35.13381],[-84.68989,35.13551],[-84.69007,35.13735],[-84.69004,35.13784],[-84.68957,35.13876],[-84.68913,35.14031],[-84.6894,35.14342],[-84.69094,35.14507],[-84.69223,35.14708],[-84.69321,35.1482],[-84.69345,35.14921],[-84.69354,35.15131],[-84.69375,35.1523],[-84.69342,35.15348],[-84.69223,35.15481],[-84.69092,35.15587],[-84.68916,35.15697],[-84.68836,35.15715],[-84.68723,35.157],[-84.68547,35.15711],[-84.68179,35.15769],[-84.67915,35.15869],[-84.67825,35.15926],[-84.67754,35.15996],[-84.67739,35.16047],[-84.67761,35.16113],[-84.67734,35.16525],[-84.67748,35.16595],[-84.67782,35.16676],[-84.68029,35.17055],[-84.68046,35.17142],[-84.67871,35.1765],[-84.67824,35.17883],[-84.67805,35.18171],[-84.67786,35.18248],[-84.67646,35.1845],[-84.67238,35.18856],[-84.67166,35.18986],[-84.67041,35.19159],[-84.66955,35.19249],[-84.66794,35.19376],[-84.66568,35.19473],[-84.6629,35.19466],[-84.65885,35.19515],[-84.65731,35.19572],[-84.65654,35.19629],[-84.65619,35.19718],[-84.65739,35.1996],[-84.66035,35.20095],[-84.66391,35.20188],[-84.66432,35.20208],[-84.66448,35.2024],[-84.66431,35.20308],[-84.66344,35.20387],[-84.65805,35.20566],[-84.65741,35.20643]]]}}
