{"type":"Feature","properties":{"id":"hurricane-creek","name":"Hurricane Creek","waterbodyType":"creek","throughLakeIds":["sawmill-branch-lake"],"allowOpenEnds":false,"source":"nhd-hu8-06040003","approximate":false,"labelAnchor":[-87.66069,36.03009],"bounds":[-87.81712,35.95994,-87.54019,36.13506],"crs":"EPSG:4326","coordinateOrder":"longitude,latitude","partCount":1,"vertexCount":316,"lengthKm":42.42,"sourceIds":["136553037","136553038","136553039","136553040","136553041","136553042","136553043","136553044","136553045","136553046","136553047","136553048","136553049","136553050","136553051","136549481","136549482","136549483","136549484","136549485","136549486","136549487","136549488","136549489","136549490","136549491","136549492","136549493","136549494","136549495","136549496","136549497","136549498","136549627","136549628","136552938","136552940","136550403","136553036","136553035","136553034","136553033","136553032","136553031","136553030","136553029","136553028","136553027","136553026","136553025","136553024","136553023","136553022","136553021","136553020","136553019","136553018","136553017","136553016","136553015","136553014","136553013","136553012","136553010","136553011","136553009","136553003","136553004","136553081","136553094","136553093","136553095","136553000","136552997","136552998","136552999","136552995","136552996","136552994","136552993","136552992","136552991","136553795"],"sourceRetrieved":"2026-09-11","geometrySource":"nhd","hu8":"06040003","simplification":{"toleranceM":10,"verticesBefore":3181,"verticesAfter":316,"budgetBytes":81920},"trace":{"anchor":{"lat":36.0301,"lon":-87.6607,"snapDistM":1},"up":{"spec":"headwater","reason":"headwater","terminus":[-87.540518,36.135062],"distKmFromAnchor":17.71},"down":{"spec":"mouth","reason":"name-change","terminus":[-87.817121,35.986263],"enteredNames":["Duck River"],"distKmFromAnchor":24},"vaaUsed":false,"toleranceM":12}},"geometry":{"type":"MultiLineString","coordinates":[[[-87.54052,36.13506],[-87.54056,36.13449],[-87.54019,36.13345],[-87.54056,36.13283],[-87.5405,36.13238],[-87.54135,36.13167],[-87.54167,36.13062],[-87.54205,36.13036],[-87.5422,36.13048],[-87.54248,36.13031],[-87.54321,36.12959],[-87.54344,36.12903],[-87.54336,36.12869],[-87.54371,36.12815],[-87.54458,36.12745],[-87.5449,36.12662],[-87.54547,36.12635],[-87.54561,36.12522],[-87.54708,36.1242],[-87.5476,36.12418],[-87.54957,36.12323],[-87.55084,36.12062],[-87.55184,36.12017],[-87.55218,36.11977],[-87.5531,36.11922],[-87.55324,36.11852],[-87.55376,36.11821],[-87.55408,36.11706],[-87.5544,36.11683],[-87.55453,36.11645],[-87.55599,36.11536],[-87.55662,36.11459],[-87.55677,36.11358],[-87.55726,36.11328],[-87.5575,36.11282],[-87.55807,36.1125],[-87.55839,36.11132],[-87.55889,36.11103],[-87.559,36.11072],[-87.55938,36.11073],[-87.55966,36.11034],[-87.56051,36.10987],[-87.56267,36.10924],[-87.56288,36.10879],[-87.56336,36.10872],[-87.56402,36.10824],[-87.56458,36.10692],[-87.56536,36.10656],[-87.5663,36.10573],[-87.5678,36.10537],[-87.56963,36.10541],[-87.57114,36.10556],[-87.57161,36.10618],[-87.57234,36.10619],[-87.57357,36.1056],[-87.57527,36.10529],[-87.57567,36.1039],[-87.57606,36.1032],[-87.57685,36.10243],[-87.57756,36.10139],[-87.5812,36.09936],[-87.58268,36.09946],[-87.58339,36.09911],[-87.58418,36.09764],[-87.5851,36.09687],[-87.58543,36.09489],[-87.58629,36.09372],[-87.58688,36.09328],[-87.58845,36.09261],[-87.58983,36.09229],[-87.59039,36.09169],[-87.59156,36.09096],[-87.59266,36.08928],[-87.59428,36.08824],[-87.59498,36.08795],[-87.59535,36.08656],[-87.5967,36.08532],[-87.59779,36.08465],[-87.59807,36.08467],[-87.59865,36.08511],[-87.59894,36.08498],[-87.60091,36.0833],[-87.60125,36.08263],[-87.60163,36.08084],[-87.60246,36.07986],[-87.60217,36.07884],[-87.60222,36.07846],[-87.60329,36.07586],[-87.60376,36.07549],[-87.60554,36.07493],[-87.60598,36.07454],[-87.606,36.07391],[-87.60575,36.07295],[-87.60452,36.07212],[-87.60416,36.07139],[-87.60462,36.06987],[-87.60603,36.06856],[-87.60704,36.06699],[-87.60841,36.06535],[-87.609,36.0614],[-87.60929,36.06118],[-87.61036,36.06085],[-87.61119,36.06018],[-87.61393,36.05952],[-87.61439,36.05914],[-87.61498,36.05821],[-87.61669,36.0582],[-87.61744,36.0579],[-87.618,36.05728],[-87.61826,36.05591],[-87.61821,36.05496],[-87.6188,36.05415],[-87.62212,36.0525],[-87.62265,36.0517],[-87.62306,36.05138],[-87.62457,36.05093],[-87.62645,36.0497],[-87.62866,36.04922],[-87.63052,36.04672],[-87.63126,36.04659],[-87.63276,36.04684],[-87.63308,36.04672],[-87.63428,36.04537],[-87.6346,36.04468],[-87.63455,36.04398],[-87.63387,36.04292],[-87.63405,36.04233],[-87.6347,36.04187],[-87.63721,36.04072],[-87.64023,36.03887],[-87.64119,36.03853],[-87.64257,36.03831],[-87.64511,36.03864],[-87.64864,36.03686],[-87.65078,36.03682],[-87.65186,36.03653],[-87.6528,36.03595],[-87.65595,36.03307],[-87.66069,36.03009],[-87.65601,36.03302],[-87.65686,36.032],[-87.65876,36.03148],[-87.66081,36.03005],[-87.66265,36.02991],[-87.66374,36.02999],[-87.66525,36.03111],[-87.66668,36.03154],[-87.67024,36.03155],[-87.6721,36.03126],[-87.67399,36.03041],[-87.67437,36.02977],[-87.67512,36.02934],[-87.67524,36.02854],[-87.67546,36.02832],[-87.67764,36.02778],[-87.67868,36.02771],[-87.67931,36.0274],[-87.67975,36.02664],[-87.68053,36.02618],[-87.68259,36.02563],[-87.68589,36.02508],[-87.68735,36.02501],[-87.68801,36.02505],[-87.68894,36.02534],[-87.68965,36.02525],[-87.69021,36.02459],[-87.69037,36.0228],[-87.69055,36.02252],[-87.69289,36.02112],[-87.69404,36.02078],[-87.69508,36.02024],[-87.69669,36.01993],[-87.69889,36.01974],[-87.7003,36.01983],[-87.70149,36.02011],[-87.70233,36.02006],[-87.70391,36.01948],[-87.70487,36.01869],[-87.7054,36.01852],[-87.70627,36.0185],[-87.70782,36.019],[-87.70829,36.01893],[-87.70937,36.018],[-87.71022,36.0169],[-87.71191,36.0155],[-87.71325,36.01532],[-87.71507,36.0156],[-87.71586,36.01554],[-87.71633,36.01463],[-87.71814,36.01378],[-87.71934,36.01263],[-87.72006,36.0123],[-87.72205,36.01203],[-87.72207,36.01071],[-87.72272,36.00964],[-87.72289,36.00821],[-87.72376,36.00683],[-87.72498,36.0063],[-87.72715,36.00612],[-87.72959,36.00483],[-87.73256,36.00227],[-87.73304,36.00143],[-87.73321,35.99971],[-87.73355,35.99929],[-87.73385,35.99915],[-87.73549,35.99904],[-87.73661,35.99881],[-87.73686,35.99832],[-87.7369,35.99757],[-87.73948,35.99572],[-87.74159,35.9952],[-87.74229,35.99521],[-87.74366,35.9955],[-87.7444,35.99581],[-87.7448,35.99619],[-87.74616,35.99836],[-87.74669,35.99853],[-87.74748,35.99846],[-87.74829,35.99872],[-87.74938,35.99846],[-87.75067,35.99787],[-87.75194,35.99693],[-87.75351,35.99643],[-87.75423,35.99591],[-87.75469,35.99439],[-87.75571,35.99382],[-87.75611,35.99332],[-87.75651,35.9921],[-87.75647,35.99083],[-87.75689,35.9892],[-87.75776,35.98756],[-87.7591,35.98579],[-87.75928,35.98382],[-87.76043,35.98228],[-87.76094,35.98092],[-87.76394,35.97916],[-87.76488,35.97876],[-87.7658,35.97849],[-87.77045,35.97796],[-87.77268,35.97691],[-87.77268,35.97618],[-87.77102,35.97318],[-87.77085,35.97224],[-87.77118,35.97162],[-87.77173,35.97142],[-87.77351,35.96968],[-87.77407,35.96971],[-87.77689,35.9717],[-87.77778,35.97221],[-87.77856,35.97244],[-87.78061,35.97379],[-87.78097,35.97385],[-87.78105,35.97315],[-87.78064,35.97175],[-87.78101,35.97104],[-87.78261,35.97008],[-87.78453,35.96926],[-87.78572,35.96923],[-87.78721,35.96856],[-87.78888,35.96849],[-87.79009,35.96755],[-87.79058,35.96663],[-87.79065,35.96569],[-87.79004,35.96416],[-87.78984,35.96284],[-87.79004,35.96219],[-87.79082,35.96173],[-87.79154,35.96169],[-87.79299,35.96222],[-87.79373,35.96219],[-87.79434,35.96186],[-87.79521,35.96072],[-87.79597,35.96025],[-87.79722,35.95994],[-87.79828,35.96],[-87.80166,35.96148],[-87.8045,35.96459],[-87.80566,35.96522],[-87.80733,35.96567],[-87.8079,35.96554],[-87.80891,35.96409],[-87.80957,35.96369],[-87.81036,35.96361],[-87.81211,35.96416],[-87.81351,35.96342],[-87.81433,35.96342],[-87.81477,35.96371],[-87.81502,35.96434],[-87.81475,35.96572],[-87.81486,35.96674],[-87.81532,35.96765],[-87.81641,35.96841],[-87.81653,35.96917],[-87.81626,35.96955],[-87.81579,35.96902],[-87.8154,35.96903],[-87.81516,35.96923],[-87.81555,35.9699],[-87.81554,35.97057],[-87.81533,35.97092],[-87.81458,35.97139],[-87.8147,35.97173],[-87.81458,35.97236],[-87.81389,35.97394],[-87.81388,35.97526],[-87.81519,35.9784],[-87.81492,35.97985],[-87.81559,35.98084],[-87.81575,35.98154],[-87.81522,35.98241],[-87.81519,35.9829],[-87.81539,35.98348],[-87.81603,35.98421],[-87.81587,35.98529],[-87.81656,35.98607],[-87.81712,35.98626]]]}}
