{"type":"Feature","properties":{"id":"beaverdam-creek","name":"Beaverdam Creek","waterbodyType":"creek","throughLakeIds":[],"allowOpenEnds":false,"source":"nhd-hu8-06010102","approximate":false,"labelAnchor":[-81.87255,36.56604],"bounds":[-81.96242,36.48674,-81.79005,36.6369],"crs":"EPSG:4326","coordinateOrder":"longitude,latitude","partCount":1,"vertexCount":222,"lengthKm":30.25,"sourceIds":["43579354","43579500","43579628","43579758","43579870","43579874","43579938","43580036","43580136","43580310","43580436","43580724","43581002","43581120","43581304","43581260","43581776","43581884","43581896","43582006","43582050","43582150","43582518","43582566","43582590","43582642","43582736","43582800","43582980","43583138","43583212","43583321","43583396","43583498","43583616","43583646","43583680","43583700","43583860","43584676","43584680","43579084","43578644","43578840","43578842","43578666","43578716","43578452","43578434","43578310","43578148","43578092","43578048","43577948","43577754","43577674","43577652","43577546","43577472","43577298","43577188","43577016","43576876","43576820","43576624","43576446","43576414","43576274","43576016","43576002","43575906","43575832","43575812","73a57928-d50b-4114-9d66-4d8fc3a7cb88","55315b5a-6449-4756-9281-b2ce2751ad9c","43575340","43575310","43574808"],"sourceRetrieved":"2026-09-11","geometrySource":"nhd","hu8":"06010102","simplification":{"toleranceM":10,"verticesBefore":887,"verticesAfter":222,"budgetBytes":81920},"trace":{"anchor":{"lat":36.56604,"lon":-81.87255,"snapDistM":0},"up":{"spec":"headwater","reason":"headwater","terminus":[-81.962416,36.487197],"distKmFromAnchor":15.08},"down":{"spec":"mouth","reason":"name-change","terminus":[-81.791768,36.636902],"enteredNames":["Laurel Creek"],"distKmFromAnchor":14.1},"vaaUsed":false,"toleranceM":12}},"geometry":{"type":"MultiLineString","coordinates":[[[-81.96242,36.4872],[-81.95945,36.48674],[-81.95815,36.48693],[-81.95649,36.48801],[-81.95423,36.48903],[-81.95322,36.49048],[-81.95148,36.49181],[-81.95035,36.49226],[-81.94972,36.49273],[-81.94904,36.49393],[-81.94865,36.4961],[-81.94836,36.49685],[-81.94743,36.49797],[-81.94648,36.49831],[-81.94569,36.49928],[-81.94476,36.49991],[-81.94434,36.5006],[-81.94354,36.5011],[-81.94298,36.50206],[-81.94299,36.50254],[-81.94374,36.50305],[-81.94355,36.50504],[-81.94233,36.50723],[-81.94217,36.50982],[-81.9411,36.51076],[-81.9408,36.51121],[-81.94072,36.513],[-81.93943,36.5148],[-81.93783,36.51651],[-81.93202,36.52049],[-81.93124,36.52128],[-81.92892,36.52452],[-81.92812,36.52595],[-81.92671,36.52731],[-81.92582,36.52849],[-81.92294,36.53276],[-81.92253,36.53408],[-81.92085,36.53487],[-81.92035,36.53552],[-81.91989,36.53571],[-81.91905,36.53592],[-81.91752,36.53582],[-81.9153,36.53651],[-81.91493,36.537],[-81.91336,36.53743],[-81.9127,36.53794],[-81.91181,36.53788],[-81.91124,36.53804],[-81.91021,36.5392],[-81.9104,36.54027],[-81.91091,36.54105],[-81.91011,36.54157],[-81.90877,36.54112],[-81.90857,36.54018],[-81.90831,36.54013],[-81.90782,36.54037],[-81.90661,36.54036],[-81.90615,36.54068],[-81.90591,36.5411],[-81.90596,36.54196],[-81.9057,36.54239],[-81.905,36.54232],[-81.90433,36.54169],[-81.9039,36.5416],[-81.90342,36.54177],[-81.9029,36.54257],[-81.90258,36.54269],[-81.90093,36.54224],[-81.89992,36.54216],[-81.8993,36.54232],[-81.89807,36.54348],[-81.89741,36.54344],[-81.8963,36.54307],[-81.89588,36.54314],[-81.89419,36.54516],[-81.89398,36.54599],[-81.89457,36.5475],[-81.89646,36.54845],[-81.89659,36.54891],[-81.89546,36.55005],[-81.89486,36.55045],[-81.89397,36.55167],[-81.89387,36.55202],[-81.89403,36.55268],[-81.89355,36.55333],[-81.89237,36.55418],[-81.89139,36.55425],[-81.891,36.55448],[-81.89045,36.55517],[-81.89018,36.55616],[-81.88896,36.55692],[-81.88775,36.55841],[-81.88609,36.55892],[-81.88481,36.55958],[-81.88413,36.55964],[-81.88362,36.55998],[-81.88076,36.561],[-81.88038,36.56168],[-81.88035,36.56296],[-81.87996,36.56336],[-81.87935,36.56356],[-81.87878,36.56324],[-81.87834,36.56322],[-81.87758,36.56366],[-81.87637,36.56379],[-81.87533,36.56415],[-81.8745,36.5647],[-81.8743,36.56528],[-81.87396,36.56563],[-81.87255,36.56604],[-81.86954,36.56756],[-81.86898,36.5683],[-81.86925,36.56931],[-81.86904,36.56974],[-81.86854,36.56993],[-81.86698,36.56971],[-81.87255,36.56604],[-81.86698,36.56971],[-81.86621,36.56966],[-81.86439,36.57031],[-81.86399,36.57128],[-81.86428,36.57225],[-81.86418,36.57342],[-81.86354,36.57381],[-81.86206,36.57378],[-81.86122,36.57412],[-81.85976,36.57628],[-81.85911,36.57642],[-81.85784,36.57603],[-81.85764,36.57518],[-81.8569,36.57453],[-81.85703,36.57404],[-81.85689,36.57352],[-81.85586,36.57284],[-81.85408,36.57233],[-81.85251,36.57265],[-81.85192,36.5731],[-81.85159,36.57388],[-81.85174,36.57476],[-81.8516,36.57556],[-81.8505,36.57695],[-81.8495,36.57708],[-81.84719,36.57677],[-81.8467,36.57482],[-81.84556,36.57358],[-81.84509,36.57336],[-81.8432,36.57309],[-81.84279,36.57338],[-81.84249,36.57416],[-81.84158,36.57511],[-81.84149,36.57591],[-81.84082,36.57665],[-81.84021,36.57775],[-81.84004,36.57826],[-81.8401,36.57922],[-81.83977,36.5796],[-81.83883,36.5799],[-81.8373,36.57961],[-81.83686,36.57974],[-81.83643,36.58017],[-81.83668,36.58101],[-81.83614,36.58172],[-81.831,36.58396],[-81.82913,36.585],[-81.82818,36.58579],[-81.82725,36.58613],[-81.82666,36.58758],[-81.82478,36.58941],[-81.82414,36.58973],[-81.82219,36.59022],[-81.82144,36.59139],[-81.82064,36.59163],[-81.81815,36.59195],[-81.81656,36.59264],[-81.81487,36.59371],[-81.8136,36.59419],[-81.81366,36.59458],[-81.81439,36.5948],[-81.81616,36.5944],[-81.81809,36.59492],[-81.81861,36.5952],[-81.81905,36.59571],[-81.81968,36.59662],[-81.81976,36.59732],[-81.81702,36.60086],[-81.8157,36.60121],[-81.81345,36.60223],[-81.81215,36.6034],[-81.81199,36.60392],[-81.81213,36.60595],[-81.81266,36.60691],[-81.8118,36.60741],[-81.8115,36.60823],[-81.8105,36.60935],[-81.81023,36.61109],[-81.80959,36.61183],[-81.80638,36.61316],[-81.80404,36.61381],[-81.8033,36.61465],[-81.8028,36.61496],[-81.80024,36.61556],[-81.79901,36.61609],[-81.7978,36.61749],[-81.79635,36.61852],[-81.79579,36.6194],[-81.79417,36.61992],[-81.79331,36.62076],[-81.79339,36.62188],[-81.79326,36.62233],[-81.79268,36.62309],[-81.79207,36.62481],[-81.79276,36.6262],[-81.79219,36.62646],[-81.79112,36.62747],[-81.79087,36.62787],[-81.79072,36.62896],[-81.79005,36.62964],[-81.79006,36.63063],[-81.79083,36.63234],[-81.79069,36.63326],[-81.79162,36.6356],[-81.79177,36.6369]]]}}
