{"type":"Feature","properties":{"id":"little-pigeon-river","name":"Little Pigeon River (Sevierville reach)","waterbodyType":"river","throughLakeIds":[],"allowOpenEnds":false,"source":"nhd-hu8-06010107","approximate":false,"labelAnchor":[-83.57694,35.87857],"bounds":[-83.59631,35.65757,-83.30528,35.93159],"crs":"EPSG:4326","coordinateOrder":"longitude,latitude","partCount":1,"vertexCount":409,"lengthKm":58.67,"sourceIds":["51630026","51630074","51630346","51630292","51630282","51630068","51630182","51630278","51630392","51630450","51630446","51630438","51630360","51630256","51630226","51630066","51629928","51630048","51630124","51630218","51630528","51630582","51630594","51631238","51632312","{9FFF31D7-36FD-4EE6-8DA9-A36EC38A2CAA}","51632344","51632432","{6AD74B08-6A5A-4B42-840B-2CD4C98033C2}","51632550","{AF640D34-FB14-4432-A235-BE86F9A9AB4E}","51632736","{89B68460-665B-4B98-B160-221D9DF7B4E0}","51632886","51633000","51633116","51633144","51633202","51633212","51632800","{A6B696B7-F7C4-49AE-8810-E0B300EB8C5D}","51632984","{747DB617-218D-4DFA-8BD3-5CD451CCC877}","51632982","{B5163C41-D7D6-405D-9616-0415427DE51F}","51633244","51633262","{B29E5D15-11BF-4D1A-86D2-A09A3157CA72}","{DA2EBB30-C54F-48AB-8E7A-DB8478399985}","51633260","51633354","{B3430B63-3206-425E-8984-0D7E3B2AEA76}","51633462","51633670","51633800","51633890","51634008","51634128","51634368","51634490","{A882144B-AA0A-47B1-AB80-23C663C0D5A9}","{34978AF8-2FBB-4E80-BBB5-572C424D9C22}","{A7A18C2A-1FF0-4393-9C95-644CC94A4722}","51634416","{F6A2A369-1E32-4C2F-A5D1-8FA9E42B9721}","{4E8609DA-2D62-493B-92D8-C29303B55BA7}","{E9F55B68-EABC-4B4C-B81E-1B4002521B23}","{3E71EFA1-EFCC-46F4-A9FF-B24040C4010C}","51634544","{80461A48-50E1-440A-8897-037C9FBDC8C7}","{FA01F406-2FC3-4B13-94BF-3AE885BB8C18}","51634446","{E810EC24-7EE5-46E8-9142-C6335207C919}","51634532","51634760","51634880","51634878","51634872","51634998","51635162","{2624A135-A8C0-40CD-A492-84661CF59049}","{3635B235-F5E8-41FC-B77D-897A8E8C9B0E}","51635334","{58E4E807-0181-4D71-8EDE-A9D7EA8DDC9A}","51635454","51635750","{24F19142-5AC8-4A8D-BD51-C2E119715D3A}","51635826","51635950","51636014","51636064","51636048","51636234","51636326","51636530","{0C3D9436-F284-49E6-A7A2-1BF94ECAF5AE}","51636590","51636690","51636712","51637012","51637018","51637148","51637180","51637260","51637352","{7E17FE5E-35D9-4C17-8CBB-85A1C6B83554}","51637494","{66C2055B-8653-4AAD-8AC3-1A3BB7AFAC21}","{B1847D3B-4D9E-49D1-A65B-74695798A0DD}","{4F3C59A5-A61E-4911-B10C-C8FC1747922B}","{02944A62-F308-4903-A243-8A74C31C3B36}","51637574","51637736","51637812","51637814","{167C11B4-FDEF-4FF7-B8C1-79F1E3290DA6}","{B61FD71C-146C-4C40-986C-7DED706DB2E0}","{C1C89FE9-CBC0-4308-8401-7ADE39F72466}","51637808","{C72A64D0-8448-4DF5-8FBC-8A86230BBFC5}","51637828","{9F9D3C94-453F-490A-AEF1-0EE56A7BF7C6}","51637844","{4CAEA166-E409-4CED-B2A7-610352FF1ECE}","51637842","{91C0D233-B356-46DC-952D-1168CAAE894A}","51637776","51637856","51637922","51637938","51638002","51638188","{66BB1F7A-2240-4AFE-B386-08FBEE5D7247}","51638378","{BC70B52D-9A6D-4ADC-9FD5-112A5388B42F}","51638448","51638458","51638582","{2B0E309C-10DB-4332-8730-B5141528E7F6}","51638600","{EEDAA708-F92D-4386-BDB7-A61C5D56D0F6}","51638700","51629610","51629604","51629584","51629488","51629240","51629214","51628886","51628646","51628566","51628494","51628280","51628218","51628164","51628010","51627772","51627584","51627580","51627390","51627392"],"sourceRetrieved":"2026-09-11","geometrySource":"nhd","hu8":"06010107","simplification":{"toleranceM":10,"verticesBefore":6583,"verticesAfter":409,"budgetBytes":81920},"trace":{"anchor":{"lat":35.8785,"lon":-83.5775,"snapDistM":51.1},"up":{"spec":"headwater","reason":"headwater","terminus":[-83.305277,35.657567],"distKmFromAnchor":50.96},"down":{"spec":"mouth","reason":"name-change","terminus":[-83.59631,35.931519],"enteredNames":["French Broad River"],"distKmFromAnchor":7.52},"vaaUsed":false,"toleranceM":12}},"geometry":{"type":"MultiLineString","coordinates":[[[-83.30528,35.65757],[-83.30532,35.65796],[-83.30578,35.65851],[-83.30565,35.65908],[-83.30578,35.66],[-83.30622,35.66046],[-83.30642,35.66107],[-83.3063,35.66194],[-83.30673,35.66252],[-83.30577,35.66472],[-83.30592,35.66541],[-83.30546,35.66639],[-83.30646,35.66673],[-83.30715,35.66745],[-83.30748,35.66822],[-83.30812,35.66901],[-83.30985,35.67015],[-83.31134,35.67159],[-83.31187,35.67169],[-83.31225,35.67202],[-83.31236,35.67237],[-83.31264,35.67239],[-83.31329,35.67285],[-83.31359,35.67359],[-83.31399,35.67395],[-83.31371,35.67463],[-83.3138,35.67503],[-83.31424,35.6752],[-83.31461,35.67557],[-83.31611,35.67618],[-83.317,35.67708],[-83.31874,35.67733],[-83.31918,35.67781],[-83.31908,35.6784],[-83.31816,35.67865],[-83.31783,35.67915],[-83.31727,35.67959],[-83.31723,35.68026],[-83.31676,35.68061],[-83.31666,35.68111],[-83.31685,35.6821],[-83.31815,35.68348],[-83.31849,35.6835],[-83.31936,35.68396],[-83.31992,35.68485],[-83.3204,35.68627],[-83.32039,35.68673],[-83.32021,35.687],[-83.31943,35.68741],[-83.31927,35.68822],[-83.32018,35.6895],[-83.32027,35.69012],[-83.32075,35.6906],[-83.3207,35.69191],[-83.32103,35.69219],[-83.32273,35.69254],[-83.32271,35.69318],[-83.32335,35.6943],[-83.32392,35.69437],[-83.32445,35.69472],[-83.32466,35.69509],[-83.32477,35.69602],[-83.32533,35.69649],[-83.32624,35.69698],[-83.32663,35.69695],[-83.32736,35.69661],[-83.32803,35.69681],[-83.32833,35.69713],[-83.32828,35.6978],[-83.32855,35.69814],[-83.32931,35.6983],[-83.33026,35.69874],[-83.33191,35.69981],[-83.332,35.70023],[-83.33276,35.70101],[-83.33315,35.70221],[-83.33366,35.70276],[-83.33483,35.70282],[-83.33568,35.7038],[-83.33639,35.70406],[-83.33819,35.70335],[-83.33968,35.70358],[-83.3406,35.70314],[-83.3419,35.70308],[-83.34359,35.70332],[-83.34443,35.70307],[-83.34728,35.70268],[-83.34802,35.70231],[-83.34869,35.70228],[-83.34971,35.70178],[-83.35266,35.70176],[-83.3532,35.70196],[-83.35383,35.70264],[-83.35511,35.70257],[-83.35603,35.70302],[-83.3578,35.70306],[-83.35846,35.70332],[-83.36027,35.70457],[-83.36389,35.70482],[-83.36426,35.70503],[-83.36439,35.70536],[-83.36509,35.70519],[-83.3658,35.70465],[-83.36643,35.70438],[-83.36688,35.70454],[-83.36731,35.70511],[-83.369,35.70506],[-83.37059,35.70581],[-83.37171,35.70609],[-83.37268,35.70605],[-83.37461,35.70565],[-83.37786,35.70557],[-83.37882,35.70584],[-83.37942,35.7062],[-83.37983,35.7069],[-83.38089,35.7078],[-83.38209,35.70826],[-83.38254,35.7083],[-83.38278,35.70863],[-83.38281,35.71017],[-83.38312,35.71198],[-83.38254,35.71336],[-83.38317,35.71466],[-83.38358,35.71731],[-83.3847,35.7185],[-83.3853,35.71938],[-83.38566,35.71959],[-83.38718,35.71986],[-83.38822,35.72025],[-83.39121,35.7209],[-83.39225,35.72133],[-83.39417,35.72092],[-83.3958,35.72113],[-83.39616,35.72162],[-83.39694,35.72373],[-83.39728,35.72417],[-83.40013,35.72564],[-83.40196,35.72693],[-83.40252,35.72829],[-83.40472,35.7291],[-83.40562,35.73023],[-83.4062,35.73216],[-83.40736,35.7329],[-83.40807,35.73317],[-83.4087,35.73327],[-83.4107,35.73318],[-83.41141,35.73352],[-83.41348,35.73593],[-83.41604,35.7385],[-83.41639,35.73921],[-83.41586,35.74044],[-83.41608,35.74125],[-83.41471,35.74176],[-83.41439,35.74235],[-83.41457,35.74271],[-83.41606,35.74378],[-83.41682,35.74509],[-83.41634,35.74628],[-83.41602,35.74652],[-83.41569,35.74726],[-83.41627,35.74863],[-83.41656,35.75101],[-83.41653,35.75122],[-83.41612,35.75154],[-83.41447,35.75199],[-83.41358,35.75256],[-83.41411,35.75426],[-83.41332,35.7557],[-83.41145,35.75607],[-83.41059,35.75661],[-83.40929,35.75718],[-83.40763,35.75894],[-83.40657,35.75933],[-83.40513,35.759],[-83.40255,35.75735],[-83.40102,35.7569],[-83.39982,35.75712],[-83.39818,35.75814],[-83.39801,35.75851],[-83.39822,35.75981],[-83.39939,35.76112],[-83.3998,35.76318],[-83.40023,35.76416],[-83.40058,35.76437],[-83.40195,35.76459],[-83.40319,35.76539],[-83.4035,35.76577],[-83.40351,35.76724],[-83.40293,35.76945],[-83.40268,35.77118],[-83.40203,35.77291],[-83.40199,35.77384],[-83.40222,35.77438],[-83.40262,35.77471],[-83.40511,35.77508],[-83.40521,35.77519],[-83.40594,35.77865],[-83.40578,35.77921],[-83.4049,35.77993],[-83.40382,35.78316],[-83.40407,35.785],[-83.4058,35.78695],[-83.40686,35.78742],[-83.40813,35.78772],[-83.40856,35.78768],[-83.41092,35.78681],[-83.41176,35.78691],[-83.4124,35.78831],[-83.41383,35.78938],[-83.41528,35.79145],[-83.41496,35.79234],[-83.41389,35.7931],[-83.41352,35.79317],[-83.41302,35.7929],[-83.41192,35.79265],[-83.411,35.79268],[-83.4092,35.79334],[-83.40859,35.79406],[-83.40876,35.79446],[-83.40927,35.79466],[-83.41224,35.79504],[-83.41549,35.79494],[-83.41646,35.79479],[-83.41824,35.79397],[-83.41926,35.79385],[-83.41975,35.79466],[-83.42024,35.79486],[-83.42094,35.79694],[-83.42096,35.79758],[-83.42154,35.79788],[-83.42191,35.79834],[-83.42228,35.80037],[-83.42259,35.80057],[-83.42346,35.80069],[-83.42395,35.80062],[-83.42412,35.80044],[-83.4236,35.79932],[-83.42366,35.7987],[-83.42433,35.79746],[-83.42509,35.79669],[-83.42552,35.79573],[-83.42587,35.79554],[-83.42718,35.79545],[-83.42753,35.79557],[-83.42892,35.79827],[-83.42961,35.79904],[-83.42988,35.79969],[-83.42913,35.80345],[-83.42905,35.80556],[-83.42872,35.80622],[-83.42886,35.8081],[-83.42876,35.8092],[-83.42935,35.81031],[-83.4315,35.81315],[-83.43156,35.81422],[-83.4318,35.81469],[-83.43275,35.81553],[-83.43391,35.81587],[-83.43466,35.81592],[-83.43835,35.81571],[-83.43928,35.81582],[-83.4406,35.81622],[-83.44172,35.81676],[-83.44253,35.81748],[-83.44309,35.81964],[-83.44488,35.81964],[-83.44716,35.82014],[-83.44855,35.82123],[-83.44912,35.8223],[-83.45039,35.82299],[-83.45116,35.82259],[-83.45144,35.82224],[-83.45159,35.81871],[-83.45204,35.81833],[-83.45284,35.81818],[-83.45397,35.81833],[-83.45565,35.81964],[-83.45649,35.81994],[-83.45741,35.81976],[-83.45857,35.81883],[-83.45908,35.81867],[-83.46004,35.8187],[-83.46163,35.81906],[-83.46453,35.82031],[-83.46592,35.82112],[-83.46732,35.82302],[-83.46759,35.82456],[-83.46854,35.8257],[-83.47056,35.82751],[-83.47278,35.82923],[-83.47607,35.83114],[-83.47779,35.83241],[-83.47842,35.83251],[-83.48167,35.8313],[-83.48254,35.83176],[-83.48339,35.83179],[-83.4841,35.83216],[-83.48475,35.83286],[-83.48526,35.83434],[-83.4878,35.83727],[-83.48777,35.83763],[-83.4867,35.83941],[-83.48659,35.84002],[-83.49029,35.84001],[-83.49079,35.84016],[-83.49156,35.84248],[-83.49181,35.84436],[-83.49297,35.84616],[-83.49349,35.84678],[-83.49507,35.84794],[-83.49575,35.84888],[-83.4965,35.84885],[-83.49747,35.84938],[-83.49713,35.85057],[-83.4973,35.85281],[-83.4991,35.85735],[-83.50017,35.85897],[-83.50077,35.85918],[-83.50212,35.86003],[-83.50301,35.86019],[-83.50322,35.86053],[-83.50313,35.86096],[-83.50258,35.86177],[-83.50254,35.86354],[-83.50232,35.86396],[-83.5023,35.86436],[-83.50275,35.86465],[-83.50562,35.86483],[-83.51015,35.86656],[-83.51514,35.86731],[-83.51712,35.86818],[-83.52055,35.87065],[-83.52248,35.87118],[-83.5251,35.87245],[-83.52593,35.87236],[-83.52817,35.87133],[-83.52855,35.86949],[-83.52905,35.86863],[-83.53071,35.86721],[-83.53147,35.86691],[-83.53187,35.866],[-83.53307,35.8654],[-83.53591,35.86515],[-83.53906,35.86542],[-83.5407,35.86572],[-83.54401,35.86712],[-83.54573,35.86762],[-83.54808,35.86857],[-83.5511,35.87017],[-83.55203,35.87101],[-83.55236,35.87167],[-83.55275,35.87201],[-83.55398,35.87271],[-83.55467,35.87293],[-83.55598,35.87294],[-83.55727,35.87245],[-83.5588,35.8716],[-83.56034,35.87047],[-83.56158,35.86995],[-83.56496,35.87024],[-83.56693,35.86995],[-83.56879,35.87052],[-83.56946,35.871],[-83.57152,35.87301],[-83.57407,35.87485],[-83.57694,35.87857],[-83.57521,35.8758],[-83.57654,35.87728],[-83.57687,35.87821],[-83.57738,35.88136],[-83.57747,35.88448],[-83.5782,35.88565],[-83.57992,35.88725],[-83.58121,35.88872],[-83.58178,35.88962],[-83.58215,35.89065],[-83.58231,35.89186],[-83.58162,35.8977],[-83.58208,35.8994],[-83.58288,35.90118],[-83.58245,35.90231],[-83.58259,35.90425],[-83.58228,35.90653],[-83.58273,35.90801],[-83.58308,35.90865],[-83.58335,35.90881],[-83.58321,35.9093],[-83.58353,35.9102],[-83.5835,35.91104],[-83.58371,35.91134],[-83.5836,35.91222],[-83.58274,35.91504],[-83.5827,35.91788],[-83.58305,35.91939],[-83.58441,35.92146],[-83.58449,35.92184],[-83.58382,35.92342],[-83.58352,35.92503],[-83.58418,35.92721],[-83.58505,35.92889],[-83.58533,35.92983],[-83.58599,35.93107],[-83.58664,35.93141],[-83.59127,35.93159],[-83.59218,35.93141],[-83.59393,35.93071],[-83.59537,35.9305],[-83.59588,35.93084],[-83.59631,35.93152]]]}}
