{"type":"Feature","properties":{"id":"piney-river-rhea","name":"Piney River (Rhea County)","waterbodyType":"river","throughLakeIds":["watts-bar-lake"],"allowOpenEnds":false,"source":"nhd-hu8-06010201","approximate":false,"labelAnchor":[-84.85858,35.69952],"bounds":[-85.05078,35.60679,-84.77954,35.71713],"crs":"EPSG:4326","coordinateOrder":"longitude,latitude","partCount":1,"vertexCount":358,"lengthKm":46.17,"sourceIds":["132365778","132365777","132365783","132365782","132365781","132365780","132365779","132365785","132365786","132365787","132365788","132365789","132365790","132365791","132365792","132365793","132356647","132356648","132356649","132356650","132356651","132356652","132356653","132356654","132356655","132356656","132356657","132356658","132356659","132356660","132356661","132356662","132356663","132356664","132356666","132356665","132356686","132356687","132356688","132356689","132356690","132356691","132356692","132356693","132356694","132356695","132356696","132356697","132356698","132356699","132356703","132356706","132356705","132356704","132356702","132356701","132365993","132356700","132365776","132365811","132365812","132363404","132363432","132363445","132363461","132363465","132363476","132363498","132363499","132363495","132363496","132363505","132363564","132363569"],"sourceRetrieved":"2026-09-11","geometrySource":"nhd","hu8":"06010201","simplification":{"toleranceM":10,"verticesBefore":1833,"verticesAfter":358,"budgetBytes":81920},"trace":{"anchor":{"lat":35.69952,"lon":-84.85858,"snapDistM":0},"up":{"spec":"headwater","reason":"headwater","terminus":[-85.047972,35.620308],"distKmFromAnchor":35.46},"down":{"spec":"mouth","reason":"name-change","terminus":[-84.779539,35.652892],"enteredNames":["Tennessee River"],"distKmFromAnchor":10.43},"vaaUsed":false,"toleranceM":12}},"geometry":{"type":"MultiLineString","coordinates":[[[-85.04797,35.62031],[-85.04819,35.61979],[-85.04908,35.61936],[-85.04955,35.61881],[-85.04963,35.61829],[-85.05078,35.61619],[-85.0506,35.61531],[-85.0501,35.6143],[-85.0505,35.61375],[-85.05008,35.61348],[-85.04964,35.61284],[-85.04775,35.61241],[-85.04729,35.61226],[-85.04661,35.61174],[-85.04566,35.61157],[-85.04545,35.61082],[-85.04501,35.61039],[-85.0436,35.61027],[-85.04306,35.61066],[-85.04153,35.61052],[-85.04086,35.61061],[-85.04031,35.61042],[-85.03944,35.61041],[-85.03825,35.6094],[-85.03742,35.60938],[-85.03662,35.60916],[-85.03579,35.60845],[-85.03477,35.60848],[-85.03387,35.60696],[-85.03291,35.60679],[-85.03265,35.60687],[-85.03208,35.60749],[-85.03103,35.60746],[-85.02919,35.60897],[-85.02821,35.60912],[-85.02784,35.60985],[-85.02689,35.60995],[-85.02621,35.61087],[-85.02543,35.61092],[-85.02481,35.61159],[-85.02516,35.61192],[-85.02512,35.61213],[-85.02464,35.61243],[-85.02395,35.61242],[-85.02337,35.61185],[-85.02316,35.61135],[-85.02284,35.61137],[-85.02146,35.61338],[-85.02088,35.61364],[-85.01999,35.61365],[-85.01951,35.61495],[-85.0187,35.61518],[-85.01837,35.61544],[-85.01801,35.6172],[-85.01739,35.61707],[-85.01701,35.61665],[-85.0167,35.61663],[-85.01606,35.61717],[-85.016,35.61776],[-85.01569,35.61793],[-85.01555,35.61712],[-85.0152,35.61687],[-85.01426,35.61702],[-85.01238,35.61702],[-85.01218,35.61734],[-85.0124,35.6179],[-85.01212,35.61806],[-85.01124,35.61806],[-85.01067,35.61927],[-85.0099,35.61864],[-85.00935,35.61848],[-85.00839,35.61891],[-85.00668,35.61931],[-85.00593,35.61936],[-85.00577,35.61915],[-85.00578,35.61883],[-85.00749,35.61755],[-85.00792,35.61639],[-85.00797,35.6157],[-85.00748,35.61525],[-85.00676,35.61539],[-85.00637,35.61532],[-85.00602,35.61461],[-85.00581,35.61322],[-85.00426,35.61113],[-85.00365,35.61136],[-85.00324,35.61245],[-85.00281,35.61273],[-85.0013,35.61252],[-84.99909,35.6119],[-84.99849,35.61205],[-84.99805,35.61283],[-84.99769,35.61309],[-84.99732,35.61312],[-84.99611,35.61282],[-84.99545,35.61286],[-84.99519,35.61313],[-84.9951,35.61411],[-84.9946,35.6144],[-84.99401,35.61413],[-84.99362,35.61275],[-84.99322,35.61249],[-84.99196,35.61212],[-84.99093,35.61113],[-84.99064,35.61108],[-84.99019,35.61141],[-84.99045,35.61274],[-84.99015,35.61347],[-84.98932,35.61412],[-84.98863,35.61437],[-84.98722,35.6145],[-84.98683,35.61467],[-84.9866,35.61497],[-84.98651,35.61582],[-84.98716,35.61706],[-84.98692,35.61797],[-84.98628,35.61819],[-84.98468,35.61774],[-84.98405,35.6178],[-84.98365,35.61831],[-84.98367,35.61919],[-84.98331,35.61976],[-84.98268,35.61985],[-84.98203,35.61961],[-84.98085,35.6182],[-84.98001,35.61819],[-84.97855,35.61775],[-84.97793,35.61774],[-84.97681,35.61824],[-84.97454,35.62233],[-84.97421,35.62256],[-84.97352,35.62264],[-84.97292,35.62246],[-84.97247,35.62215],[-84.97219,35.62165],[-84.9715,35.62123],[-84.97099,35.62101],[-84.96995,35.62087],[-84.96953,35.62154],[-84.96949,35.62279],[-84.96917,35.62329],[-84.96804,35.62401],[-84.9656,35.62479],[-84.9654,35.62501],[-84.96531,35.62525],[-84.96566,35.62634],[-84.96572,35.62719],[-84.96516,35.6286],[-84.96419,35.62893],[-84.96173,35.62849],[-84.96031,35.62858],[-84.95987,35.62884],[-84.95951,35.62957],[-84.95921,35.63284],[-84.95831,35.63518],[-84.95838,35.63561],[-84.95912,35.6366],[-84.95906,35.63705],[-84.95883,35.63734],[-84.95761,35.63798],[-84.95524,35.63837],[-84.95437,35.63838],[-84.9532,35.63775],[-84.95274,35.63764],[-84.95231,35.63769],[-84.95204,35.6379],[-84.95209,35.63854],[-84.95346,35.64103],[-84.95338,35.64242],[-84.95361,35.64356],[-84.95444,35.64451],[-84.95554,35.64622],[-84.95506,35.64683],[-84.95411,35.64693],[-84.95279,35.64665],[-84.95182,35.64597],[-84.951,35.64571],[-84.94818,35.64626],[-84.94622,35.64623],[-84.94546,35.64646],[-84.94376,35.64799],[-84.94157,35.64834],[-84.94077,35.64873],[-84.94023,35.64923],[-84.93812,35.6529],[-84.93832,35.65366],[-84.93894,35.65421],[-84.93919,35.65507],[-84.93914,35.65577],[-84.93839,35.65652],[-84.93699,35.65713],[-84.93562,35.65865],[-84.93391,35.65904],[-84.93343,35.65938],[-84.93188,35.66158],[-84.93006,35.66242],[-84.92984,35.66265],[-84.92827,35.6653],[-84.9277,35.66594],[-84.92597,35.6666],[-84.92536,35.66706],[-84.92472,35.66815],[-84.92356,35.66893],[-84.92081,35.66971],[-84.91965,35.67022],[-84.91908,35.67076],[-84.91766,35.67365],[-84.917,35.67361],[-84.91516,35.6721],[-84.91391,35.67144],[-84.91338,35.67137],[-84.91271,35.67157],[-84.91157,35.67253],[-84.91182,35.67385],[-84.91257,35.6749],[-84.91262,35.67526],[-84.91224,35.67569],[-84.9118,35.67588],[-84.91021,35.67608],[-84.90982,35.67638],[-84.90962,35.67679],[-84.90984,35.67774],[-84.91111,35.68001],[-84.91132,35.68092],[-84.91121,35.682],[-84.91095,35.68245],[-84.91029,35.68294],[-84.90857,35.68374],[-84.90821,35.68438],[-84.90853,35.68512],[-84.91098,35.68657],[-84.91183,35.68737],[-84.91194,35.68771],[-84.91189,35.68861],[-84.91098,35.69135],[-84.91107,35.69301],[-84.91187,35.69581],[-84.91052,35.69843],[-84.90834,35.70113],[-84.90514,35.7029],[-84.90436,35.70284],[-84.90083,35.70172],[-84.89996,35.70167],[-84.89954,35.70178],[-84.89863,35.70254],[-84.89768,35.70407],[-84.89715,35.7042],[-84.896,35.70375],[-84.89462,35.7029],[-84.89344,35.7024],[-84.89283,35.70234],[-84.89237,35.70245],[-84.89087,35.70553],[-84.8909,35.70663],[-84.8914,35.70913],[-84.89121,35.7097],[-84.89089,35.70988],[-84.89046,35.70983],[-84.88845,35.70882],[-84.88785,35.70872],[-84.88622,35.70912],[-84.88544,35.70951],[-84.8851,35.70986],[-84.88512,35.71112],[-84.88595,35.71275],[-84.88602,35.7146],[-84.8869,35.71632],[-84.88674,35.71682],[-84.886,35.71713],[-84.88497,35.7171],[-84.88382,35.7164],[-84.88087,35.71552],[-84.87978,35.71505],[-84.87951,35.7148],[-84.87963,35.71341],[-84.88037,35.7126],[-84.88158,35.71169],[-84.88157,35.71103],[-84.88128,35.7106],[-84.88072,35.71026],[-84.87887,35.7097],[-84.87795,35.70921],[-84.877,35.70769],[-84.87538,35.70559],[-84.87461,35.70401],[-84.87421,35.70373],[-84.87357,35.70349],[-84.87217,35.7033],[-84.87171,35.70345],[-84.87025,35.70353],[-84.86632,35.70271],[-84.8661,35.70254],[-84.86604,35.70219],[-84.86639,35.70118],[-84.86604,35.70057],[-84.86393,35.69917],[-84.86231,35.69851],[-84.86132,35.69856],[-84.85994,35.6992],[-84.85879,35.69948],[-84.85616,35.6997],[-84.85523,35.69968],[-84.85858,35.69952],[-84.85519,35.69967],[-84.85428,35.69957],[-84.85341,35.69931],[-84.85269,35.69881],[-84.85252,35.69864],[-84.85275,35.69807],[-84.85263,35.69734],[-84.85366,35.69628],[-84.85391,35.69557],[-84.85377,35.69508],[-84.85291,35.69411],[-84.85237,35.69307],[-84.85235,35.69261],[-84.85281,35.69197],[-84.85267,35.69131],[-84.85031,35.68846],[-84.84991,35.68814],[-84.84837,35.68761],[-84.84758,35.68576],[-84.84661,35.68497],[-84.84552,35.68435],[-84.8446,35.6815],[-84.83726,35.67953],[-84.83695,35.67919],[-84.83601,35.67624],[-84.83208,35.67459],[-84.82874,35.67519],[-84.82681,35.67489],[-84.82282,35.67374],[-84.82098,35.67345],[-84.81864,35.67374],[-84.817,35.67357],[-84.81643,35.67338],[-84.81349,35.67403],[-84.81184,35.67469],[-84.80925,35.67438],[-84.80689,35.67447],[-84.80405,35.67356],[-84.80156,35.67395],[-84.80092,35.6737],[-84.80011,35.67333],[-84.79953,35.67262],[-84.80064,35.66962],[-84.79969,35.66841],[-84.79948,35.6671],[-84.79917,35.66667],[-84.79775,35.66298],[-84.79639,35.66192],[-84.79605,35.6613],[-84.79562,35.65969],[-84.79099,35.65708],[-84.7899,35.65744],[-84.78911,35.65754],[-84.78308,35.65415],[-84.77954,35.65289]]]}}
