{"type":"Feature","properties":{"id":"calfkiller-river","name":"Calfkiller River","waterbodyType":"river","throughLakeIds":[],"allowOpenEnds":false,"source":"nhd-hu8-05130108","approximate":false,"labelAnchor":[-85.46751,35.92655],"bounds":[-85.49012,35.81974,-85.25854,36.14521],"crs":"EPSG:4326","coordinateOrder":"longitude,latitude","partCount":1,"vertexCount":596,"lengthKm":80.96,"sourceIds":["136994149","136994150","136994151","136994152","136994154","136994153","136993454","136993455","136993456","136993457","136993458","136993459","136993460","136993461","136993462","136993463","136993464","136990754","136990753","136990755","136990756","136990757","136990758","136990759","136990760","136983802","136983807","136990761","136993396","136990762","136994148","136994158","136994163","136994164","136994596"],"sourceRetrieved":"2026-09-11","geometrySource":"nhd","hu8":"05130108","simplification":{"toleranceM":10,"verticesBefore":5830,"verticesAfter":596,"budgetBytes":81920},"trace":{"anchor":{"lat":35.9265,"lon":-85.4674,"snapDistM":11.3},"up":{"spec":"headwater","reason":"headwater","terminus":[-85.258537,36.145214],"distKmFromAnchor":47.12},"down":{"spec":"mouth","reason":"name-change","terminus":[-85.479955,35.819739],"enteredNames":["Caney Fork"],"distKmFromAnchor":28.41},"vaaUsed":false,"toleranceM":12}},"geometry":{"type":"MultiLineString","coordinates":[[[-85.25854,36.14521],[-85.25968,36.14403],[-85.26092,36.14366],[-85.2613,36.14336],[-85.26118,36.14281],[-85.26177,36.14202],[-85.26139,36.14075],[-85.26171,36.14054],[-85.26328,36.14108],[-85.26383,36.13983],[-85.26488,36.13919],[-85.26627,36.13886],[-85.26673,36.13799],[-85.2671,36.13768],[-85.2683,36.13738],[-85.26942,36.13732],[-85.2697,36.13671],[-85.26881,36.13615],[-85.2689,36.13595],[-85.26992,36.1353],[-85.2713,36.13491],[-85.27251,36.13398],[-85.27306,36.13323],[-85.27357,36.13286],[-85.27546,36.13246],[-85.27647,36.13158],[-85.27671,36.13088],[-85.2767,36.12971],[-85.27735,36.12839],[-85.27757,36.1265],[-85.27719,36.12553],[-85.27732,36.12473],[-85.27794,36.12426],[-85.28031,36.12337],[-85.28097,36.12268],[-85.28155,36.12237],[-85.28229,36.12163],[-85.28334,36.1209],[-85.28394,36.12071],[-85.28483,36.12009],[-85.28619,36.11971],[-85.2866,36.11946],[-85.28729,36.11786],[-85.28732,36.11702],[-85.28818,36.11553],[-85.28909,36.11509],[-85.28922,36.11435],[-85.28952,36.11388],[-85.29087,36.11374],[-85.29139,36.11333],[-85.29218,36.11357],[-85.29311,36.11311],[-85.29434,36.11339],[-85.29522,36.11321],[-85.29647,36.11257],[-85.29705,36.112],[-85.29767,36.1119],[-85.29832,36.11155],[-85.29985,36.11007],[-85.30163,36.10973],[-85.30292,36.10868],[-85.30428,36.10813],[-85.30524,36.1072],[-85.30596,36.10673],[-85.30834,36.10586],[-85.30863,36.10564],[-85.30819,36.10371],[-85.30964,36.10261],[-85.31033,36.10143],[-85.31092,36.10084],[-85.31115,36.10024],[-85.31252,36.09892],[-85.31288,36.09817],[-85.31427,36.09767],[-85.31522,36.0978],[-85.31557,36.09737],[-85.31655,36.09715],[-85.31841,36.09503],[-85.3194,36.09472],[-85.31984,36.09323],[-85.31966,36.09228],[-85.31991,36.09106],[-85.3194,36.09047],[-85.31782,36.08988],[-85.31774,36.08943],[-85.31822,36.08878],[-85.31939,36.08776],[-85.32093,36.0869],[-85.32221,36.0867],[-85.32316,36.08569],[-85.32492,36.08487],[-85.32585,36.08364],[-85.32521,36.08148],[-85.32438,36.08094],[-85.32461,36.08019],[-85.3237,36.07914],[-85.32146,36.07769],[-85.32145,36.07656],[-85.32184,36.07557],[-85.3222,36.07521],[-85.32373,36.07445],[-85.32608,36.07377],[-85.32641,36.07341],[-85.32586,36.0717],[-85.32532,36.07102],[-85.32338,36.06967],[-85.32251,36.06943],[-85.32188,36.06867],[-85.32142,36.06844],[-85.32102,36.06853],[-85.32073,36.06836],[-85.32048,36.06756],[-85.32068,36.06664],[-85.32141,36.06494],[-85.32236,36.06351],[-85.32355,36.0622],[-85.32378,36.06159],[-85.3252,36.06005],[-85.32584,36.05897],[-85.32672,36.05809],[-85.32684,36.05775],[-85.32671,36.0571],[-85.32738,36.05619],[-85.32778,36.05604],[-85.32877,36.05604],[-85.3292,36.05499],[-85.32957,36.05468],[-85.32995,36.05459],[-85.33108,36.05483],[-85.33229,36.0556],[-85.33256,36.05556],[-85.3327,36.05534],[-85.33249,36.05477],[-85.33131,36.05362],[-85.33096,36.05253],[-85.32961,36.05184],[-85.32798,36.05068],[-85.32802,36.05034],[-85.32921,36.04881],[-85.32923,36.04843],[-85.32763,36.04774],[-85.32634,36.04692],[-85.32606,36.04637],[-85.326,36.04563],[-85.32634,36.04521],[-85.32882,36.04481],[-85.3291,36.04464],[-85.32918,36.04433],[-85.32874,36.04374],[-85.32633,36.04237],[-85.32599,36.04188],[-85.32593,36.04143],[-85.32642,36.0411],[-85.32977,36.04026],[-85.33167,36.03924],[-85.33226,36.03864],[-85.33184,36.03675],[-85.33188,36.03625],[-85.33219,36.03553],[-85.33314,36.03452],[-85.33336,36.03395],[-85.33306,36.03358],[-85.33265,36.03343],[-85.32991,36.03362],[-85.32966,36.03322],[-85.32986,36.03251],[-85.33051,36.03217],[-85.33255,36.03181],[-85.33557,36.03164],[-85.33703,36.03144],[-85.3374,36.03117],[-85.33724,36.03059],[-85.33654,36.02957],[-85.33534,36.02844],[-85.3347,36.02813],[-85.33177,36.02962],[-85.33129,36.02962],[-85.33048,36.0292],[-85.3291,36.02655],[-85.32921,36.02597],[-85.32976,36.02506],[-85.3297,36.02463],[-85.32929,36.0241],[-85.32929,36.02378],[-85.32945,36.02362],[-85.33048,36.02339],[-85.33104,36.02345],[-85.33146,36.02371],[-85.33202,36.02437],[-85.33275,36.02476],[-85.33328,36.02553],[-85.33394,36.02556],[-85.33472,36.02543],[-85.33535,36.02503],[-85.33667,36.02338],[-85.33727,36.02328],[-85.33767,36.02348],[-85.33817,36.0232],[-85.33834,36.0227],[-85.33816,36.02201],[-85.3365,36.01852],[-85.33578,36.01746],[-85.33592,36.01614],[-85.33683,36.01547],[-85.33877,36.01496],[-85.34065,36.01423],[-85.34123,36.01436],[-85.34218,36.01398],[-85.34337,36.01401],[-85.34575,36.01458],[-85.34773,36.01478],[-85.34834,36.01438],[-85.34946,36.01253],[-85.35,36.01231],[-85.35244,36.01227],[-85.35331,36.01261],[-85.35461,36.0134],[-85.35543,36.01344],[-85.35565,36.01311],[-85.35556,36.01258],[-85.3538,36.01082],[-85.35372,36.01047],[-85.35403,36.01023],[-85.35509,36.01022],[-85.35564,36.01036],[-85.35749,36.01196],[-85.35851,36.01244],[-85.35939,36.01237],[-85.36238,36.01144],[-85.36297,36.01088],[-85.36304,36.0099],[-85.36147,36.00574],[-85.3614,36.00423],[-85.36194,36.00348],[-85.36369,36.00329],[-85.36678,36.00355],[-85.36763,36.00328],[-85.36893,36.00218],[-85.37067,36.00274],[-85.37194,36.00292],[-85.37236,36.00274],[-85.37248,36.0019],[-85.37275,36.00173],[-85.37474,36.00185],[-85.37692,36.00225],[-85.37897,36.00194],[-85.38019,36.00148],[-85.38059,36.00119],[-85.38055,36.00074],[-85.37969,35.99967],[-85.37665,35.9985],[-85.37596,35.99803],[-85.37534,35.99734],[-85.37539,35.9969],[-85.37572,35.99658],[-85.37885,35.99688],[-85.37958,35.99673],[-85.38006,35.99637],[-85.38013,35.99592],[-85.37997,35.99563],[-85.37772,35.99395],[-85.3778,35.99338],[-85.37824,35.99309],[-85.37915,35.99304],[-85.38215,35.99355],[-85.38334,35.99362],[-85.38437,35.99331],[-85.38518,35.99265],[-85.38589,35.99172],[-85.38596,35.99116],[-85.38564,35.99066],[-85.38435,35.98969],[-85.38401,35.98928],[-85.38381,35.98803],[-85.384,35.9876],[-85.38441,35.98737],[-85.38525,35.98754],[-85.38719,35.98865],[-85.39002,35.9892],[-85.39076,35.9905],[-85.39118,35.9909],[-85.39166,35.99089],[-85.39345,35.99015],[-85.39373,35.99024],[-85.39483,35.99118],[-85.3952,35.99128],[-85.39558,35.99119],[-85.39588,35.99055],[-85.39504,35.98879],[-85.39504,35.98837],[-85.39527,35.98807],[-85.39594,35.98767],[-85.39674,35.98746],[-85.39886,35.98752],[-85.39946,35.98742],[-85.39987,35.98711],[-85.40003,35.98649],[-85.39977,35.98588],[-85.39907,35.98545],[-85.39618,35.98481],[-85.39509,35.98429],[-85.39485,35.98396],[-85.39484,35.98346],[-85.3953,35.98284],[-85.3981,35.98219],[-85.39895,35.98227],[-85.40106,35.98282],[-85.40178,35.98328],[-85.40298,35.98513],[-85.40388,35.98562],[-85.40515,35.98557],[-85.40785,35.98503],[-85.41243,35.98546],[-85.41367,35.98546],[-85.41419,35.98504],[-85.415,35.98378],[-85.41555,35.98344],[-85.41626,35.98377],[-85.41757,35.98545],[-85.41817,35.98555],[-85.41867,35.98542],[-85.41911,35.98505],[-85.41946,35.98285],[-85.42211,35.98056],[-85.4224,35.98016],[-85.42242,35.97974],[-85.42171,35.9793],[-85.41925,35.97883],[-85.41828,35.97811],[-85.41803,35.97717],[-85.41875,35.97484],[-85.41865,35.97336],[-85.41803,35.97246],[-85.4157,35.9703],[-85.41518,35.96953],[-85.41522,35.96869],[-85.41559,35.96805],[-85.41625,35.96752],[-85.41785,35.96682],[-85.41811,35.96641],[-85.41803,35.96599],[-85.41764,35.96579],[-85.41668,35.96588],[-85.41367,35.96577],[-85.4131,35.96545],[-85.4127,35.96447],[-85.41287,35.96417],[-85.41421,35.96349],[-85.414,35.96253],[-85.41421,35.96215],[-85.41872,35.96043],[-85.41976,35.95952],[-85.41953,35.95872],[-85.41888,35.95801],[-85.41836,35.95792],[-85.41692,35.9581],[-85.41661,35.95779],[-85.41684,35.95715],[-85.41842,35.95531],[-85.41897,35.95434],[-85.41925,35.95337],[-85.41931,35.95156],[-85.41972,35.95082],[-85.42029,35.95038],[-85.42124,35.95008],[-85.42226,35.95015],[-85.42494,35.95087],[-85.42744,35.95057],[-85.42912,35.95063],[-85.42973,35.95042],[-85.42993,35.94998],[-85.42948,35.94857],[-85.4293,35.9463],[-85.43045,35.94322],[-85.43087,35.94282],[-85.43143,35.94261],[-85.43179,35.94262],[-85.43252,35.94295],[-85.43563,35.94533],[-85.43672,35.94587],[-85.43749,35.94604],[-85.43801,35.94597],[-85.43983,35.9445],[-85.44078,35.94425],[-85.44141,35.94456],[-85.4435,35.94616],[-85.4455,35.94722],[-85.46751,35.92655],[-85.44561,35.94727],[-85.44696,35.94769],[-85.44762,35.94761],[-85.44799,35.94741],[-85.44895,35.94464],[-85.44957,35.94424],[-85.45087,35.94389],[-85.45163,35.94331],[-85.45188,35.94066],[-85.45222,35.93949],[-85.45263,35.93878],[-85.45467,35.93666],[-85.4579,35.93444],[-85.46037,35.93199],[-85.46109,35.93185],[-85.46322,35.93229],[-85.47017,35.93418],[-85.47092,35.93414],[-85.47143,35.93393],[-85.47236,35.93299],[-85.47272,35.93183],[-85.47193,35.93081],[-85.47142,35.93041],[-85.47077,35.9303],[-85.46834,35.9304],[-85.46706,35.93011],[-85.46641,35.92967],[-85.46624,35.92912],[-85.46633,35.92859],[-85.46789,35.92592],[-85.4686,35.9251],[-85.46994,35.92417],[-85.47035,35.92347],[-85.47028,35.9232],[-85.46992,35.92298],[-85.4681,35.92269],[-85.46737,35.92241],[-85.46686,35.92202],[-85.46685,35.92167],[-85.4674,35.92124],[-85.46873,35.92124],[-85.47408,35.92236],[-85.47567,35.92256],[-85.47763,35.92248],[-85.47886,35.92211],[-85.47954,35.92129],[-85.47964,35.92021],[-85.47914,35.9198],[-85.4767,35.91856],[-85.47593,35.91792],[-85.47436,35.91581],[-85.47419,35.91528],[-85.47437,35.91433],[-85.47573,35.91264],[-85.47619,35.91255],[-85.47641,35.91204],[-85.47674,35.91181],[-85.47764,35.91173],[-85.47918,35.91193],[-85.47959,35.91149],[-85.48162,35.91164],[-85.48207,35.91142],[-85.48222,35.91117],[-85.48202,35.91053],[-85.47933,35.90878],[-85.47747,35.90712],[-85.47675,35.90712],[-85.47546,35.90838],[-85.47428,35.90885],[-85.47359,35.9085],[-85.47307,35.90756],[-85.47294,35.9069],[-85.47312,35.90602],[-85.47416,35.90371],[-85.47483,35.90284],[-85.47556,35.90261],[-85.47749,35.903],[-85.47851,35.90299],[-85.47927,35.90251],[-85.47982,35.90166],[-85.47997,35.90086],[-85.47967,35.90044],[-85.47649,35.90053],[-85.47552,35.90044],[-85.47452,35.89987],[-85.47412,35.89906],[-85.4747,35.89757],[-85.47548,35.89321],[-85.47582,35.89235],[-85.47631,35.89205],[-85.47699,35.8919],[-85.47957,35.89188],[-85.47995,35.89154],[-85.48013,35.8911],[-85.47991,35.89054],[-85.4792,35.89007],[-85.47859,35.89003],[-85.47684,35.89026],[-85.47599,35.88997],[-85.47316,35.8883],[-85.47284,35.88784],[-85.47287,35.88738],[-85.47319,35.8868],[-85.47386,35.88634],[-85.47632,35.88565],[-85.47699,35.88506],[-85.47677,35.88458],[-85.47466,35.8833],[-85.47457,35.88289],[-85.4748,35.8826],[-85.47572,35.8824],[-85.47724,35.88266],[-85.47847,35.88314],[-85.47994,35.8842],[-85.48071,35.88423],[-85.48101,35.88386],[-85.48095,35.88329],[-85.48066,35.88244],[-85.47952,35.88035],[-85.47941,35.87968],[-85.4796,35.87922],[-85.48012,35.87888],[-85.48067,35.87876],[-85.48143,35.87911],[-85.48168,35.8796],[-85.48175,35.88118],[-85.48227,35.88183],[-85.48314,35.88197],[-85.48471,35.88178],[-85.48552,35.88128],[-85.48561,35.8807],[-85.48529,35.87985],[-85.484,35.87791],[-85.48386,35.87743],[-85.484,35.87691],[-85.48435,35.87665],[-85.485,35.87655],[-85.48755,35.87675],[-85.48791,35.87662],[-85.48805,35.87633],[-85.48777,35.87587],[-85.48418,35.8739],[-85.48116,35.87281],[-85.48084,35.87236],[-85.48049,35.87048],[-85.4798,35.86948],[-85.47395,35.86873],[-85.47255,35.86828],[-85.47234,35.86789],[-85.47248,35.86603],[-85.47227,35.86495],[-85.47129,35.86334],[-85.46972,35.86145],[-85.4689,35.8596],[-85.4692,35.85887],[-85.47111,35.85746],[-85.47143,35.857],[-85.47134,35.85638],[-85.46985,35.8555],[-85.46979,35.85492],[-85.47329,35.85232],[-85.4739,35.85143],[-85.47447,35.85009],[-85.47456,35.84853],[-85.47439,35.84738],[-85.47389,35.84645],[-85.47273,35.84521],[-85.47287,35.84439],[-85.47336,35.84415],[-85.47542,35.84379],[-85.47859,35.84385],[-85.47985,35.84327],[-85.48175,35.84167],[-85.48305,35.84087],[-85.484,35.84065],[-85.48557,35.8408],[-85.4871,35.84064],[-85.48802,35.84005],[-85.48931,35.83876],[-85.48943,35.83832],[-85.49012,35.83731],[-85.48993,35.83678],[-85.48928,35.83648],[-85.48796,35.83621],[-85.48529,35.83599],[-85.48474,35.83648],[-85.48425,35.83839],[-85.48382,35.83884],[-85.48208,35.83975],[-85.48107,35.83979],[-85.48066,35.83961],[-85.48039,35.83883],[-85.48053,35.83595],[-85.48117,35.83295],[-85.48128,35.83049],[-85.48109,35.82976],[-85.48057,35.82897],[-85.47907,35.82793],[-85.47883,35.82746],[-85.47913,35.82699],[-85.47963,35.8267],[-85.48175,35.82608],[-85.48205,35.82581],[-85.48214,35.8254],[-85.48195,35.82472],[-85.48118,35.82386],[-85.4803,35.82195],[-85.47995,35.81974]]]}}
