{"type":"Feature","properties":{"id":"clear-fork","name":"Clear Fork","waterbodyType":"creek","throughLakeIds":["lake-cumberland"],"allowOpenEnds":false,"source":"nhd-hu8-05130104","approximate":false,"labelAnchor":[-84.63035,36.38812],"bounds":[-84.97938,36.18842,-84.52282,36.98858],"crs":"EPSG:4326","coordinateOrder":"longitude,latitude","partCount":1,"vertexCount":1197,"lengthKm":194.23,"sourceIds":["38157560","38157636","38157633","38157643","38157647","38157649","38157645","38157626","38157618","38157566","38157472","38157411","38157477","38157500","38157542","38157547","38157588","38157610","38157624","38157733","38157764","38157818","38157851","38157856","38157918","38157965","38157998","38157997","38157993","38157942","38157897","38157905","38157917","38158008","38158076","38158132","38158292","38158348","38158383","38158392","38158389","38158376","38158462","38158545","38158625","38158645","38158683","38158716","38158856","38158864","38158855","38158970","38159091","38159352","38159396","38159538","38159556","38159662","38159626","38159656","38159821","38159818","38159754","38159747","38159740","38159898","38159931","38159950","38160035","38160182","38160312","38160590","38160734","38160712","38160807","38160846","38160865","38160959","38160968","38161009","38161047","38161098","38161173","38161229","38161259","38161270","38161268","38161317","38161312","38161336","38161339","38157427","38157357","38157253","38157239","38157235","38157140","38157098","38157075","38157051","38157048","38157006","38156928","38156891","38156872","38156857","38156850","38156785","38156786","38156820","38156819","38156767","38156721","38156646","38156587","38156571","38156485","38156442","38156476","38156487","38156472","38156431","38156406","38156396","38156328","38156260","38156207","38156180","38156171","38156139","38156115","38156095","38156074","38156033","38156003","38155972","38155874","38155866","38155862","38155854","38155847","38155792","38155775","38155696","38155680","38155671","38155650","38155632","38155624","38155612","38155591","38155589","38155578","38155528","38155520","38155516","38155509","38155481","38155454","38155445","38155401","38155387","38155349","38155343","38155367","38155374","38155362","38155361","38155351","38155313","38155309","38155278","38155277","38155273","38155267","38155232","38155225","38155177","38155175","38155171","38155169","38155163","38155159","38155155","38155147","38155120","38155115","38155112","38155110","38155104","38155072","38155069","38155056","38155052","38155050","38155048","38155045","38155038","38155025","38155030","38155034","38155024","38155005","38155000","38154998","38154995","38154994","38154990","38154978","38154964","38154910","38154900","38154882","38154849","38154815","38154786","38154754","38154734","38154722","38154697","38154678","38154652","{F13B220A-628A-4AFE-9538-B47A6CE665C1}","38154603","38154562","38154539","38154528","{2202B046-2116-46E9-9281-3B1DD0C2ACB7}","38154516","{6E77E3B0-F1C0-41D0-932A-A090368FB584}","38154495","{A816770E-54D5-4F72-9202-FD2F5A84BFFD}","{78D3CB20-F25A-48A5-B391-B463F28F6BF8}","38154478","38154460","38154369","38154353","38154361","38154356","38154325","38154287","38154267","38154256","38154223","38154211","38154198","38154186","38154166","38154153","38154112","38154087","38154072","38154068","38154051","38154054","38154053","38154008","38153995","38153994","38153981","38153973","38153974","38153972","38153957","38153935","38153890","38153830","38153815","38153810","38153762","38153781","38153802","38153763","38153729","38153720","38153690","38153694","38153695","{834C9369-8558-4BBD-A30D-74D5E1BF39D5}","38153663","{655D26E2-FE68-4679-BEA4-BEBD6BFC5EE2}","38153660","{FD96D8E3-FD26-4CD7-84B7-717A1EEA1A9B}","38153653"],"sourceRetrieved":"2026-09-11","geometrySource":"nhd","hu8":"05130104","simplification":{"toleranceM":10,"verticesBefore":26456,"verticesAfter":1197,"budgetBytes":81920},"trace":{"anchor":{"lat":36.3883,"lon":-84.6302,"snapDistM":24.3},"up":{"spec":"headwater","reason":"headwater","terminus":[-84.979385,36.191149],"distKmFromAnchor":65.75},"down":{"spec":"confluence:New River","reason":"terminal-node","terminus":[-84.61038,36.988579],"enteredNames":null,"distKmFromAnchor":129.18},"vaaUsed":false,"toleranceM":12}},"geometry":{"type":"MultiLineString","coordinates":[[[-84.97938,36.19115],[-84.9767,36.19058],[-84.97483,36.18989],[-84.97356,36.18878],[-84.97282,36.18842],[-84.9713,36.18846],[-84.96931,36.18928],[-84.96904,36.18968],[-84.96794,36.19045],[-84.96701,36.1914],[-84.96584,36.19131],[-84.96515,36.19083],[-84.96504,36.19043],[-84.96479,36.1904],[-84.96375,36.19069],[-84.96239,36.19146],[-84.96155,36.19163],[-84.96071,36.19203],[-84.95998,36.19184],[-84.95892,36.192],[-84.95763,36.19169],[-84.95741,36.19182],[-84.9573,36.19218],[-84.95665,36.19262],[-84.95569,36.19244],[-84.95497,36.19267],[-84.95436,36.19329],[-84.95389,36.19315],[-84.95249,36.19326],[-84.95219,36.19321],[-84.95264,36.19261],[-84.95257,36.19161],[-84.95174,36.1912],[-84.95156,36.1906],[-84.95105,36.19052],[-84.94842,36.19089],[-84.94843,36.19188],[-84.94799,36.19221],[-84.94708,36.19206],[-84.94582,36.19279],[-84.9446,36.19286],[-84.94374,36.19264],[-84.94318,36.19277],[-84.94259,36.19316],[-84.94289,36.19374],[-84.9428,36.19394],[-84.94235,36.19423],[-84.94138,36.19444],[-84.94113,36.1948],[-84.94109,36.19539],[-84.94066,36.19558],[-84.94019,36.19555],[-84.93903,36.19492],[-84.93788,36.19494],[-84.93527,36.19582],[-84.93488,36.19623],[-84.9343,36.19635],[-84.93304,36.19593],[-84.93202,36.19583],[-84.93202,36.19461],[-84.93182,36.19421],[-84.93152,36.19407],[-84.92964,36.19521],[-84.92915,36.19517],[-84.92883,36.19494],[-84.92785,36.19485],[-84.92676,36.19529],[-84.92565,36.19595],[-84.9243,36.19622],[-84.9241,36.1965],[-84.92434,36.19708],[-84.92382,36.19766],[-84.92392,36.19841],[-84.92427,36.19887],[-84.9251,36.19936],[-84.92538,36.20046],[-84.92594,36.20089],[-84.92695,36.20092],[-84.92705,36.20117],[-84.92554,36.20204],[-84.92476,36.20203],[-84.92424,36.20281],[-84.92459,36.20352],[-84.92461,36.20409],[-84.92551,36.20457],[-84.9259,36.20503],[-84.92581,36.20512],[-84.92434,36.20481],[-84.92392,36.20501],[-84.92371,36.20555],[-84.92418,36.20634],[-84.92345,36.20667],[-84.92335,36.20689],[-84.92382,36.20718],[-84.92449,36.2072],[-84.9243,36.20782],[-84.92391,36.20821],[-84.9224,36.20874],[-84.92264,36.20905],[-84.92387,36.20939],[-84.92409,36.2097],[-84.92403,36.20996],[-84.92372,36.21011],[-84.92172,36.21028],[-84.92145,36.21058],[-84.92155,36.21113],[-84.92195,36.21132],[-84.92374,36.21086],[-84.92438,36.21096],[-84.92475,36.21197],[-84.92403,36.21288],[-84.9241,36.21345],[-84.92386,36.21412],[-84.92398,36.21471],[-84.92364,36.21486],[-84.92309,36.2148],[-84.92232,36.21414],[-84.92067,36.21428],[-84.92026,36.21446],[-84.91987,36.21513],[-84.91886,36.21544],[-84.91873,36.21584],[-84.91896,36.21678],[-84.91878,36.21734],[-84.91816,36.21804],[-84.91721,36.2179],[-84.91674,36.21812],[-84.91567,36.21952],[-84.91529,36.22111],[-84.91382,36.22284],[-84.91386,36.22313],[-84.91413,36.2233],[-84.91632,36.22364],[-84.91672,36.22383],[-84.91685,36.22463],[-84.91637,36.22559],[-84.91558,36.22641],[-84.91381,36.22708],[-84.91287,36.22678],[-84.91203,36.22612],[-84.91169,36.22614],[-84.9115,36.22633],[-84.91152,36.22662],[-84.91269,36.22814],[-84.91271,36.22858],[-84.91205,36.22882],[-84.91046,36.22853],[-84.90992,36.22855],[-84.90946,36.22885],[-84.90876,36.2297],[-84.90882,36.22994],[-84.91029,36.23124],[-84.911,36.23138],[-84.91255,36.23106],[-84.9136,36.23128],[-84.91406,36.23152],[-84.91474,36.23241],[-84.91485,36.23272],[-84.91473,36.23318],[-84.91285,36.23484],[-84.91263,36.23524],[-84.91273,36.23552],[-84.91402,36.23675],[-84.91454,36.23768],[-84.91461,36.23821],[-84.91443,36.23836],[-84.91323,36.23855],[-84.91288,36.23823],[-84.91321,36.2372],[-84.91313,36.237],[-84.91206,36.2368],[-84.91141,36.23622],[-84.91096,36.23604],[-84.91064,36.23606],[-84.91005,36.23645],[-84.90906,36.23766],[-84.90915,36.2383],[-84.90955,36.23853],[-84.91252,36.23922],[-84.91277,36.23945],[-84.9126,36.23978],[-84.91163,36.24051],[-84.9111,36.24123],[-84.91116,36.24209],[-84.91176,36.24283],[-84.91187,36.24333],[-84.91165,36.24353],[-84.91095,36.24354],[-84.91008,36.24382],[-84.9086,36.24362],[-84.90837,36.2433],[-84.90836,36.24292],[-84.90898,36.24121],[-84.90864,36.24099],[-84.90811,36.24121],[-84.90705,36.2424],[-84.9057,36.24303],[-84.90518,36.24433],[-84.90445,36.24511],[-84.90499,36.24595],[-84.90522,36.24729],[-84.90424,36.24885],[-84.90395,36.24893],[-84.9035,36.24862],[-84.90285,36.24854],[-84.90134,36.24908],[-84.90112,36.24943],[-84.90107,36.25013],[-84.90149,36.25063],[-84.90158,36.25114],[-84.90318,36.25256],[-84.90442,36.25341],[-84.90549,36.25388],[-84.90613,36.25391],[-84.90666,36.25332],[-84.9076,36.25286],[-84.90898,36.25179],[-84.90909,36.25226],[-84.91012,36.25343],[-84.9107,36.25456],[-84.91066,36.25491],[-84.9103,36.25521],[-84.9088,36.25592],[-84.90751,36.25684],[-84.90633,36.25887],[-84.90508,36.25969],[-84.90435,36.26052],[-84.90431,36.26151],[-84.90496,36.26274],[-84.90445,36.26398],[-84.90462,36.26475],[-84.90389,36.26532],[-84.90337,36.26537],[-84.9025,36.26592],[-84.90058,36.26641],[-84.89931,36.26729],[-84.89861,36.26751],[-84.89602,36.26756],[-84.89569,36.26732],[-84.89556,36.26653],[-84.89532,36.26619],[-84.89483,36.26604],[-84.89406,36.26623],[-84.89301,36.26734],[-84.89194,36.26806],[-84.89173,36.26861],[-84.89132,36.26894],[-84.89117,36.27073],[-84.89036,36.27218],[-84.89032,36.27348],[-84.88936,36.27431],[-84.88863,36.27427],[-84.88491,36.27296],[-84.88375,36.27286],[-84.88274,36.27298],[-84.88255,36.27351],[-84.88312,36.2745],[-84.88387,36.27503],[-84.88393,36.27583],[-84.88331,36.27616],[-84.88155,36.27649],[-84.87778,36.27818],[-84.87766,36.27838],[-84.87778,36.27876],[-84.87855,36.2802],[-84.87857,36.28065],[-84.87774,36.28215],[-84.87664,36.28281],[-84.87622,36.28328],[-84.87615,36.2843],[-84.87584,36.28509],[-84.87521,36.2856],[-84.87206,36.28622],[-84.8709,36.2867],[-84.87081,36.28712],[-84.87146,36.28801],[-84.8713,36.28891],[-84.86975,36.29004],[-84.86868,36.29048],[-84.86709,36.29221],[-84.86593,36.29299],[-84.86444,36.29341],[-84.86341,36.29343],[-84.8614,36.29261],[-84.85916,36.29217],[-84.85883,36.29189],[-84.85841,36.29178],[-84.85759,36.29219],[-84.8564,36.2935],[-84.85563,36.29371],[-84.85254,36.29245],[-84.84996,36.29115],[-84.84743,36.29035],[-84.84502,36.28821],[-84.84359,36.28721],[-84.84294,36.287],[-84.84036,36.28767],[-84.83855,36.28869],[-84.83822,36.28906],[-84.83808,36.29004],[-84.83779,36.29065],[-84.83712,36.2913],[-84.83568,36.29165],[-84.83376,36.29176],[-84.83257,36.29223],[-84.83181,36.29297],[-84.83105,36.29462],[-84.83033,36.29546],[-84.82712,36.2967],[-84.82451,36.29862],[-84.82242,36.29948],[-84.82167,36.29947],[-84.82,36.29898],[-84.81863,36.29847],[-84.81796,36.29806],[-84.81637,36.29662],[-84.81577,36.29551],[-84.81539,36.29377],[-84.81504,36.29341],[-84.81461,36.29332],[-84.81227,36.29376],[-84.81004,36.29449],[-84.80825,36.2956],[-84.80608,36.29665],[-84.80362,36.29747],[-84.80202,36.29748],[-84.80094,36.29701],[-84.79994,36.29682],[-84.7983,36.29684],[-84.79697,36.29714],[-84.79575,36.29764],[-84.7923,36.30089],[-84.79176,36.30167],[-84.79159,36.30226],[-84.79167,36.30318],[-84.79222,36.30376],[-84.79254,36.30454],[-84.79412,36.30612],[-84.79512,36.30754],[-84.79538,36.30829],[-84.79524,36.30906],[-84.79452,36.30969],[-84.7927,36.31083],[-84.79165,36.31205],[-84.79031,36.31516],[-84.78986,36.31668],[-84.7893,36.31756],[-84.78834,36.3179],[-84.78602,36.3178],[-84.78482,36.3179],[-84.78284,36.31849],[-84.78191,36.3192],[-84.78203,36.31974],[-84.7829,36.32035],[-84.78618,36.32352],[-84.78668,36.32455],[-84.78646,36.32523],[-84.78577,36.32588],[-84.78487,36.32617],[-84.78081,36.32625],[-84.77826,36.32679],[-84.77754,36.3272],[-84.77667,36.32801],[-84.77502,36.33012],[-84.77479,36.33365],[-84.7741,36.33462],[-84.77342,36.33488],[-84.77218,36.33484],[-84.77095,36.33451],[-84.76863,36.33359],[-84.76616,36.33206],[-84.76329,36.32977],[-84.76203,36.32848],[-84.76103,36.32793],[-84.76044,36.32781],[-84.75973,36.328],[-84.75936,36.32844],[-84.75909,36.33095],[-84.75813,36.3327],[-84.757,36.33361],[-84.75522,36.33469],[-84.75457,36.33478],[-84.75405,36.33466],[-84.75154,36.33239],[-84.75082,36.33212],[-84.75028,36.33212],[-84.74976,36.33228],[-84.7479,36.33406],[-84.74632,36.33505],[-84.74495,36.33549],[-84.7413,36.33601],[-84.7403,36.33633],[-84.74001,36.33655],[-84.73967,36.33793],[-84.74046,36.34059],[-84.74113,36.34146],[-84.74299,36.34304],[-84.74325,36.34354],[-84.7436,36.34572],[-84.74354,36.3492],[-84.74392,36.34976],[-84.74536,36.35086],[-84.74547,36.35147],[-84.74503,36.35213],[-84.74367,36.35346],[-84.74303,36.35383],[-84.74231,36.354],[-84.7411,36.35395],[-84.74003,36.35369],[-84.73823,36.35276],[-84.73646,36.35161],[-84.73463,36.35084],[-84.73312,36.35045],[-84.73193,36.35055],[-84.72852,36.35143],[-84.72782,36.35175],[-84.72712,36.35246],[-84.72682,36.35327],[-84.72698,36.35405],[-84.72768,36.35448],[-84.72963,36.35512],[-84.7305,36.35572],[-84.73157,36.35667],[-84.73258,36.35836],[-84.73267,36.35978],[-84.73253,36.36109],[-84.7327,36.36267],[-84.73255,36.36591],[-84.73173,36.36797],[-84.73029,36.36892],[-84.72895,36.3693],[-84.72485,36.36918],[-84.72418,36.36934],[-84.7234,36.36981],[-84.7231,36.37047],[-84.72314,36.37125],[-84.72362,36.37231],[-84.7247,36.3739],[-84.72498,36.3757],[-84.72471,36.37628],[-84.72322,36.37662],[-84.7224,36.37648],[-84.71874,36.37471],[-84.71795,36.37419],[-84.71541,36.37162],[-84.71358,36.37042],[-84.7108,36.36929],[-84.70909,36.36834],[-84.70635,36.368],[-84.70601,36.36806],[-84.70519,36.36835],[-84.70357,36.36986],[-84.70252,36.37051],[-84.69976,36.37108],[-84.69799,36.37123],[-84.69586,36.3718],[-84.6919,36.37347],[-84.69065,36.37422],[-84.68972,36.37498],[-84.68924,36.37549],[-84.68931,36.37867],[-84.68953,36.37955],[-84.69046,36.38089],[-84.69055,36.38244],[-84.69036,36.38325],[-84.68968,36.3846],[-84.68753,36.38614],[-84.68581,36.38809],[-84.68276,36.38906],[-84.67721,36.38982],[-84.67533,36.39029],[-84.66947,36.39242],[-84.66609,36.39325],[-84.66495,36.39387],[-84.66246,36.39469],[-84.66103,36.39507],[-84.65813,36.39542],[-84.65727,36.39579],[-84.65446,36.39758],[-84.65229,36.39824],[-84.65047,36.39793],[-84.64991,36.3974],[-84.65027,36.39621],[-84.64946,36.39431],[-84.64961,36.3925],[-84.64986,36.392],[-84.6515,36.39006],[-84.65203,36.38902],[-84.65222,36.38822],[-84.65217,36.38762],[-84.65191,36.38713],[-84.65114,36.38672],[-84.65075,36.38617],[-84.64982,36.38541],[-84.64769,36.38431],[-84.64473,36.3834],[-84.64149,36.38306],[-84.63604,36.3831],[-84.63281,36.38271],[-84.63107,36.38287],[-84.6287,36.38444],[-84.62828,36.38503],[-84.62811,36.38615],[-84.62824,36.38646],[-84.62865,36.38701],[-84.63035,36.38812],[-84.62869,36.38705],[-84.62932,36.3876],[-84.63313,36.38977],[-84.63392,36.38991],[-84.63575,36.38952],[-84.63675,36.38965],[-84.6374,36.39024],[-84.6379,36.39107],[-84.63808,36.39208],[-84.63666,36.39492],[-84.63624,36.39533],[-84.63551,36.3958],[-84.63197,36.39733],[-84.63037,36.39855],[-84.62879,36.40053],[-84.62776,36.40128],[-84.62566,36.40215],[-84.62499,36.40263],[-84.62297,36.40332],[-84.62133,36.40419],[-84.62067,36.40476],[-84.62061,36.40526],[-84.62084,36.40587],[-84.62271,36.4075],[-84.62304,36.40848],[-84.62301,36.40912],[-84.62283,36.40963],[-84.62253,36.40985],[-84.62152,36.41038],[-84.62035,36.41062],[-84.6199,36.41085],[-84.61962,36.41112],[-84.61965,36.41169],[-84.62009,36.41226],[-84.62055,36.41255],[-84.62633,36.4138],[-84.62679,36.41414],[-84.62743,36.41549],[-84.62727,36.4165],[-84.62651,36.4179],[-84.62471,36.4201],[-84.62407,36.42124],[-84.6236,36.42429],[-84.62491,36.42634],[-84.62793,36.42875],[-84.62878,36.4297],[-84.63089,36.43116],[-84.63247,36.43172],[-84.63484,36.43165],[-84.63555,36.43186],[-84.63707,36.43197],[-84.63884,36.43185],[-84.64021,36.43111],[-84.64155,36.43061],[-84.64379,36.4306],[-84.64491,36.43121],[-84.64575,36.43199],[-84.64598,36.43234],[-84.64617,36.43417],[-84.64564,36.43586],[-84.64557,36.43701],[-84.64412,36.44106],[-84.6423,36.44394],[-84.64107,36.44499],[-84.63886,36.44603],[-84.63764,36.44715],[-84.63446,36.44847],[-84.63264,36.44975],[-84.6313,36.45118],[-84.6309,36.45186],[-84.6308,36.45252],[-84.63105,36.45346],[-84.63166,36.45412],[-84.63251,36.45443],[-84.63522,36.45467],[-84.63639,36.45462],[-84.6378,36.45394],[-84.6418,36.45347],[-84.64399,36.45283],[-84.64564,36.45192],[-84.64763,36.45158],[-84.64875,36.45216],[-84.6497,36.45227],[-84.65021,36.45256],[-84.65113,36.45334],[-84.65209,36.4549],[-84.65273,36.45544],[-84.65369,36.45554],[-84.65511,36.45598],[-84.65757,36.45641],[-84.66051,36.45635],[-84.66437,36.45824],[-84.66513,36.45873],[-84.66549,36.45918],[-84.66639,36.4608],[-84.66662,36.46263],[-84.66592,36.46432],[-84.66499,36.46561],[-84.66485,36.46644],[-84.66501,36.46715],[-84.66534,36.46773],[-84.66691,36.46945],[-84.66816,36.47139],[-84.6684,36.4727],[-84.66887,36.47348],[-84.66914,36.47651],[-84.66893,36.4776],[-84.66838,36.47827],[-84.6677,36.47868],[-84.66581,36.47915],[-84.66474,36.48],[-84.66447,36.48072],[-84.66437,36.48257],[-84.66245,36.48481],[-84.66056,36.48547],[-84.65796,36.48547],[-84.65679,36.48579],[-84.65515,36.4866],[-84.65297,36.48824],[-84.6527,36.4888],[-84.65271,36.48923],[-84.65372,36.4912],[-84.65392,36.49269],[-84.65371,36.49363],[-84.65338,36.49408],[-84.65226,36.49434],[-84.65161,36.49465],[-84.65104,36.49533],[-84.6506,36.4964],[-84.65031,36.49672],[-84.64845,36.49764],[-84.64577,36.49801],[-84.64311,36.49922],[-84.63945,36.49991],[-84.63595,36.50011],[-84.63249,36.50061],[-84.63086,36.50194],[-84.63085,36.50381],[-84.63183,36.50472],[-84.63281,36.50603],[-84.63341,36.50726],[-84.63466,36.50868],[-84.63475,36.50945],[-84.63524,36.51021],[-84.63671,36.51199],[-84.63802,36.51276],[-84.63989,36.51269],[-84.64231,36.51216],[-84.64277,36.51182],[-84.64404,36.51129],[-84.64746,36.51012],[-84.64834,36.51024],[-84.65098,36.51102],[-84.65183,36.51148],[-84.6524,36.51199],[-84.65289,36.51309],[-84.65278,36.51397],[-84.65072,36.51642],[-84.64984,36.51778],[-84.64929,36.51876],[-84.64894,36.52005],[-84.64903,36.52125],[-84.64985,36.52303],[-84.65049,36.52503],[-84.65206,36.5274],[-84.65363,36.52881],[-84.65447,36.52991],[-84.65508,36.53166],[-84.65573,36.53279],[-84.65638,36.53355],[-84.65736,36.53434],[-84.65831,36.53563],[-84.65988,36.53884],[-84.66184,36.54148],[-84.66269,36.54235],[-84.66497,36.54582],[-84.66525,36.54668],[-84.66571,36.54736],[-84.66579,36.54896],[-84.66623,36.54986],[-84.66887,36.55278],[-84.67157,36.55692],[-84.67179,36.55804],[-84.67163,36.55914],[-84.6718,36.56029],[-84.67096,36.56158],[-84.67048,36.56195],[-84.6672,36.56213],[-84.66433,36.56284],[-84.66313,36.56342],[-84.65915,36.56676],[-84.65827,36.56733],[-84.6564,36.56924],[-84.65596,36.5704],[-84.65531,36.57094],[-84.6535,36.57386],[-84.65328,36.57495],[-84.65252,36.57612],[-84.65183,36.57687],[-84.65019,36.57815],[-84.6472,36.57973],[-84.64497,36.5804],[-84.64382,36.58095],[-84.6422,36.5809],[-84.64173,36.58102],[-84.64063,36.58163],[-84.63968,36.58258],[-84.63741,36.58365],[-84.63555,36.58382],[-84.63195,36.58291],[-84.62989,36.58279],[-84.62744,36.58232],[-84.62542,36.58224],[-84.6237,36.58172],[-84.6228,36.58089],[-84.62105,36.57993],[-84.61944,36.57959],[-84.61863,36.57958],[-84.61802,36.57993],[-84.61709,36.58001],[-84.61442,36.57926],[-84.61273,36.57907],[-84.61079,36.57911],[-84.60905,36.57924],[-84.60803,36.57984],[-84.60782,36.5801],[-84.60873,36.58278],[-84.60884,36.58387],[-84.6092,36.58494],[-84.60962,36.58592],[-84.61033,36.58667],[-84.61115,36.58807],[-84.61129,36.59003],[-84.61105,36.59101],[-84.61059,36.59144],[-84.61004,36.59168],[-84.6091,36.59164],[-84.60841,36.5918],[-84.6079,36.59236],[-84.60759,36.59336],[-84.60718,36.59358],[-84.6056,36.59612],[-84.6054,36.59697],[-84.60555,36.59758],[-84.60537,36.59842],[-84.60463,36.59984],[-84.60444,36.60016],[-84.60351,36.60063],[-84.60289,36.60119],[-84.60177,36.60301],[-84.60035,36.60434],[-84.5996,36.60466],[-84.59854,36.60476],[-84.59755,36.60509],[-84.59684,36.60619],[-84.59574,36.60727],[-84.59545,36.60786],[-84.5941,36.60896],[-84.59378,36.60977],[-84.59394,36.61006],[-84.59389,36.61078],[-84.5941,36.61119],[-84.59386,36.6125],[-84.59406,36.61309],[-84.59403,36.61502],[-84.59435,36.61631],[-84.59396,36.61808],[-84.59281,36.6188],[-84.59259,36.61943],[-84.59203,36.61988],[-84.59115,36.62002],[-84.58786,36.62358],[-84.5846,36.62437],[-84.58218,36.62521],[-84.57959,36.62502],[-84.5749,36.62365],[-84.57315,36.62355],[-84.57252,36.6236],[-84.57223,36.62377],[-84.57143,36.62376],[-84.56948,36.62443],[-84.56797,36.6243],[-84.56462,36.62495],[-84.56215,36.62507],[-84.5599,36.62473],[-84.55561,36.62361],[-84.55325,36.62335],[-84.55041,36.62373],[-84.54592,36.62465],[-84.54419,36.6254],[-84.54276,36.6257],[-84.54163,36.62571],[-84.54098,36.62551],[-84.53815,36.62574],[-84.53781,36.62605],[-84.53726,36.62625],[-84.53422,36.62677],[-84.53331,36.62726],[-84.532,36.63025],[-84.53209,36.63136],[-84.53276,36.63202],[-84.53424,36.63282],[-84.53592,36.63405],[-84.53638,36.63494],[-84.53743,36.63622],[-84.5377,36.63701],[-84.53761,36.63754],[-84.53688,36.63844],[-84.53628,36.64018],[-84.5358,36.64396],[-84.53673,36.6457],[-84.53937,36.64871],[-84.54023,36.65002],[-84.54086,36.6515],[-84.541,36.65257],[-84.5409,36.65291],[-84.53979,36.65427],[-84.53946,36.65519],[-84.53898,36.65584],[-84.53754,36.65611],[-84.53583,36.65688],[-84.53476,36.65713],[-84.53247,36.65837],[-84.53169,36.65906],[-84.53206,36.66151],[-84.53199,36.66262],[-84.53166,36.6636],[-84.53082,36.6647],[-84.53049,36.66551],[-84.53012,36.66767],[-84.53032,36.66901],[-84.53149,36.67042],[-84.53213,36.67086],[-84.53394,36.67128],[-84.53584,36.67242],[-84.53724,36.67262],[-84.53832,36.67231],[-84.54003,36.67026],[-84.54306,36.6681],[-84.54543,36.6677],[-84.54673,36.66773],[-84.54786,36.66796],[-84.54858,36.66839],[-84.54884,36.66966],[-84.54893,36.67175],[-84.54859,36.67356],[-84.54827,36.67422],[-84.5477,36.67486],[-84.54671,36.67684],[-84.54505,36.67796],[-84.54265,36.67991],[-84.54033,36.68147],[-84.53876,36.68342],[-84.53804,36.68464],[-84.53797,36.68535],[-84.53873,36.68816],[-84.53893,36.69197],[-84.53885,36.69265],[-84.53781,36.69541],[-84.53759,36.69885],[-84.53725,36.69962],[-84.53539,36.70056],[-84.53487,36.70107],[-84.5334,36.70555],[-84.53353,36.70636],[-84.53441,36.70804],[-84.53496,36.71193],[-84.53551,36.71291],[-84.53625,36.71366],[-84.53877,36.7147],[-84.54029,36.71576],[-84.54332,36.71742],[-84.54532,36.71957],[-84.54569,36.72034],[-84.54596,36.72142],[-84.5458,36.72321],[-84.54515,36.72437],[-84.54356,36.72615],[-84.54048,36.72872],[-84.53952,36.72918],[-84.53863,36.72944],[-84.53786,36.72944],[-84.53064,36.7286],[-84.52974,36.72866],[-84.52882,36.72886],[-84.52819,36.72926],[-84.52772,36.73004],[-84.52762,36.73082],[-84.52774,36.73123],[-84.52906,36.73294],[-84.53151,36.73473],[-84.5333,36.73547],[-84.53533,36.73579],[-84.53647,36.73643],[-84.53714,36.73718],[-84.53703,36.73781],[-84.5362,36.73869],[-84.53337,36.74088],[-84.53246,36.74293],[-84.5324,36.7435],[-84.53283,36.74503],[-84.53412,36.74649],[-84.5361,36.74771],[-84.53795,36.74828],[-84.53885,36.74824],[-84.54051,36.74777],[-84.54167,36.74724],[-84.54206,36.74684],[-84.54303,36.74508],[-84.54458,36.7438],[-84.54553,36.74348],[-84.54629,36.74342],[-84.54747,36.74382],[-84.54786,36.7444],[-84.54776,36.74778],[-84.54819,36.74973],[-84.54938,36.75121],[-84.55005,36.75163],[-84.55052,36.75219],[-84.55236,36.753],[-84.55351,36.75371],[-84.5544,36.75472],[-84.55472,36.75833],[-84.55463,36.75868],[-84.5541,36.75933],[-84.55255,36.75967],[-84.5503,36.76057],[-84.54926,36.76124],[-84.54883,36.76179],[-84.54835,36.76323],[-84.54775,36.76418],[-84.54659,36.76526],[-84.54591,36.76673],[-84.54481,36.76824],[-84.54405,36.76879],[-84.54275,36.76937],[-84.54077,36.76974],[-84.53807,36.77063],[-84.53603,36.77111],[-84.53478,36.77202],[-84.53359,36.7726],[-84.53287,36.77268],[-84.53129,36.77316],[-84.53058,36.77317],[-84.52582,36.77454],[-84.5246,36.77521],[-84.52345,36.77621],[-84.52308,36.77694],[-84.52282,36.7781],[-84.52298,36.77883],[-84.5237,36.77965],[-84.52634,36.78099],[-84.52862,36.78113],[-84.5307,36.78086],[-84.53295,36.77979],[-84.53568,36.77949],[-84.53657,36.77972],[-84.53824,36.78126],[-84.53854,36.78206],[-84.5385,36.78295],[-84.53818,36.78417],[-84.53746,36.78555],[-84.53565,36.78654],[-84.53407,36.7879],[-84.53092,36.78905],[-84.52905,36.7906],[-84.5291,36.79114],[-84.52952,36.79212],[-84.5314,36.79577],[-84.5316,36.79766],[-84.53332,36.80008],[-84.53391,36.8015],[-84.53393,36.80208],[-84.53474,36.80386],[-84.53613,36.80547],[-84.53805,36.80617],[-84.54077,36.80743],[-84.54387,36.80807],[-84.54572,36.8078],[-84.54793,36.80777],[-84.55319,36.80721],[-84.55539,36.80715],[-84.5571,36.80735],[-84.55819,36.80813],[-84.55842,36.80847],[-84.55839,36.80883],[-84.55798,36.80965],[-84.55644,36.81123],[-84.5552,36.81329],[-84.55452,36.81602],[-84.55498,36.81765],[-84.55574,36.81866],[-84.5563,36.819],[-84.55792,36.81896],[-84.5616,36.81852],[-84.56345,36.81877],[-84.56466,36.81956],[-84.56658,36.82209],[-84.56735,36.82359],[-84.5675,36.82487],[-84.56731,36.82668],[-84.56794,36.82874],[-84.56887,36.82901],[-84.57027,36.82911],[-84.57342,36.82895],[-84.58004,36.82729],[-84.58275,36.82697],[-84.58329,36.8273],[-84.58491,36.82901],[-84.58698,36.8308],[-84.58869,36.83201],[-84.58938,36.83287],[-84.5933,36.83502],[-84.59475,36.83635],[-84.59557,36.83766],[-84.59574,36.83851],[-84.59545,36.8388],[-84.59452,36.83937],[-84.59325,36.83972],[-84.59065,36.84002],[-84.58434,36.84023],[-84.58208,36.84058],[-84.58106,36.84088],[-84.57959,36.8417],[-84.57513,36.84359],[-84.57293,36.84496],[-84.57244,36.84595],[-84.57267,36.8468],[-84.57384,36.84767],[-84.58253,36.84917],[-84.58524,36.85007],[-84.58623,36.85068],[-84.5868,36.85114],[-84.58737,36.85193],[-84.58965,36.85557],[-84.59214,36.86098],[-84.59216,36.86184],[-84.59168,36.86258],[-84.59016,36.86318],[-84.58732,36.86326],[-84.58436,36.86276],[-84.58156,36.86272],[-84.58013,36.86304],[-84.57922,36.86343],[-84.57865,36.86384],[-84.57838,36.86433],[-84.57815,36.8669],[-84.57793,36.86773],[-84.57836,36.86844],[-84.58131,36.87241],[-84.58203,36.873],[-84.58323,36.87438],[-84.58467,36.87555],[-84.58799,36.87898],[-84.58926,36.88082],[-84.58983,36.88247],[-84.58989,36.88333],[-84.58966,36.88405],[-84.58846,36.88572],[-84.58682,36.88705],[-84.58342,36.88901],[-84.58256,36.88969],[-84.58221,36.89075],[-84.58218,36.89167],[-84.58236,36.89248],[-84.58294,36.89348],[-84.584,36.89415],[-84.58622,36.89474],[-84.5873,36.89469],[-84.58826,36.89447],[-84.58946,36.89377],[-84.59037,36.89285],[-84.59162,36.88983],[-84.59244,36.88829],[-84.59466,36.88543],[-84.59648,36.88391],[-84.60056,36.8799],[-84.60165,36.87921],[-84.60251,36.87902],[-84.60381,36.87943],[-84.60454,36.8799],[-84.60678,36.88205],[-84.60721,36.88318],[-84.60788,36.88427],[-84.60975,36.88584],[-84.6137,36.89049],[-84.61559,36.89193],[-84.61828,36.89336],[-84.61915,36.89398],[-84.61983,36.8946],[-84.6201,36.8951],[-84.62028,36.8959],[-84.6202,36.89701],[-84.61963,36.89773],[-84.61879,36.89821],[-84.6166,36.89878],[-84.61383,36.89915],[-84.60664,36.8995],[-84.60209,36.89991],[-84.60025,36.90057],[-84.59866,36.90187],[-84.59831,36.90282],[-84.59846,36.90363],[-84.60083,36.90793],[-84.60207,36.91238],[-84.60212,36.91326],[-84.60179,36.91539],[-84.60089,36.91718],[-84.6003,36.91777],[-84.59917,36.91829],[-84.59527,36.91911],[-84.58779,36.92157],[-84.5829,36.92287],[-84.58218,36.92294],[-84.58083,36.92352],[-84.57712,36.9245],[-84.57544,36.92545],[-84.57395,36.92665],[-84.57305,36.92768],[-84.57323,36.92888],[-84.57399,36.92962],[-84.57629,36.93037],[-84.57801,36.93067],[-84.58337,36.93027],[-84.59717,36.92988],[-84.60184,36.92929],[-84.60729,36.92822],[-84.60939,36.92809],[-84.61094,36.92849],[-84.61189,36.92903],[-84.61225,36.9296],[-84.61229,36.93053],[-84.61184,36.93227],[-84.61169,36.93401],[-84.61238,36.93684],[-84.61394,36.93913],[-84.6156,36.94067],[-84.62245,36.94436],[-84.62446,36.94624],[-84.62481,36.94704],[-84.62476,36.94822],[-84.62446,36.94908],[-84.62373,36.94971],[-84.62258,36.95021],[-84.62134,36.9504],[-84.62,36.95024],[-84.619,36.94991],[-84.61782,36.94924],[-84.61452,36.94674],[-84.61229,36.94528],[-84.60948,36.94384],[-84.60653,36.9426],[-84.60273,36.94144],[-84.59583,36.9403],[-84.5935,36.94036],[-84.5922,36.94054],[-84.58732,36.94197],[-84.58583,36.94265],[-84.58393,36.94392],[-84.58274,36.94508],[-84.58252,36.94559],[-84.58236,36.94622],[-84.58242,36.94707],[-84.5828,36.94799],[-84.58352,36.94876],[-84.58478,36.94951],[-84.58557,36.94969],[-84.58719,36.94978],[-84.5898,36.94934],[-84.59193,36.94921],[-84.59476,36.9494],[-84.59881,36.95003],[-84.60009,36.95038],[-84.60264,36.95161],[-84.60441,36.95327],[-84.605,36.95412],[-84.60534,36.9547],[-84.60558,36.95629],[-84.60479,36.96328],[-84.60507,36.96712],[-84.60602,36.96828],[-84.60785,36.96961],[-84.60949,36.97149],[-84.61028,36.97293],[-84.61062,36.97537],[-84.60978,36.97748],[-84.6081,36.98009],[-84.60752,36.98189],[-84.6077,36.98394],[-84.6069,36.98467],[-84.61038,36.98858]]]}}
