{"type":"Feature","properties":{"id":"goforth-creek","name":"Goforth Creek","waterbodyType":"creek","throughLakeIds":[],"allowOpenEnds":false,"source":"nhd-hu8-06020003","approximate":false,"labelAnchor":[-84.50339,35.09661],"bounds":[-84.51498,35.08355,-84.47892,35.11444],"crs":"EPSG:4326","coordinateOrder":"longitude,latitude","partCount":1,"vertexCount":67,"lengthKm":6.58,"sourceIds":["132753356","132753360","132753365","132753370","132753374","132753379","132753388","132753384","132753355","132753352","132753347","132753337","132753342","132762173"],"sourceRetrieved":"2026-09-11","geometrySource":"nhd","hu8":"06020003","simplification":{"toleranceM":10,"verticesBefore":369,"verticesAfter":67,"budgetBytes":81920},"trace":{"anchor":{"lat":35.096613,"lon":-84.50339,"snapDistM":0},"up":{"spec":"headwater","reason":"headwater","terminus":[-84.479581,35.114435],"distKmFromAnchor":4.24},"down":{"spec":"mouth","reason":"name-change","terminus":[-84.514653,35.083553],"enteredNames":["Ocoee River"],"distKmFromAnchor":1.76},"vaaUsed":false,"toleranceM":12}},"geometry":{"type":"MultiLineString","coordinates":[[[-84.47958,35.11444],[-84.47998,35.11428],[-84.48017,35.11396],[-84.47993,35.11258],[-84.47952,35.11191],[-84.47892,35.11165],[-84.47894,35.11118],[-84.47926,35.11091],[-84.48027,35.11083],[-84.48076,35.11053],[-84.48111,35.11015],[-84.48132,35.10898],[-84.48213,35.1083],[-84.48269,35.10795],[-84.48394,35.10759],[-84.48459,35.10773],[-84.48502,35.10767],[-84.48562,35.10793],[-84.48633,35.10783],[-84.48695,35.10807],[-84.48802,35.1077],[-84.48828,35.10748],[-84.48878,35.10654],[-84.48852,35.10615],[-84.4888,35.1051],[-84.48947,35.10421],[-84.48981,35.10399],[-84.49035,35.10396],[-84.49076,35.10377],[-84.49196,35.10218],[-84.49363,35.10117],[-84.49526,35.09965],[-84.49599,35.09952],[-84.49664,35.09984],[-84.4976,35.09903],[-84.49906,35.09914],[-84.49947,35.09846],[-84.50102,35.09871],[-84.50134,35.09841],[-84.50154,35.09729],[-84.5026,35.09671],[-84.50339,35.09661],[-84.50417,35.09693],[-84.50501,35.09706],[-84.50531,35.09696],[-84.50591,35.09613],[-84.50591,35.0959],[-84.50538,35.09517],[-84.50537,35.09484],[-84.50575,35.09432],[-84.50339,35.09661],[-84.50575,35.09432],[-84.50601,35.09445],[-84.50654,35.09377],[-84.50842,35.09289],[-84.50861,35.09248],[-84.50852,35.09188],[-84.51005,35.09069],[-84.51368,35.08935],[-84.51375,35.08915],[-84.51332,35.08808],[-84.51346,35.08749],[-84.51405,35.0871],[-84.51498,35.08685],[-84.51456,35.08592],[-84.51469,35.0856],[-84.51465,35.08355]]]}}
