{"type":"Feature","properties":{"id":"station-creek","name":"Station Creek","waterbodyType":"creek","throughLakeIds":[],"allowOpenEnds":false,"source":"nhd-hu8-06010206","approximate":false,"labelAnchor":[-83.6104,36.58719],"bounds":[-83.63033,36.58549,-83.60491,36.63191],"crs":"EPSG:4326","coordinateOrder":"longitude,latitude","partCount":1,"vertexCount":85,"lengthKm":9.11,"sourceIds":["44949983","44949981","44949897","44949833","44949683","44949657","44949563","44949487","44949937"],"sourceRetrieved":"2026-09-11","geometrySource":"nhd","hu8":"06010206","simplification":{"toleranceM":10,"verticesBefore":478,"verticesAfter":85,"budgetBytes":81920},"trace":{"anchor":{"lat":36.5872,"lon":-83.6104,"snapDistM":1.6},"up":{"spec":"headwater","reason":"headwater","terminus":[-83.612282,36.63191],"distKmFromAnchor":8.26},"down":{"spec":"mouth","reason":"name-change","terminus":[-83.60494659999999,36.58861520000001],"enteredNames":["Indian Creek"],"distKmFromAnchor":0.21},"vaaUsed":false,"toleranceM":12}},"geometry":{"type":"MultiLineString","coordinates":[[[-83.61228,36.63191],[-83.61141,36.63064],[-83.6121,36.62886],[-83.61181,36.62856],[-83.61176,36.62785],[-83.61104,36.62626],[-83.61141,36.62423],[-83.61185,36.62385],[-83.61189,36.62328],[-83.61258,36.62257],[-83.61333,36.62219],[-83.61392,36.62079],[-83.61435,36.62037],[-83.6145,36.61995],[-83.61588,36.61882],[-83.61611,36.61843],[-83.61706,36.6178],[-83.61772,36.61632],[-83.61775,36.61582],[-83.61822,36.61504],[-83.61948,36.61447],[-83.62138,36.61491],[-83.62222,36.61441],[-83.62323,36.61411],[-83.62352,36.61356],[-83.6247,36.61356],[-83.62522,36.61379],[-83.62628,36.61342],[-83.62706,36.61107],[-83.62936,36.60975],[-83.63005,36.60902],[-83.63031,36.60823],[-83.6299,36.60732],[-83.63033,36.60685],[-83.63011,36.60662],[-83.62951,36.60654],[-83.62764,36.60413],[-83.62525,36.59969],[-83.6256,36.59903],[-83.62556,36.59824],[-83.62597,36.59733],[-83.62596,36.59696],[-83.62404,36.59475],[-83.62373,36.59404],[-83.62408,36.59345],[-83.62382,36.59284],[-83.62283,36.59153],[-83.62196,36.59123],[-83.6217,36.59087],[-83.62163,36.59025],[-83.6205,36.58982],[-83.61985,36.58913],[-83.61937,36.58887],[-83.61986,36.5874],[-83.61976,36.5861],[-83.61875,36.58629],[-83.61809,36.58666],[-83.61748,36.58656],[-83.61735,36.5863],[-83.61651,36.58611],[-83.61613,36.58585],[-83.61482,36.58551],[-83.61415,36.58549],[-83.6135,36.58573],[-83.61309,36.58614],[-83.61245,36.58687],[-83.61241,36.58742],[-83.61204,36.58776],[-83.61168,36.58777],[-83.61099,36.58713],[-83.61072,36.58715],[-83.61036,36.58719],[-83.6096,36.58766],[-83.60928,36.58854],[-83.60876,36.58838],[-83.60828,36.58795],[-83.60743,36.58786],[-83.60676,36.58824],[-83.60649,36.58861],[-83.6104,36.58719],[-83.6062,36.58893],[-83.60598,36.58913],[-83.60558,36.58913],[-83.60537,36.5888],[-83.60491,36.5886]]]}}
