{"type":"Feature","properties":{"id":"mccutcheon-creek","name":"McCutcheon Creek","waterbodyType":"creek","throughLakeIds":[],"allowOpenEnds":false,"source":"nhd-hu8-06040003","approximate":false,"labelAnchor":[-86.92366,35.75698],"bounds":[-86.92745,35.71396,-86.92088,35.78825],"crs":"EPSG:4326","coordinateOrder":"longitude,latitude","partCount":1,"vertexCount":125,"lengthKm":11.38,"sourceIds":["136547806","136547809","136547808","136547807","136547810","136547811","136552500","136552442","136547805","136547802","136547803","136547804","136547800","136547801","136554974"],"sourceRetrieved":"2026-09-11","geometrySource":"nhd","hu8":"06040003","simplification":{"toleranceM":10,"verticesBefore":905,"verticesAfter":125,"budgetBytes":81920},"trace":{"anchor":{"lat":35.757,"lon":-86.9237,"snapDistM":4.5},"up":{"spec":"headwater","reason":"headwater","terminus":[-86.927451,35.788248],"distKmFromAnchor":5.45},"down":{"spec":"mouth","reason":"name-change","terminus":[-86.92138,35.71398459999999],"enteredNames":["Rutherford Creek"],"distKmFromAnchor":4.99},"vaaUsed":false,"toleranceM":12}},"geometry":{"type":"MultiLineString","coordinates":[[[-86.92745,35.78825],[-86.9251,35.78793],[-86.9244,35.78746],[-86.92292,35.78713],[-86.92226,35.78641],[-86.92204,35.78571],[-86.9217,35.78536],[-86.92133,35.78399],[-86.92159,35.78351],[-86.92165,35.78287],[-86.92324,35.78223],[-86.92392,35.78046],[-86.92384,35.77991],[-86.92315,35.77955],[-86.92179,35.77838],[-86.92175,35.77799],[-86.92193,35.77781],[-86.9218,35.77758],[-86.92202,35.77737],[-86.92173,35.77712],[-86.92179,35.77608],[-86.922,35.7754],[-86.92408,35.77263],[-86.92418,35.77223],[-86.92389,35.77151],[-86.9248,35.77122],[-86.92489,35.77084],[-86.92445,35.7704],[-86.92498,35.76997],[-86.92451,35.7685],[-86.92432,35.76843],[-86.92412,35.76904],[-86.9239,35.76853],[-86.92362,35.76844],[-86.92403,35.76756],[-86.92346,35.76764],[-86.92363,35.76713],[-86.92225,35.76611],[-86.92238,35.76522],[-86.92207,35.76477],[-86.92253,35.76387],[-86.92198,35.76312],[-86.92248,35.76283],[-86.92248,35.76195],[-86.92364,35.76101],[-86.92324,35.76051],[-86.92325,35.75992],[-86.92294,35.75913],[-86.92333,35.75903],[-86.92348,35.75884],[-86.92327,35.7574],[-86.92367,35.75697],[-86.92365,35.75628],[-86.92406,35.75621],[-86.92406,35.75597],[-86.92447,35.7559],[-86.92458,35.75562],[-86.92374,35.75481],[-86.92389,35.75432],[-86.92339,35.75386],[-86.92354,35.7531],[-86.92264,35.75175],[-86.92366,35.75698],[-86.92257,35.75167],[-86.92221,35.75116],[-86.92244,35.75092],[-86.92202,35.75077],[-86.92234,35.74969],[-86.92271,35.74953],[-86.92321,35.74883],[-86.92366,35.74869],[-86.92388,35.74787],[-86.92416,35.74758],[-86.92421,35.74706],[-86.92371,35.74613],[-86.92393,35.74534],[-86.92432,35.74503],[-86.92468,35.74426],[-86.92451,35.74369],[-86.92491,35.74315],[-86.92458,35.74315],[-86.92454,35.74287],[-86.92499,35.74252],[-86.92489,35.74224],[-86.9251,35.74185],[-86.92455,35.74139],[-86.92456,35.74098],[-86.92407,35.7412],[-86.92365,35.74113],[-86.92312,35.73982],[-86.9232,35.73875],[-86.92274,35.73815],[-86.9228,35.73752],[-86.9233,35.73689],[-86.92311,35.73583],[-86.92373,35.73532],[-86.92426,35.73389],[-86.92403,35.73339],[-86.9241,35.73274],[-86.92372,35.73192],[-86.92414,35.73088],[-86.92401,35.72999],[-86.92392,35.72971],[-86.92305,35.72888],[-86.92316,35.7286],[-86.92395,35.72811],[-86.92412,35.72755],[-86.92413,35.72657],[-86.9237,35.72444],[-86.92401,35.72407],[-86.92379,35.72364],[-86.92387,35.7228],[-86.92352,35.72144],[-86.92312,35.7204],[-86.92234,35.71925],[-86.92277,35.71845],[-86.92275,35.71819],[-86.92234,35.71749],[-86.92131,35.71714],[-86.92121,35.71687],[-86.92139,35.71631],[-86.92088,35.71574],[-86.92102,35.71486],[-86.92148,35.71423],[-86.92137,35.71396]]]}}
