{"type":"Feature","properties":{"id":"upper-roan-creek","name":"Upper Roan Creek","waterbodyType":"creek","throughLakeIds":["watauga-lake"],"allowOpenEnds":false,"source":"nhd-hu8-06010103","approximate":false,"labelAnchor":[-81.88523,36.37693],"bounds":[-81.99852,36.32708,-81.77948,36.4339],"crs":"EPSG:4326","coordinateOrder":"longitude,latitude","partCount":1,"vertexCount":219,"lengthKm":31.92,"sourceIds":["89943613","89943335","89943311","89942957","89942851","89942795","89942305","89942293","89942141","89942079","89941933","89941923","89941641","89941455","89940883","89940857","89940833","89940749","89940657","89940585","89940231","89940191","89939915","89939767","89939787","89939795","89939837","89943611","89943667","89943721","89943885","89943887","89943523","89943363","89942947","89942845","89942719","89942701","89942685","89942661","89942677","89942785","89942873","89943121","89943171","89943347","89943485","89943703","89943977","89944055","89944073","89944107","89944113","89944097","89944179","89944279","89944575","89944729","89944745","89944925","89945099","89945503","89945557","89945995","89946207","89946299","89946807","89946813","89947113","89947659"],"sourceRetrieved":"2026-09-11","geometrySource":"nhd","hu8":"06010103","simplification":{"toleranceM":10,"verticesBefore":1132,"verticesAfter":219,"budgetBytes":81920},"trace":{"anchor":{"lat":36.3769,"lon":-81.8852,"snapDistM":4.6},"up":{"spec":"headwater","reason":"headwater","terminus":[-81.779484,36.427741],"distKmFromAnchor":15.11},"down":{"spec":"mouth","reason":"name-change","terminus":[-81.99669,36.327078],"enteredNames":["Watauga River"],"distKmFromAnchor":16.54},"vaaUsed":false,"toleranceM":12}},"geometry":{"type":"MultiLineString","coordinates":[[[-81.77948,36.42774],[-81.78053,36.42863],[-81.78169,36.42931],[-81.78207,36.43014],[-81.78527,36.43324],[-81.78556,36.43337],[-81.78683,36.4327],[-81.78761,36.43275],[-81.78814,36.43302],[-81.78844,36.43369],[-81.78888,36.4339],[-81.78984,36.43369],[-81.79068,36.43321],[-81.79148,36.43211],[-81.79201,36.43167],[-81.79474,36.43194],[-81.796,36.43186],[-81.79728,36.43204],[-81.79837,36.43144],[-81.79972,36.43135],[-81.80066,36.43114],[-81.80136,36.43074],[-81.8022,36.42987],[-81.80262,36.42977],[-81.80316,36.42985],[-81.80552,36.42909],[-81.80677,36.42921],[-81.80722,36.43014],[-81.80763,36.4304],[-81.80836,36.43048],[-81.80983,36.43008],[-81.81054,36.43027],[-81.8127,36.42789],[-81.81302,36.42695],[-81.81289,36.42582],[-81.81309,36.42542],[-81.81357,36.42504],[-81.81434,36.42475],[-81.81519,36.42483],[-81.81572,36.42515],[-81.81612,36.42576],[-81.81675,36.42624],[-81.81735,36.4264],[-81.8202,36.42462],[-81.82088,36.42387],[-81.82122,36.42289],[-81.82103,36.42218],[-81.82036,36.42122],[-81.82045,36.42066],[-81.8267,36.41772],[-81.82702,36.41774],[-81.82719,36.41793],[-81.82737,36.41885],[-81.82788,36.41926],[-81.8295,36.41931],[-81.83054,36.42001],[-81.831,36.41997],[-81.83204,36.41942],[-81.83516,36.41692],[-81.83603,36.41659],[-81.83736,36.41463],[-81.83802,36.4131],[-81.83801,36.41264],[-81.83742,36.41179],[-81.83731,36.41117],[-81.83765,36.41031],[-81.83835,36.40965],[-81.83862,36.40914],[-81.8389,36.40736],[-81.8386,36.40661],[-81.83864,36.40615],[-81.84103,36.40452],[-81.84129,36.40408],[-81.84135,36.40322],[-81.8417,36.4026],[-81.84395,36.40077],[-81.84514,36.39946],[-81.84638,36.39868],[-81.8478,36.39574],[-81.84823,36.39573],[-81.84873,36.39632],[-81.84959,36.39668],[-81.85215,36.39719],[-81.85384,36.3977],[-81.85534,36.39787],[-81.85597,36.3978],[-81.85698,36.39705],[-81.85757,36.39556],[-81.85743,36.39442],[-81.85786,36.39382],[-81.85851,36.39355],[-81.86095,36.39324],[-81.86255,36.39287],[-81.86429,36.39123],[-81.86474,36.39038],[-81.86468,36.38862],[-81.86528,36.38765],[-81.86963,36.38549],[-81.87274,36.38507],[-81.87512,36.38424],[-81.87618,36.38474],[-81.87656,36.38473],[-81.87731,36.38401],[-81.87789,36.38159],[-81.87871,36.38017],[-81.87911,36.37997],[-81.88065,36.37978],[-81.88218,36.37985],[-81.88451,36.37908],[-81.88541,36.37839],[-81.88557,36.37805],[-81.885,36.37744],[-81.88503,36.37705],[-81.88524,36.37693],[-81.88645,36.37675],[-81.88794,36.37682],[-81.88523,36.37693],[-81.88892,36.37693],[-81.88982,36.37714],[-81.89122,36.3763],[-81.89199,36.37611],[-81.89277,36.37611],[-81.89649,36.37413],[-81.89689,36.37424],[-81.89712,36.37444],[-81.89713,36.37516],[-81.89619,36.37603],[-81.89588,36.37693],[-81.89721,36.37976],[-81.89732,36.38111],[-81.89719,36.38131],[-81.89746,36.38257],[-81.89781,36.3829],[-81.89863,36.38289],[-81.90028,36.38254],[-81.90235,36.38243],[-81.90285,36.38245],[-81.90315,36.38281],[-81.90297,36.3847],[-81.90246,36.38547],[-81.90102,36.38685],[-81.89878,36.38785],[-81.89848,36.38872],[-81.89859,36.38935],[-81.89899,36.38966],[-81.90018,36.38939],[-81.90088,36.38955],[-81.90119,36.38984],[-81.90162,36.39093],[-81.90222,36.39158],[-81.9027,36.39194],[-81.9051,36.39291],[-81.90836,36.39357],[-81.90897,36.39383],[-81.91056,36.39373],[-81.91114,36.39329],[-81.91196,36.39193],[-81.91236,36.39044],[-81.91263,36.39022],[-81.9153,36.38858],[-81.91834,36.38733],[-81.92013,36.38587],[-81.92229,36.38262],[-81.92217,36.38207],[-81.92275,36.38163],[-81.92404,36.38012],[-81.92401,36.37956],[-81.92431,36.37914],[-81.92497,36.37854],[-81.92594,36.378],[-81.92645,36.37694],[-81.92713,36.37648],[-81.9292,36.37555],[-81.93049,36.37529],[-81.93126,36.37531],[-81.93295,36.37614],[-81.93445,36.37626],[-81.93568,36.37554],[-81.93608,36.37559],[-81.93653,36.37535],[-81.93718,36.37529],[-81.93875,36.37527],[-81.93905,36.37454],[-81.93982,36.37409],[-81.94068,36.37383],[-81.94145,36.37338],[-81.94198,36.37344],[-81.94397,36.3723],[-81.94428,36.37234],[-81.94633,36.37114],[-81.94904,36.37027],[-81.95025,36.36962],[-81.95212,36.36839],[-81.95219,36.368],[-81.95474,36.36632],[-81.95523,36.36578],[-81.95856,36.36388],[-81.96342,36.36077],[-81.96484,36.35928],[-81.96714,36.35767],[-81.96741,36.3572],[-81.96884,36.35585],[-81.9693,36.35367],[-81.9698,36.35293],[-81.97056,36.35227],[-81.9722,36.34822],[-81.98837,36.33873],[-81.98953,36.33862],[-81.99067,36.33814],[-81.99788,36.33386],[-81.998,36.33323],[-81.9983,36.33304],[-81.99851,36.33195],[-81.99831,36.33156],[-81.99852,36.3304],[-81.99776,36.3289],[-81.9978,36.32865],[-81.9966,36.32732],[-81.99669,36.32708]]]}}
