{"type":"Feature","properties":{"id":"french-broad-river","name":"French Broad River (Douglas tailwater)","waterbodyType":"tailrace","throughLakeIds":["douglas-lake","fort-loudoun-lake"],"allowOpenEnds":false,"source":"nhd-hu8-06010107","approximate":false,"labelAnchor":[-83.5387,35.96097],"bounds":[-83.85072,35.92573,-83.19178,36.08842],"crs":"EPSG:4326","coordinateOrder":"longitude,latitude","partCount":1,"vertexCount":475,"lengthKm":115.04,"sourceIds":["51626324","51626246","51626254","51626252","51626206","51626182","51626170","51625830","51625794","51625766","51625776","51625652","51625316","51624890","51624748","51624722","51624754","51625066","51625124","51625148","51625038","51624982","51624868","51624580","51624310","51624224","51624186","51624114","51624138","51624178","51624184","51624318","51624326","51624582","51624626","51624624","51624556","51624354","51624338","51624250","51624182","51623998","51623780","51623622","51623516","51623390","51623198","51623244","{9099ABEF-F39E-4CF1-91D3-95EF643D9A23}","51623344","51623372","51623446","51623452","51623488","51623546","51623600","51623702","51623764","51623776","51623908","51623920","51624102","{8845B017-BB0D-4ED7-83AA-71A141DE8797}","0e4e6132-1c4d-4415-afe3-40044526cec6","{E7C60B6A-026E-4BC3-9CEA-97CEE6DDA260}","{CE91F356-99B7-4970-B8EF-5650B5D80718}","51626382","51626466","51626484","51626856","51627166","51627168","51627158","51627136","51627048","51627350","51627352","51627344","51627334","51627260","51627564","51627646","51627682","51627736","51627596","51627398","51627222","51627160","51627056","51626984","51626754","51626720","51626718","51626614","51626756","51627186","51627292","51627462","51627532","51627534","51627438","51627268","51627130","51626924","51626806","51626784","51626764","51626716","51626702","51626684","51626648","51626628","51626618","51627008","51627072","51627490","51627582","51627698","51627774","51627776","51627748","51627742","51627726","51627678","51627378","51627234","51626976","51626910","51627050","51627418","51627540","51627786","51627788","51627620","51627802","51627984","51628042","51628076","51628106","51628084","{495AB9BA-C109-41D4-BEDC-7A83F56B6D2E}","{55BD9C66-22E5-4E7B-B7F0-E75E8DB93214}","{2D3A66F1-B445-4EB6-AF83-95BEBF5F33A8}","{15CF4F94-4581-49E5-83BD-A6F69C510C70}","{E5BFA40F-B612-4427-97FF-AFAFDD8F2D05}"],"sourceRetrieved":"2026-09-11","geometrySource":"nhd","hu8":"06010107","simplification":{"toleranceM":10,"verticesBefore":947,"verticesAfter":475,"budgetBytes":81920},"trace":{"anchor":{"lat":35.9612,"lon":-83.5388,"snapDistM":27.5},"up":{"spec":"headwater","reason":"headwater","terminus":[-83.191878,36.014156],"distKmFromAnchor":62.69},"down":{"spec":"mouth","reason":"terminal-node","terminus":[-83.850716,35.958627],"enteredNames":null,"distKmFromAnchor":52.46},"vaaUsed":false,"toleranceM":12}},"geometry":{"type":"MultiLineString","coordinates":[[[-83.19188,36.01416],[-83.19449,36.01692],[-83.19662,36.02194],[-83.19663,36.02428],[-83.19266,36.02808],[-83.19178,36.02948],[-83.19196,36.03072],[-83.19354,36.03343],[-83.1946,36.03483],[-83.1946,36.03531],[-83.19542,36.03614],[-83.19704,36.03669],[-83.19834,36.03669],[-83.19912,36.03686],[-83.20276,36.04042],[-83.20437,36.04148],[-83.20559,36.04187],[-83.20715,36.04589],[-83.2101,36.05066],[-83.21077,36.05199],[-83.21076,36.05245],[-83.21311,36.05558],[-83.21319,36.05607],[-83.21441,36.05826],[-83.21693,36.06143],[-83.21894,36.06291],[-83.2199,36.06412],[-83.22222,36.06618],[-83.22408,36.06729],[-83.22558,36.06854],[-83.22728,36.06969],[-83.23217,36.07728],[-83.23309,36.07829],[-83.23822,36.08145],[-83.24007,36.08399],[-83.24062,36.08511],[-83.24267,36.0865],[-83.24752,36.08842],[-83.25119,36.08567],[-83.25223,36.08462],[-83.25316,36.08299],[-83.25359,36.08106],[-83.25344,36.07952],[-83.25224,36.07738],[-83.25061,36.07507],[-83.24778,36.07304],[-83.2477,36.07023],[-83.2453,36.06995],[-83.24425,36.06778],[-83.24463,36.06509],[-83.24455,36.06361],[-83.24263,36.06171],[-83.24,36.05868],[-83.23974,36.05811],[-83.23959,36.05676],[-83.24304,36.05005],[-83.24381,36.04956],[-83.24498,36.04912],[-83.24907,36.04836],[-83.25356,36.04726],[-83.25566,36.04583],[-83.25852,36.0446],[-83.25947,36.04271],[-83.25983,36.04024],[-83.25951,36.03761],[-83.2591,36.03622],[-83.25758,36.03298],[-83.2565,36.02948],[-83.2562,36.02746],[-83.25511,36.02496],[-83.25363,36.02248],[-83.25336,36.02134],[-83.25342,36.01809],[-83.25406,36.01383],[-83.2542,36.01127],[-83.25589,36.00715],[-83.25782,36.00525],[-83.26154,36.00462],[-83.26373,36.00444],[-83.26824,36.0055],[-83.27151,36.00656],[-83.27247,36.00707],[-83.27376,36.0084],[-83.27461,36.01012],[-83.27597,36.01205],[-83.27655,36.01407],[-83.27861,36.01905],[-83.27896,36.02078],[-83.27979,36.0224],[-83.28004,36.02363],[-83.28167,36.02688],[-83.28556,36.03154],[-83.28736,36.03336],[-83.2907,36.03608],[-83.29462,36.04004],[-83.2977,36.04093],[-83.30219,36.04173],[-83.30488,36.04272],[-83.30637,36.0431],[-83.31047,36.04496],[-83.3121,36.04519],[-83.31849,36.04511],[-83.32184,36.04448],[-83.3234,36.04448],[-83.32521,36.04389],[-83.32757,36.04368],[-83.3339,36.04253],[-83.33627,36.04161],[-83.3383,36.04045],[-83.33954,36.03943],[-83.34299,36.03727],[-83.34645,36.03405],[-83.34757,36.03202],[-83.34787,36.0304],[-83.34788,36.02915],[-83.34632,36.02582],[-83.34455,36.02322],[-83.34228,36.01845],[-83.34177,36.0177],[-83.34137,36.01631],[-83.34116,36.01453],[-83.3404,36.01291],[-83.34025,36.01145],[-83.34053,36.00976],[-83.34067,36.00719],[-83.34055,36.00412],[-83.3402,36.00243],[-83.33905,35.99909],[-83.33947,35.99447],[-83.33995,35.99282],[-83.34006,35.99154],[-83.34067,35.98978],[-83.34303,35.98768],[-83.34464,35.98571],[-83.34553,35.98537],[-83.34677,35.98522],[-83.34862,35.9847],[-83.35025,35.98444],[-83.35829,35.98494],[-83.36097,35.98673],[-83.36239,35.98736],[-83.36745,35.98898],[-83.36889,35.99011],[-83.37278,35.99238],[-83.37411,35.99358],[-83.37606,35.99501],[-83.37736,35.99642],[-83.3789,35.99761],[-83.38053,35.99974],[-83.38287,36.00208],[-83.38372,36.00317],[-83.38564,36.00687],[-83.38629,36.00781],[-83.38689,36.01007],[-83.3878,36.01166],[-83.38847,36.0124],[-83.38975,36.01311],[-83.39291,36.01439],[-83.39551,36.01626],[-83.39591,36.01634],[-83.39819,36.0163],[-83.40054,36.01606],[-83.40495,36.01514],[-83.40679,36.0144],[-83.40794,36.01373],[-83.41094,36.01305],[-83.41492,36.01122],[-83.41548,36.01071],[-83.41588,36.00992],[-83.41722,36.00845],[-83.41756,36.00628],[-83.41491,36.00303],[-83.41478,36.00234],[-83.41619,35.99869],[-83.41435,35.99622],[-83.41255,35.99459],[-83.41183,35.99194],[-83.41178,35.98998],[-83.4115,35.98861],[-83.41294,35.98519],[-83.41348,35.98463],[-83.41511,35.98396],[-83.41812,35.98305],[-83.42048,35.98189],[-83.42303,35.98127],[-83.425,35.98022],[-83.42694,35.97879],[-83.4282,35.97698],[-83.42841,35.9764],[-83.42844,35.97556],[-83.42976,35.96998],[-83.43656,35.97006],[-83.43893,35.97014],[-83.43934,35.97028],[-83.44489,35.96891],[-83.44758,35.96873],[-83.45253,35.96972],[-83.45732,35.97011],[-83.46374,35.97205],[-83.46974,35.97293],[-83.4733,35.97146],[-83.47536,35.97152],[-83.47727,35.97135],[-83.47892,35.97135],[-83.47993,35.9715],[-83.48175,35.97133],[-83.48288,35.97176],[-83.48773,35.97242],[-83.48889,35.9725],[-83.49031,35.97224],[-83.49141,35.97239],[-83.49606,35.97143],[-83.49654,35.97111],[-83.49874,35.97053],[-83.49967,35.97017],[-83.50078,35.96929],[-83.50164,35.96891],[-83.50465,35.96793],[-83.50644,35.96628],[-83.50742,35.96513],[-83.51086,35.96025],[-83.51492,35.96051],[-83.51994,35.9605],[-83.52551,35.95937],[-83.52783,35.96047],[-83.53084,35.96164],[-83.53676,35.96155],[-83.53827,35.96114],[-83.54167,35.96014],[-83.54627,35.95823],[-83.54745,35.95743],[-83.54874,35.95612],[-83.54978,35.9543],[-83.55061,35.95142],[-83.55088,35.94793],[-83.55023,35.94214],[-83.5503,35.94082],[-83.55066,35.93941],[-83.55123,35.93814],[-83.55251,35.93659],[-83.55399,35.93535],[-83.55542,35.93464],[-83.55674,35.93353],[-83.55961,35.93231],[-83.56158,35.9321],[-83.56237,35.93221],[-83.56306,35.93252],[-83.56663,35.93264],[-83.56849,35.93299],[-83.57134,35.93409],[-83.57511,35.93676],[-83.57785,35.93824],[-83.57975,35.93858],[-83.58196,35.93835],[-83.58392,35.93766],[-83.59031,35.93406],[-83.59631,35.93152],[-83.60015,35.93218],[-83.60278,35.93232],[-83.60545,35.93285],[-83.61179,35.9356],[-83.6139,35.93619],[-83.61608,35.93625],[-83.61656,35.93615],[-83.618,35.93544],[-83.61884,35.93466],[-83.62106,35.93076],[-83.62241,35.92911],[-83.62364,35.92847],[-83.62594,35.92649],[-83.62673,35.92614],[-83.62752,35.9259],[-83.62898,35.92573],[-83.62931,35.92616],[-83.63001,35.92665],[-83.63314,35.92682],[-83.63389,35.92667],[-83.63747,35.92741],[-83.63796,35.92724],[-83.63937,35.92734],[-83.6426,35.92846],[-83.64392,35.92913],[-83.64514,35.92934],[-83.64621,35.93062],[-83.64647,35.93144],[-83.64645,35.93243],[-83.64598,35.93343],[-83.64465,35.9342],[-83.64349,35.93457],[-83.63867,35.93533],[-83.63709,35.936],[-83.6361,35.937],[-83.63581,35.93764],[-83.63596,35.93872],[-83.6364,35.9393],[-83.63779,35.93977],[-83.64419,35.94077],[-83.64755,35.94174],[-83.64943,35.94159],[-83.65182,35.94188],[-83.65372,35.94173],[-83.65632,35.94231],[-83.65935,35.94354],[-83.6611,35.94468],[-83.66167,35.94532],[-83.66175,35.94571],[-83.66315,35.94705],[-83.6649,35.94963],[-83.66504,35.95097],[-83.66465,35.9524],[-83.66406,35.95356],[-83.66298,35.95446],[-83.66156,35.95497],[-83.66028,35.95514],[-83.65934,35.95486],[-83.65712,35.95462],[-83.65427,35.95477],[-83.65275,35.95506],[-83.65201,35.9554],[-83.65116,35.95595],[-83.65076,35.95646],[-83.65021,35.95786],[-83.65012,35.95889],[-83.65035,35.96016],[-83.65135,35.96142],[-83.65278,35.96245],[-83.65524,35.96327],[-83.65594,35.96267],[-83.6567,35.96248],[-83.65937,35.9627],[-83.66052,35.96304],[-83.66371,35.96249],[-83.66608,35.96176],[-83.66702,35.9611],[-83.66839,35.95948],[-83.67203,35.95593],[-83.67525,35.9534],[-83.67608,35.95292],[-83.67812,35.95221],[-83.68378,35.95065],[-83.68517,35.95008],[-83.68597,35.94956],[-83.68681,35.94835],[-83.68693,35.94772],[-83.68667,35.94606],[-83.68591,35.94477],[-83.68439,35.94313],[-83.68264,35.94072],[-83.68223,35.93937],[-83.68216,35.93855],[-83.68241,35.93737],[-83.68331,35.93649],[-83.68436,35.93623],[-83.6856,35.93648],[-83.68816,35.93795],[-83.69363,35.94276],[-83.69438,35.94369],[-83.69525,35.94388],[-83.69601,35.94425],[-83.69879,35.9466],[-83.70048,35.9475],[-83.70109,35.94819],[-83.70116,35.94868],[-83.70172,35.94928],[-83.70265,35.95086],[-83.70442,35.95305],[-83.70479,35.95448],[-83.70545,35.95584],[-83.70662,35.95697],[-83.70715,35.95779],[-83.7082,35.95884],[-83.7105,35.9595],[-83.71251,35.96069],[-83.71784,35.96431],[-83.72165,35.9665],[-83.72484,35.96761],[-83.72676,35.96788],[-83.72801,35.968],[-83.72983,35.96786],[-83.73254,35.96696],[-83.7345,35.96552],[-83.73561,35.96414],[-83.73589,35.9635],[-83.73637,35.96132],[-83.73638,35.96028],[-83.73576,35.95685],[-83.73511,35.95518],[-83.73307,35.95176],[-83.73195,35.94931],[-83.73128,35.94698],[-83.73106,35.94427],[-83.73153,35.94223],[-83.73324,35.9394],[-83.73376,35.93887],[-83.73602,35.93739],[-83.73726,35.93698],[-83.73932,35.93667],[-83.74045,35.93661],[-83.74285,35.93706],[-83.74637,35.93874],[-83.7476,35.93958],[-83.75161,35.94395],[-83.75222,35.94431],[-83.75327,35.94627],[-83.75504,35.94797],[-83.7575,35.95094],[-83.75805,35.95184],[-83.75925,35.95308],[-83.76058,35.95494],[-83.76307,35.95746],[-83.76396,35.95793],[-83.76523,35.95894],[-83.76605,35.95919],[-83.76727,35.96014],[-83.76984,35.96128],[-83.77125,35.96137],[-83.77183,35.96124],[-83.7725,35.96076],[-83.77499,35.95755],[-83.7771,35.95323],[-83.78016,35.94603],[-83.78103,35.94474],[-83.78229,35.94374],[-83.78781,35.9417],[-83.78959,35.94145],[-83.7907,35.94159],[-83.79203,35.94207],[-83.79309,35.94298],[-83.79366,35.94383],[-83.79451,35.94569],[-83.79484,35.94874],[-83.7958,35.95285],[-83.79668,35.95487],[-83.79823,35.9567],[-83.79919,35.95729],[-83.80073,35.95776],[-83.80252,35.95781],[-83.8034,35.95768],[-83.80546,35.95691],[-83.80791,35.95553],[-83.81172,35.95079],[-83.81223,35.94943],[-83.81186,35.94879],[-83.81198,35.94805],[-83.81232,35.94764],[-83.813,35.94738],[-83.81365,35.94641],[-83.81481,35.94358],[-83.81548,35.94273],[-83.81679,35.94171],[-83.81876,35.94095],[-83.82375,35.93983],[-83.82549,35.93979],[-83.83001,35.93931],[-83.83362,35.93867],[-83.83611,35.9388],[-83.83762,35.93923],[-83.8382,35.93961],[-83.84022,35.94119],[-83.84192,35.94293],[-83.84221,35.94341],[-83.84332,35.94379],[-83.84485,35.94538],[-83.84559,35.94657],[-83.84615,35.9486],[-83.84595,35.95038],[-83.84539,35.95245],[-83.84482,35.95351],[-83.84417,35.95431],[-83.84376,35.95528],[-83.84363,35.95679],[-83.8445,35.95803],[-83.84707,35.95904],[-83.84946,35.95908],[-83.85072,35.95863]]]}}
