{"type":"Feature","properties":{"id":"emory-river","name":"Emory River","waterbodyType":"river","throughLakeIds":["whiteoak-lake"],"allowOpenEnds":false,"source":"nhd-hu8-06010208","approximate":false,"labelAnchor":[-84.5583,35.98337],"bounds":[-84.66243,35.88796,-84.44652,36.17783],"crs":"EPSG:4326","coordinateOrder":"longitude,latitude","partCount":1,"vertexCount":506,"lengthKm":82.25,"sourceIds":["123937384","123937382","123937380","123937378","123937376","123937375","123937372","123932684","123932682","123932680","123932678","123932676","123932674","123932672","123932670","123932668","123932646","123932644","123932643","123932638","123932636","123932634","123932632","123932630","123932629","123932627","123939492","123939490","123939488","123939487","123939485","123939483","123939482","123939480","123939478","123939476","123939474","123939472","123932563","123932561","123932559","123932557","123932555","123932553","123932551","123932549","123936875","123936874","123936872","123932548","123932546","123936871","123936869","123936867","123936865","123936863","123936861","123936859","123936857","123936855","123936853","123936851","123936849","123936847","123936845","123936843","123936841","123936839","123936837","123936835","123936833","123936831","123936829","123936827","123936825","123936823","123936821","123936819","123936817","123936815","123936813","123936811","123936809","123936690","123936689","123936684","123941609","123935916","123935912","123935905","123935904","123935898","123935897","123935892","123935888","123935886","123935891","123935893","123935896","123935903","123935908","123935914","123935920","123935922","123935928","123935930","123935938","123937386","123937388","123937390","123937392","123937394","123937396","123937398","123937400","123937402","123937404","123937406","123937408","123937410","123937412","123937414","123937416","123937419","123937420","123937421","123937423","123937425","123937427","123937429","123935748","123935772","123935777","123935790","123935798","123935807","123935809","123935811","123935813","123937446","123937448","123935826","123935828","147535006","139448925"],"sourceRetrieved":"2026-09-11","geometrySource":"nhd","hu8":"06010208","simplification":{"toleranceM":10,"verticesBefore":1491,"verticesAfter":506,"budgetBytes":81920},"trace":{"anchor":{"lat":35.9831,"lon":-84.558,"snapDistM":40.5},"up":{"spec":"headwater","reason":"headwater","terminus":[-84.44652,36.156649],"distKmFromAnchor":53.19},"down":{"spec":"confluence:Tennessee River","reason":"terminal-node","terminus":[-84.493255,35.887957],"enteredNames":null,"distKmFromAnchor":28.52},"vaaUsed":false,"toleranceM":12}},"geometry":{"type":"MultiLineString","coordinates":[[[-84.44652,36.15665],[-84.44726,36.15799],[-84.44795,36.15836],[-84.44863,36.15843],[-84.44995,36.15917],[-84.45047,36.15998],[-84.45183,36.16076],[-84.45339,36.16217],[-84.45524,36.16306],[-84.45648,36.1646],[-84.45671,36.16561],[-84.45766,36.16627],[-84.45812,36.16706],[-84.45874,36.16762],[-84.45888,36.16806],[-84.45947,36.1684],[-84.45981,36.16896],[-84.46099,36.16942],[-84.46276,36.17064],[-84.46395,36.17262],[-84.46432,36.17247],[-84.46465,36.17254],[-84.46478,36.17306],[-84.46697,36.17463],[-84.4674,36.1749],[-84.46879,36.17522],[-84.46956,36.17595],[-84.47017,36.17622],[-84.47388,36.17745],[-84.47652,36.17783],[-84.47776,36.17757],[-84.47867,36.17758],[-84.47942,36.17728],[-84.48159,36.1757],[-84.48476,36.17266],[-84.48536,36.17223],[-84.48656,36.1719],[-84.48693,36.17122],[-84.48739,36.17084],[-84.48803,36.17065],[-84.48926,36.17061],[-84.49349,36.16936],[-84.49404,36.16897],[-84.49477,36.16881],[-84.49527,36.16821],[-84.49615,36.16802],[-84.49728,36.16752],[-84.49966,36.16753],[-84.50011,36.16777],[-84.50005,36.16838],[-84.50107,36.1686],[-84.50189,36.16843],[-84.50265,36.16845],[-84.50389,36.16806],[-84.50471,36.16753],[-84.50556,36.16726],[-84.5087,36.16704],[-84.50971,36.16741],[-84.51094,36.16913],[-84.51206,36.16932],[-84.5132,36.16984],[-84.51378,36.16983],[-84.51524,36.16914],[-84.51597,36.16896],[-84.51701,36.16836],[-84.52051,36.16816],[-84.52096,36.16821],[-84.52145,36.16927],[-84.52276,36.16956],[-84.5246,36.1693],[-84.5252,36.16905],[-84.52549,36.16784],[-84.52691,36.16608],[-84.5273,36.16582],[-84.52784,36.166],[-84.52871,36.16662],[-84.52991,36.16687],[-84.53125,36.16799],[-84.5334,36.16806],[-84.53433,36.16765],[-84.53654,36.16608],[-84.53779,36.16557],[-84.53878,36.1659],[-84.54112,36.16801],[-84.54293,36.16919],[-84.54386,36.16914],[-84.54402,36.16882],[-84.54395,36.16834],[-84.54426,36.16794],[-84.54769,36.16755],[-84.54851,36.16768],[-84.54954,36.16807],[-84.55009,36.168],[-84.55204,36.16684],[-84.55321,36.16553],[-84.55338,36.16477],[-84.553,36.16397],[-84.55304,36.16368],[-84.55373,36.16338],[-84.55543,36.16307],[-84.55684,36.16308],[-84.55687,36.16221],[-84.55761,36.16067],[-84.55745,36.16001],[-84.55808,36.15935],[-84.55898,36.15915],[-84.55938,36.15921],[-84.56003,36.16011],[-84.56033,36.16027],[-84.56182,36.16034],[-84.56234,36.16023],[-84.56325,36.15919],[-84.56493,36.15885],[-84.56639,36.15677],[-84.56819,36.15694],[-84.5683,36.1566],[-84.5681,36.15579],[-84.56823,36.15548],[-84.56944,36.1551],[-84.5703,36.15505],[-84.57087,36.15479],[-84.57126,36.15451],[-84.57212,36.15333],[-84.57365,36.15227],[-84.57473,36.15184],[-84.5749,36.15144],[-84.5754,36.15128],[-84.57639,36.15112],[-84.57702,36.15127],[-84.57688,36.15249],[-84.57729,36.15275],[-84.57856,36.15259],[-84.57953,36.15293],[-84.5798,36.15278],[-84.58005,36.15223],[-84.58037,36.15207],[-84.58074,36.15212],[-84.58109,36.15266],[-84.58126,36.15269],[-84.58372,36.15178],[-84.5844,36.15136],[-84.58543,36.15103],[-84.58604,36.1505],[-84.58617,36.14996],[-84.58586,36.1487],[-84.58625,36.14868],[-84.58722,36.14941],[-84.5878,36.14933],[-84.58937,36.14793],[-84.58969,36.1468],[-84.59027,36.14634],[-84.59075,36.1462],[-84.59131,36.14621],[-84.592,36.14646],[-84.59379,36.14783],[-84.59633,36.1493],[-84.59851,36.15008],[-84.60321,36.15214],[-84.60395,36.15218],[-84.60452,36.15172],[-84.60536,36.15028],[-84.60541,36.14915],[-84.60473,36.14811],[-84.60201,36.14572],[-84.60125,36.14494],[-84.6011,36.14452],[-84.60137,36.14399],[-84.60167,36.14384],[-84.60314,36.1436],[-84.60354,36.1434],[-84.60362,36.14282],[-84.60307,36.14194],[-84.60191,36.14066],[-84.60168,36.13876],[-84.60144,36.13833],[-84.60053,36.13781],[-84.5981,36.13751],[-84.59739,36.137],[-84.59749,36.13669],[-84.5998,36.13559],[-84.60015,36.13528],[-84.60017,36.13499],[-84.59989,36.13446],[-84.59938,36.13409],[-84.59769,36.13401],[-84.59719,36.13341],[-84.5971,36.13268],[-84.59765,36.13247],[-84.59886,36.13322],[-84.60027,36.13268],[-84.60151,36.13285],[-84.60193,36.13273],[-84.60276,36.13155],[-84.60318,36.13022],[-84.60366,36.12941],[-84.60489,36.12838],[-84.60585,36.12587],[-84.60604,36.12494],[-84.60647,36.12453],[-84.60894,36.12507],[-84.60993,36.12603],[-84.61194,36.12691],[-84.61429,36.12863],[-84.6151,36.12894],[-84.61564,36.12884],[-84.61637,36.1281],[-84.61699,36.12712],[-84.6176,36.12366],[-84.61856,36.12194],[-84.61878,36.12075],[-84.61871,36.12023],[-84.61817,36.11924],[-84.61567,36.11691],[-84.61561,36.11632],[-84.61603,36.11494],[-84.61595,36.11452],[-84.61536,36.11367],[-84.61371,36.11221],[-84.61218,36.11151],[-84.61027,36.11034],[-84.60938,36.10966],[-84.60868,36.1088],[-84.60811,36.10786],[-84.60796,36.10717],[-84.6081,36.10633],[-84.60844,36.10565],[-84.60943,36.10467],[-84.60999,36.10444],[-84.61239,36.10516],[-84.61528,36.10528],[-84.61646,36.10551],[-84.61765,36.10602],[-84.61798,36.10635],[-84.61844,36.10747],[-84.61879,36.10786],[-84.61941,36.10814],[-84.62014,36.108],[-84.62172,36.10613],[-84.62352,36.10483],[-84.62398,36.10429],[-84.62402,36.10333],[-84.623,36.10135],[-84.623,36.09985],[-84.62323,36.09893],[-84.62386,36.0982],[-84.62456,36.09688],[-84.62549,36.09599],[-84.62669,36.09522],[-84.62795,36.09516],[-84.62887,36.0957],[-84.62932,36.09789],[-84.62975,36.09836],[-84.63001,36.09851],[-84.63117,36.09846],[-84.63229,36.09883],[-84.63292,36.09884],[-84.63341,36.0983],[-84.63361,36.09724],[-84.63348,36.09592],[-84.63376,36.09508],[-84.63414,36.09467],[-84.63897,36.09112],[-84.64203,36.09048],[-84.64286,36.09004],[-84.6433,36.08692],[-84.64307,36.08597],[-84.64245,36.08512],[-84.64192,36.08486],[-84.64089,36.08458],[-84.63865,36.08503],[-84.63802,36.08486],[-84.63689,36.08395],[-84.63678,36.08348],[-84.63704,36.08257],[-84.63787,36.08152],[-84.63846,36.08117],[-84.63963,36.081],[-84.64102,36.08175],[-84.64144,36.08164],[-84.64175,36.08106],[-84.64179,36.0798],[-84.64198,36.07913],[-84.64245,36.0784],[-84.64286,36.07815],[-84.64421,36.07774],[-84.64529,36.0782],[-84.64644,36.07831],[-84.64708,36.07768],[-84.64768,36.07619],[-84.64845,36.07552],[-84.6495,36.07509],[-84.65014,36.07448],[-84.65146,36.07414],[-84.65285,36.07306],[-84.65421,36.07272],[-84.65891,36.07087],[-84.65951,36.07085],[-84.66129,36.07033],[-84.66206,36.06992],[-84.66243,36.06907],[-84.66227,36.06823],[-84.65942,36.06624],[-84.65869,36.06614],[-84.65804,36.06636],[-84.65676,36.06602],[-84.65573,36.06607],[-84.65461,36.06588],[-84.65322,36.0662],[-84.65239,36.06602],[-84.64954,36.06422],[-84.64865,36.06334],[-84.64736,36.06241],[-84.64559,36.06158],[-84.63563,36.05951],[-84.6332,36.05872],[-84.62952,36.05628],[-84.62733,36.05539],[-84.62325,36.05345],[-84.62133,36.05223],[-84.6196,36.05134],[-84.61829,36.05088],[-84.61473,36.04881],[-84.60984,36.04637],[-84.60543,36.04483],[-84.60427,36.04426],[-84.5998,36.04262],[-84.59599,36.04189],[-84.59047,36.03976],[-84.58973,36.03964],[-84.58802,36.03886],[-84.58459,36.03636],[-84.58258,36.03398],[-84.58086,36.03109],[-84.57958,36.02749],[-84.57886,36.02655],[-84.57738,36.02546],[-84.57673,36.02463],[-84.5766,36.02377],[-84.57734,36.02202],[-84.57807,36.02109],[-84.57885,36.01873],[-84.57877,36.01803],[-84.57842,36.01759],[-84.57661,36.01652],[-84.57323,36.0153],[-84.57224,36.01439],[-84.5717,36.01345],[-84.57171,36.01254],[-84.57198,36.01141],[-84.57163,36.00797],[-84.57068,36.00512],[-84.57051,36.00388],[-84.56981,36.00177],[-84.56921,36.00008],[-84.56802,35.99778],[-84.56832,35.99656],[-84.56809,35.99583],[-84.56756,35.99487],[-84.5666,35.99389],[-84.56589,35.99252],[-84.56517,35.99158],[-84.56372,35.99036],[-84.56091,35.98857],[-84.55798,35.9857],[-84.55772,35.98537],[-84.55767,35.98488],[-84.55763,35.98412],[-84.55788,35.98368],[-84.56071,35.98195],[-84.56189,35.98161],[-84.56261,35.98151],[-84.5583,35.98337],[-84.56328,35.98158],[-84.56425,35.98187],[-84.5657,35.98307],[-84.56668,35.98355],[-84.56961,35.98414],[-84.57112,35.98379],[-84.57245,35.98248],[-84.57328,35.98061],[-84.57319,35.98004],[-84.57101,35.97769],[-84.57076,35.97671],[-84.56978,35.97603],[-84.56692,35.97555],[-84.56559,35.97494],[-84.56513,35.97459],[-84.5652,35.97278],[-84.56622,35.97091],[-84.57073,35.96716],[-84.57144,35.96629],[-84.57512,35.95847],[-84.57627,35.95165],[-84.57514,35.9491],[-84.57453,35.94615],[-84.57393,35.94463],[-84.57257,35.94253],[-84.57106,35.94103],[-84.57006,35.94049],[-84.56813,35.93983],[-84.56677,35.93975],[-84.56424,35.9404],[-84.56199,35.94032],[-84.56041,35.94004],[-84.55916,35.93918],[-84.55895,35.93819],[-84.56049,35.93486],[-84.5605,35.93419],[-84.56009,35.93337],[-84.55905,35.93232],[-84.55772,35.93132],[-84.55443,35.92824],[-84.55339,35.92755],[-84.55192,35.92725],[-84.55086,35.92719],[-84.54823,35.92775],[-84.54606,35.92847],[-84.54345,35.92862],[-84.54123,35.92906],[-84.53921,35.93026],[-84.53848,35.93101],[-84.53794,35.93246],[-84.53793,35.934],[-84.53864,35.94204],[-84.53849,35.94247],[-84.53677,35.94402],[-84.53507,35.9452],[-84.53144,35.94714],[-84.5304,35.94736],[-84.52841,35.94729],[-84.5266,35.94653],[-84.52398,35.94451],[-84.52074,35.94075],[-84.5196,35.94013],[-84.51766,35.93959],[-84.51562,35.93929],[-84.51469,35.93925],[-84.51343,35.93962],[-84.51104,35.94125],[-84.50987,35.94356],[-84.50932,35.94687],[-84.50952,35.94922],[-84.50944,35.95338],[-84.5092,35.95411],[-84.50837,35.95505],[-84.50652,35.95567],[-84.50423,35.95566],[-84.50279,35.9553],[-84.50105,35.95436],[-84.50059,35.95363],[-84.50063,35.95261],[-84.50405,35.94922],[-84.50424,35.94828],[-84.50405,35.94734],[-84.50365,35.94671],[-84.50269,35.9459],[-84.50182,35.94555],[-84.49912,35.94573],[-84.49514,35.94553],[-84.49296,35.94527],[-84.49069,35.94476],[-84.48919,35.94424],[-84.48823,35.94371],[-84.48564,35.94091],[-84.48295,35.93921],[-84.4821,35.93819],[-84.48195,35.93747],[-84.48293,35.93415],[-84.48293,35.93272],[-84.48363,35.92866],[-84.48364,35.92559],[-84.48322,35.92326],[-84.48341,35.92254],[-84.48373,35.92207],[-84.48434,35.92151],[-84.48555,35.92078],[-84.48887,35.91922],[-84.48999,35.91911],[-84.49163,35.91924],[-84.49391,35.91916],[-84.49688,35.91861],[-84.50144,35.91669],[-84.50258,35.91594],[-84.50329,35.91507],[-84.50362,35.91425],[-84.50391,35.91199],[-84.50381,35.91071],[-84.50267,35.90802],[-84.50259,35.90715],[-84.50295,35.90521],[-84.50268,35.90422],[-84.50152,35.90384],[-84.49994,35.90355],[-84.49716,35.90261],[-84.49418,35.90127],[-84.49114,35.89962],[-84.49017,35.89888],[-84.48913,35.8978],[-84.48793,35.89576],[-84.48768,35.8949],[-84.48744,35.89274],[-84.48762,35.8914],[-84.488,35.89017],[-84.48881,35.88926],[-84.48987,35.88862],[-84.49325,35.88796]]]}}
