{"type":"Feature","properties":{"id":"sinking-creek-wilson","name":"Sinking Creek (Wilson County)","waterbodyType":"spring","throughLakeIds":[],"allowOpenEnds":false,"source":"nhd-hu8-05130201","approximate":false,"labelAnchor":[-86.30027,36.16512],"bounds":[-86.3118,36.12474,-86.286,36.2205],"crs":"EPSG:4326","coordinateOrder":"longitude,latitude","partCount":1,"vertexCount":114,"lengthKm":14.09,"sourceIds":["137307979","137309160","137309162","137309164","137309166","137309018","137307977","137307975","137311080","137311078"],"sourceRetrieved":"2026-09-11","geometrySource":"nhd","hu8":"05130201","simplification":{"toleranceM":10,"verticesBefore":398,"verticesAfter":114,"budgetBytes":81920},"trace":{"anchor":{"lat":36.1651,"lon":-86.3003,"snapDistM":3.3},"up":{"spec":"headwater","reason":"headwater","terminus":[-86.301788,36.124736],"distKmFromAnchor":4.71},"down":{"spec":"mouth","reason":"name-change","terminus":[-86.3118,36.220504],"enteredNames":["Bartons Creek"],"distKmFromAnchor":9.52},"vaaUsed":false,"toleranceM":12}},"geometry":{"type":"MultiLineString","coordinates":[[[-86.30179,36.12474],[-86.30193,36.12624],[-86.30232,36.12704],[-86.30247,36.12792],[-86.30185,36.12907],[-86.30174,36.13013],[-86.30137,36.13054],[-86.30144,36.13086],[-86.30114,36.13172],[-86.30125,36.13215],[-86.30196,36.13298],[-86.30201,36.13361],[-86.30146,36.13614],[-86.30143,36.13741],[-86.30095,36.13826],[-86.30082,36.13911],[-86.30122,36.13935],[-86.30092,36.14128],[-86.30141,36.14341],[-86.3005,36.1458],[-86.30073,36.14739],[-86.30093,36.14778],[-86.30098,36.14884],[-86.3008,36.14942],[-86.30148,36.15018],[-86.30183,36.152],[-86.30157,36.15345],[-86.30171,36.1541],[-86.30162,36.15523],[-86.30115,36.15635],[-86.30094,36.15746],[-86.30054,36.15816],[-86.30057,36.15895],[-86.30098,36.15979],[-86.30107,36.16044],[-86.30041,36.16214],[-86.3001,36.16469],[-86.30037,36.16539],[-86.30125,36.16614],[-86.30226,36.16807],[-86.30188,36.16932],[-86.30196,36.16976],[-86.30318,36.17045],[-86.30386,36.17206],[-86.30348,36.17307],[-86.30394,36.17455],[-86.30417,36.17611],[-86.30377,36.17635],[-86.30317,36.17791],[-86.30216,36.17872],[-86.30299,36.17981],[-86.30324,36.18077],[-86.30272,36.18142],[-86.3027,36.18228],[-86.3024,36.18275],[-86.30036,36.18356],[-86.29952,36.18433],[-86.29935,36.18532],[-86.29649,36.18709],[-86.29569,36.18697],[-86.29446,36.18586],[-86.29329,36.18518],[-86.29177,36.18479],[-86.2884,36.18569],[-86.28803,36.18594],[-86.28769,36.18845],[-86.28724,36.18878],[-86.28638,36.18885],[-86.28638,36.18935],[-86.28672,36.18968],[-86.286,36.19197],[-86.28632,36.19279],[-86.28698,36.19323],[-86.28765,36.19346],[-86.28795,36.19375],[-86.28878,36.194],[-86.28968,36.19474],[-86.29023,36.19584],[-86.29105,36.19642],[-86.29248,36.19713],[-86.29315,36.19785],[-86.29315,36.20019],[-86.29269,36.20147],[-86.29267,36.20234],[-86.29197,36.20344],[-86.2918,36.20462],[-86.29194,36.20726],[-86.29176,36.20828],[-86.29258,36.20912],[-86.2928,36.20973],[-86.29371,36.21025],[-86.29486,36.21144],[-86.29584,36.2127],[-86.29623,36.21353],[-86.29719,36.2143],[-86.29747,36.215],[-86.29821,36.2153],[-86.29872,36.2162],[-86.30103,36.21826],[-86.30156,36.21837],[-86.30247,36.21811],[-86.30437,36.2181],[-86.30452,36.21851],[-86.30434,36.21922],[-86.30548,36.21957],[-86.30719,36.21874],[-86.3078,36.21872],[-86.3086,36.21911],[-86.30932,36.21906],[-86.31012,36.21937],[-86.31099,36.21928],[-86.3111,36.21953],[-86.31091,36.21995],[-86.3118,36.2205]]]}}
