{"type":"Feature","properties":{"id":"clear-creek-obed","name":"Clear Creek (Obed system)","waterbodyType":"creek","throughLakeIds":[],"allowOpenEnds":false,"source":"nhd-hu8-06010208","approximate":false,"labelAnchor":[-84.718,36.10331],"bounds":[-85.18135,36.05178,-84.69834,36.17059],"crs":"EPSG:4326","coordinateOrder":"longitude,latitude","partCount":1,"vertexCount":675,"lengthKm":78.17,"sourceIds":["123939431","123939429","123939427","123939425","123939423","123939421","123939419","123939417","123939415","123940393","123940391","123941040","123941038","123937933","123937931","123937929","123941037","123941035","123941033","123941031","123941029","123941027","123941025","123937928","123937926","123937924","123937922","123937920","123937918","123937916","123937914","123937912","123937910","123937908","123937906","123937904","123940914","123940912","123940910","123940908","123940906","123939039","123939037","123939035","123939033","123939031","123939029","123939027","123939025","123939023","123939021","123939019","123939017","123939015","123939013","123939011","123939009","123939007","123939005","123939003","123939001","123938999","123938997","123938995","123938993","123938991","123938989","123938987","123938985","123938983","123933671","123933589","123933577","123933571","123933572","123933565","123933564","123933556","123933567","123933566","123933575","123933580","123933582","123933585","123933603","123933598","123933592","123933590","123933599","123933621","123933622","123933629","123933628","123933633","123933635","123933648","123933652","123933655","123933665","123941615","123938191","123938193","123938202","123938207","123938212","123938245","123938270","123938267","123938299","123932808","123932809","123932806","123932803","123932801","123932812","123932811","123932817","123932821","123932826","123932836","123932841","123932846","123932847","123932850","123932866","123932872","123939433","123939435"],"sourceRetrieved":"2026-09-11","geometrySource":"nhd","hu8":"06010208","simplification":{"toleranceM":10,"verticesBefore":2801,"verticesAfter":675,"budgetBytes":81920},"trace":{"anchor":{"lat":36.1031,"lon":-84.7183,"snapDistM":35.2},"up":{"spec":"headwater","reason":"headwater","terminus":[-85.18135,36.051784],"distKmFromAnchor":76.07},"down":{"spec":"confluence:Obed River","reason":"confluence","terminus":[-84.698343,36.090955],"enteredNames":["Obed River"],"distKmFromAnchor":2.57},"vaaUsed":false,"toleranceM":12}},"geometry":{"type":"MultiLineString","coordinates":[[[-85.18135,36.05178],[-85.1795,36.05286],[-85.17939,36.05355],[-85.1778,36.05445],[-85.17717,36.05598],[-85.17474,36.05676],[-85.1747,36.05744],[-85.17545,36.05909],[-85.1751,36.05944],[-85.17397,36.05993],[-85.17376,36.0602],[-85.1738,36.06153],[-85.17399,36.06195],[-85.17432,36.06215],[-85.17346,36.06321],[-85.17168,36.06351],[-85.17084,36.06346],[-85.1704,36.06381],[-85.16898,36.06409],[-85.16806,36.06476],[-85.16808,36.06517],[-85.16789,36.0655],[-85.16835,36.06588],[-85.16835,36.06629],[-85.16746,36.06714],[-85.16714,36.0672],[-85.16678,36.06705],[-85.16657,36.06717],[-85.16645,36.06765],[-85.16676,36.06786],[-85.16678,36.06831],[-85.16634,36.06803],[-85.16602,36.06808],[-85.16574,36.0685],[-85.16592,36.06872],[-85.16569,36.06895],[-85.16531,36.06905],[-85.1652,36.0697],[-85.16544,36.07076],[-85.16514,36.07095],[-85.16489,36.07175],[-85.16439,36.07177],[-85.16395,36.07157],[-85.16322,36.07199],[-85.16296,36.07234],[-85.16234,36.07247],[-85.16209,36.07269],[-85.16092,36.07272],[-85.16069,36.07298],[-85.16037,36.073],[-85.16032,36.07335],[-85.15871,36.07359],[-85.15834,36.07497],[-85.15868,36.07586],[-85.15661,36.07715],[-85.15609,36.07806],[-85.15678,36.07867],[-85.15766,36.07877],[-85.15811,36.07908],[-85.15777,36.08083],[-85.15722,36.08156],[-85.1575,36.08188],[-85.15758,36.08229],[-85.15828,36.08287],[-85.15841,36.08358],[-85.15803,36.08397],[-85.15749,36.08417],[-85.15686,36.08482],[-85.15607,36.08481],[-85.15577,36.08462],[-85.15508,36.08498],[-85.15425,36.08492],[-85.15343,36.08456],[-85.15281,36.08467],[-85.15254,36.08526],[-85.15169,36.08562],[-85.15122,36.0863],[-85.15118,36.08675],[-85.15189,36.08705],[-85.15151,36.08774],[-85.15153,36.08827],[-85.15076,36.08904],[-85.15011,36.08943],[-85.14956,36.09017],[-85.1496,36.09094],[-85.1483,36.09207],[-85.14668,36.09205],[-85.14585,36.09087],[-85.14482,36.09031],[-85.14402,36.09008],[-85.14217,36.08986],[-85.14132,36.09022],[-85.14109,36.09015],[-85.14068,36.08978],[-85.14116,36.08936],[-85.1412,36.08832],[-85.14023,36.08661],[-85.13923,36.08583],[-85.13859,36.08589],[-85.13781,36.08664],[-85.1363,36.08705],[-85.13479,36.08705],[-85.1335,36.08736],[-85.1333,36.08715],[-85.13323,36.08511],[-85.13257,36.08508],[-85.13114,36.08469],[-85.13019,36.08504],[-85.12942,36.08584],[-85.12857,36.08625],[-85.12841,36.08651],[-85.12861,36.08693],[-85.12953,36.08754],[-85.12985,36.08793],[-85.12999,36.08901],[-85.12969,36.08962],[-85.12932,36.08971],[-85.12848,36.08924],[-85.12794,36.0891],[-85.12639,36.08932],[-85.12496,36.08921],[-85.12417,36.08966],[-85.12496,36.09033],[-85.12508,36.09076],[-85.12501,36.09199],[-85.12469,36.09262],[-85.12477,36.09381],[-85.12547,36.09593],[-85.12536,36.09637],[-85.1241,36.09661],[-85.12173,36.09657],[-85.12089,36.09636],[-85.11973,36.09631],[-85.11883,36.09655],[-85.11753,36.09619],[-85.11703,36.0957],[-85.1167,36.09583],[-85.11578,36.09667],[-85.11538,36.09744],[-85.11541,36.09919],[-85.1157,36.09933],[-85.1171,36.09921],[-85.11755,36.09929],[-85.1179,36.0996],[-85.11783,36.10002],[-85.11727,36.10006],[-85.11612,36.10098],[-85.11558,36.10115],[-85.11348,36.10069],[-85.11138,36.10125],[-85.11013,36.10116],[-85.10921,36.10088],[-85.10876,36.10095],[-85.10841,36.10202],[-85.10743,36.1024],[-85.10682,36.1031],[-85.1068,36.10356],[-85.10726,36.10446],[-85.10667,36.10626],[-85.1068,36.10679],[-85.10662,36.10767],[-85.10609,36.1079],[-85.10553,36.10788],[-85.10525,36.10758],[-85.1046,36.10735],[-85.10445,36.10688],[-85.10336,36.10671],[-85.10279,36.10726],[-85.10197,36.10736],[-85.10133,36.10816],[-85.10047,36.10814],[-85.10042,36.10976],[-85.10104,36.11166],[-85.10075,36.11213],[-85.09955,36.11234],[-85.09721,36.11171],[-85.09641,36.11126],[-85.0959,36.1115],[-85.09563,36.11219],[-85.0957,36.11321],[-85.09708,36.11439],[-85.09702,36.11497],[-85.09659,36.11564],[-85.09723,36.11688],[-85.097,36.11726],[-85.0955,36.11799],[-85.09531,36.11829],[-85.0967,36.11981],[-85.09675,36.12012],[-85.09598,36.12074],[-85.09383,36.12068],[-85.09084,36.12222],[-85.09048,36.12264],[-85.08981,36.12422],[-85.08859,36.12544],[-85.08809,36.12626],[-85.08715,36.12689],[-85.08725,36.12809],[-85.08755,36.12859],[-85.09032,36.12967],[-85.09122,36.12975],[-85.09139,36.12995],[-85.09115,36.13019],[-85.08938,36.13043],[-85.0878,36.13106],[-85.08747,36.132],[-85.08801,36.13273],[-85.08781,36.13325],[-85.08748,36.13338],[-85.08696,36.13321],[-85.08577,36.13322],[-85.08515,36.13287],[-85.08438,36.13295],[-85.083,36.13216],[-85.08185,36.13261],[-85.08156,36.13299],[-85.08169,36.13399],[-85.08073,36.13455],[-85.08065,36.13527],[-85.08137,36.13572],[-85.08296,36.13593],[-85.08317,36.13617],[-85.08315,36.13672],[-85.08241,36.13758],[-85.08149,36.13825],[-85.08078,36.13837],[-85.07907,36.13815],[-85.07744,36.13849],[-85.07727,36.13862],[-85.07685,36.14018],[-85.07624,36.14095],[-85.07529,36.14099],[-85.07437,36.14044],[-85.07297,36.13994],[-85.07246,36.1399],[-85.07113,36.14027],[-85.07019,36.13985],[-85.06953,36.13988],[-85.06862,36.14092],[-85.06818,36.14206],[-85.06659,36.14273],[-85.06583,36.14388],[-85.06589,36.14424],[-85.06693,36.14538],[-85.06714,36.14652],[-85.06672,36.1473],[-85.06549,36.14816],[-85.06514,36.14952],[-85.06388,36.1504],[-85.06312,36.15066],[-85.06228,36.15062],[-85.06084,36.15001],[-85.06039,36.15006],[-85.05981,36.15053],[-85.05919,36.15136],[-85.05798,36.15218],[-85.0569,36.15339],[-85.05661,36.15345],[-85.05629,36.15323],[-85.05564,36.15155],[-85.0548,36.15108],[-85.05424,36.15115],[-85.05395,36.15216],[-85.05263,36.15299],[-85.05229,36.15307],[-85.05134,36.15279],[-85.05098,36.15253],[-85.05082,36.1511],[-85.05038,36.14983],[-85.04951,36.14931],[-85.04887,36.14944],[-85.0484,36.15013],[-85.04871,36.15178],[-85.04834,36.1524],[-85.04761,36.15277],[-85.04417,36.15334],[-85.04401,36.15363],[-85.04423,36.15418],[-85.0442,36.15466],[-85.04173,36.1577],[-85.04133,36.15906],[-85.04154,36.16028],[-85.04145,36.16065],[-85.04062,36.16156],[-85.03946,36.16235],[-85.03924,36.16285],[-85.03925,36.16373],[-85.04005,36.16431],[-85.04028,36.16481],[-85.04024,36.16507],[-85.0396,36.16553],[-85.03925,36.16608],[-85.03925,36.16746],[-85.0386,36.16749],[-85.038,36.16699],[-85.0377,36.16485],[-85.03732,36.1642],[-85.03742,36.1633],[-85.03725,36.16271],[-85.03665,36.16224],[-85.03591,36.1623],[-85.03524,36.16266],[-85.03476,36.16331],[-85.03468,36.16489],[-85.03429,36.16575],[-85.0336,36.16614],[-85.03225,36.16647],[-85.03168,36.1672],[-85.0318,36.16759],[-85.03233,36.16784],[-85.0333,36.16872],[-85.03336,36.16921],[-85.03227,36.16944],[-85.03105,36.16936],[-85.02905,36.17059],[-85.02844,36.1704],[-85.02773,36.16985],[-85.02784,36.16872],[-85.02664,36.16754],[-85.02639,36.16698],[-85.02632,36.16596],[-85.02577,36.1651],[-85.02453,36.16437],[-85.02379,36.16412],[-85.02303,36.1644],[-85.02269,36.16535],[-85.02219,36.16541],[-85.02178,36.16525],[-85.02049,36.16402],[-85.01961,36.16285],[-85.01916,36.16091],[-85.0185,36.16029],[-85.01705,36.16004],[-85.01581,36.1602],[-85.01528,36.16047],[-85.01453,36.16169],[-85.01359,36.16257],[-85.01357,36.16297],[-85.01401,36.16331],[-85.01608,36.1631],[-85.0166,36.16341],[-85.0166,36.16393],[-85.01586,36.16475],[-85.0149,36.16507],[-85.0138,36.16502],[-85.01298,36.1647],[-85.01254,36.16412],[-85.01221,36.16312],[-85.01219,36.16159],[-85.01235,36.16108],[-85.01281,36.16053],[-85.01493,36.15875],[-85.01511,36.15822],[-85.01485,36.15782],[-85.01415,36.15749],[-85.01359,36.15765],[-85.01217,36.15932],[-85.01153,36.15965],[-85.01092,36.15969],[-85.01011,36.15917],[-85.00957,36.15858],[-85.00898,36.15737],[-85.00798,36.15672],[-85.00706,36.15657],[-85.00531,36.1568],[-85.00478,36.15663],[-85.00451,36.1559],[-85.00481,36.15483],[-85.00481,36.15351],[-85.00451,36.15302],[-85.00364,36.15236],[-85.00224,36.15245],[-85.00188,36.15234],[-85.00118,36.15129],[-85.00068,36.1509],[-85.00029,36.15081],[-85,36.15124],[-84.99783,36.15197],[-84.99694,36.1527],[-84.99683,36.15324],[-84.99742,36.15481],[-84.99748,36.1557],[-84.99693,36.15654],[-84.99684,36.15706],[-84.9961,36.15811],[-84.99608,36.15969],[-84.99576,36.16017],[-84.99515,36.16049],[-84.99425,36.16014],[-84.99355,36.16006],[-84.99296,36.16017],[-84.99121,36.16105],[-84.99013,36.1614],[-84.98938,36.16124],[-84.98856,36.1607],[-84.98808,36.16057],[-84.98768,36.16058],[-84.98586,36.16126],[-84.98541,36.1613],[-84.98486,36.16095],[-84.98448,36.15945],[-84.98417,36.15891],[-84.9824,36.15796],[-84.98073,36.15779],[-84.97685,36.15938],[-84.97322,36.15962],[-84.97198,36.1599],[-84.97112,36.16031],[-84.96894,36.1622],[-84.96859,36.16227],[-84.96818,36.16225],[-84.96719,36.16163],[-84.9657,36.16105],[-84.96418,36.16063],[-84.96268,36.16047],[-84.96166,36.16006],[-84.96089,36.15955],[-84.96023,36.1595],[-84.95981,36.15987],[-84.95976,36.16064],[-84.95944,36.16096],[-84.95912,36.16115],[-84.95728,36.16153],[-84.95562,36.163],[-84.95389,36.16396],[-84.9534,36.16466],[-84.95314,36.16581],[-84.95267,36.16675],[-84.95223,36.16704],[-84.9513,36.1672],[-84.95035,36.16691],[-84.94871,36.16565],[-84.94839,36.16528],[-84.94803,36.16422],[-84.94763,36.16379],[-84.94619,36.16249],[-84.94467,36.16168],[-84.94311,36.15981],[-84.94258,36.15872],[-84.94167,36.15739],[-84.94115,36.15741],[-84.93886,36.15893],[-84.93853,36.15897],[-84.9383,36.1588],[-84.93783,36.15679],[-84.93744,36.15638],[-84.93702,36.15487],[-84.93651,36.15427],[-84.93474,36.15287],[-84.93287,36.15079],[-84.93282,36.14997],[-84.93325,36.14891],[-84.93476,36.14726],[-84.93467,36.14666],[-84.93412,36.14636],[-84.93316,36.14626],[-84.93135,36.14659],[-84.92892,36.14664],[-84.92526,36.14712],[-84.9233,36.14836],[-84.92257,36.14984],[-84.9217,36.15069],[-84.92107,36.15085],[-84.92023,36.1508],[-84.91835,36.15024],[-84.91713,36.15031],[-84.91653,36.1505],[-84.91548,36.15102],[-84.91411,36.15217],[-84.913,36.15284],[-84.9118,36.15322],[-84.91073,36.15376],[-84.90979,36.15447],[-84.90803,36.15619],[-84.90687,36.15643],[-84.90612,36.15567],[-84.9063,36.15475],[-84.9062,36.15439],[-84.90544,36.15323],[-84.90325,36.15148],[-84.9026,36.15128],[-84.90082,36.15128],[-84.89974,36.15079],[-84.8975,36.14718],[-84.8972,36.14695],[-84.89651,36.14685],[-84.89541,36.14709],[-84.89393,36.14686],[-84.89301,36.14631],[-84.89062,36.14571],[-84.88694,36.14603],[-84.88516,36.14566],[-84.88347,36.1451],[-84.88225,36.14435],[-84.88155,36.14363],[-84.88001,36.14174],[-84.87877,36.1396],[-84.87759,36.13846],[-84.87495,36.13727],[-84.87362,36.1369],[-84.8729,36.13687],[-84.87234,36.13741],[-84.87159,36.13733],[-84.86989,36.13643],[-84.8686,36.13446],[-84.86752,36.13368],[-84.86684,36.13342],[-84.86477,36.13312],[-84.86283,36.13208],[-84.86262,36.13183],[-84.86245,36.13022],[-84.86199,36.12958],[-84.86157,36.12847],[-84.86189,36.1257],[-84.86143,36.12467],[-84.861,36.1244],[-84.86053,36.12436],[-84.85935,36.12437],[-84.85852,36.12471],[-84.85814,36.1247],[-84.85718,36.12435],[-84.85587,36.12343],[-84.85431,36.12279],[-84.85279,36.12165],[-84.85211,36.12079],[-84.85188,36.11988],[-84.85209,36.11928],[-84.85166,36.11852],[-84.85097,36.11805],[-84.8477,36.11736],[-84.84733,36.11707],[-84.84638,36.11511],[-84.84575,36.11472],[-84.84413,36.1148],[-84.84344,36.11532],[-84.84284,36.11548],[-84.84141,36.1155],[-84.83996,36.11628],[-84.83967,36.11835],[-84.83749,36.12108],[-84.83704,36.12252],[-84.83687,36.12274],[-84.83618,36.12289],[-84.83438,36.12295],[-84.83252,36.12252],[-84.83061,36.12271],[-84.82896,36.12199],[-84.82761,36.12171],[-84.82578,36.1207],[-84.82478,36.12035],[-84.82384,36.1201],[-84.82159,36.11991],[-84.82141,36.12038],[-84.82025,36.12048],[-84.81549,36.1202],[-84.81411,36.12077],[-84.81175,36.12278],[-84.81094,36.12288],[-84.8107,36.12276],[-84.81052,36.12239],[-84.81,36.12062],[-84.80744,36.1186],[-84.80675,36.11843],[-84.80605,36.11865],[-84.80579,36.11914],[-84.80465,36.11932],[-84.80161,36.12062],[-84.80047,36.12093],[-84.79719,36.1208],[-84.7969,36.12091],[-84.79598,36.12192],[-84.79541,36.12273],[-84.79391,36.12317],[-84.79304,36.1231],[-84.79207,36.12273],[-84.79074,36.12131],[-84.78941,36.12118],[-84.7888,36.12145],[-84.78688,36.12284],[-84.78613,36.12507],[-84.7861,36.12589],[-84.78536,36.12693],[-84.78439,36.12726],[-84.78252,36.12749],[-84.78202,36.12718],[-84.78062,36.12559],[-84.7795,36.12544],[-84.77848,36.12607],[-84.77737,36.12786],[-84.77679,36.12846],[-84.775,36.12953],[-84.77434,36.12971],[-84.77345,36.12965],[-84.77285,36.12939],[-84.77172,36.12812],[-84.77121,36.12688],[-84.77,36.1257],[-84.76949,36.1254],[-84.76869,36.12516],[-84.76645,36.12519],[-84.76401,36.12473],[-84.76264,36.12433],[-84.76128,36.1237],[-84.75963,36.12265],[-84.75838,36.12243],[-84.75766,36.12251],[-84.7565,36.12323],[-84.75385,36.12399],[-84.75327,36.12436],[-84.753,36.12474],[-84.75296,36.12564],[-84.75321,36.12633],[-84.75428,36.12767],[-84.75557,36.12836],[-84.7558,36.12862],[-84.75574,36.12925],[-84.7555,36.12957],[-84.75476,36.12988],[-84.75426,36.12984],[-84.75365,36.1296],[-84.75258,36.12877],[-84.75192,36.12861],[-84.749,36.12869],[-84.74781,36.12822],[-84.74548,36.12631],[-84.74515,36.12581],[-84.74503,36.12508],[-84.74595,36.12185],[-84.74601,36.12105],[-84.74588,36.12066],[-84.74469,36.11902],[-84.7441,36.11883],[-84.74301,36.11886],[-84.74044,36.11841],[-84.73962,36.11794],[-84.73748,36.11598],[-84.73532,36.11487],[-84.73461,36.11472],[-84.73423,36.11476],[-84.73307,36.11606],[-84.73295,36.11638],[-84.7321,36.11712],[-84.72871,36.11762],[-84.72756,36.11714],[-84.7271,36.11639],[-84.7265,36.11341],[-84.72663,36.11203],[-84.72645,36.1113],[-84.72569,36.11047],[-84.72511,36.10942],[-84.72155,36.10694],[-84.72023,36.10578],[-84.71879,36.104],[-84.71725,36.10253],[-84.718,36.10331],[-84.71693,36.10176],[-84.71671,36.10103],[-84.71587,36.09993],[-84.71532,36.09966],[-84.71232,36.09921],[-84.71122,36.09882],[-84.70986,36.09795],[-84.70851,36.09643],[-84.70862,36.09552],[-84.70932,36.09358],[-84.70914,36.09305],[-84.70839,36.09248],[-84.70749,36.0923],[-84.70645,36.09278],[-84.70462,36.09325],[-84.70358,36.09295],[-84.70174,36.09268],[-84.70104,36.09232],[-84.69957,36.09116],[-84.69834,36.09096]]]}}
