{"type":"Feature","properties":{"id":"pine-creek-dekalb","name":"Pine Creek (DeKalb County)","waterbodyType":"creek","throughLakeIds":["center-hill-lake"],"allowOpenEnds":false,"source":"nhd-hu8-05130108","approximate":false,"labelAnchor":[-85.81856,35.91035],"bounds":[-85.86428,35.90245,-85.71185,35.94827],"crs":"EPSG:4326","coordinateOrder":"longitude,latitude","partCount":1,"vertexCount":200,"lengthKm":23.06,"sourceIds":["136990532","136990534","136983520","136983529","136983556","136983547","136983538","136983574","136983565","136983593","136983583","136990533","136990530","136990531","136990529","136990528","136990527","136994391","136994388","136994389","136994390","136994402","136994401","136994403","136994404","136994405","136994406","136993862","136993545","136993538","136993539","136993540","136993541","136993542","136993543","136993544"],"sourceRetrieved":"2026-09-11","geometrySource":"nhd","hu8":"05130108","simplification":{"toleranceM":10,"verticesBefore":1819,"verticesAfter":200,"budgetBytes":81920},"trace":{"anchor":{"lat":35.9104,"lon":-85.8186,"snapDistM":6.7},"up":{"spec":"headwater","reason":"headwater","terminus":[-85.862523,35.948265],"distKmFromAnchor":7.91},"down":{"spec":"mouth","reason":"name-change","terminus":[-85.711853,35.910494],"enteredNames":["Caney Fork"],"distKmFromAnchor":15.41},"vaaUsed":false,"toleranceM":12}},"geometry":{"type":"MultiLineString","coordinates":[[[-85.86252,35.94827],[-85.86282,35.94612],[-85.86327,35.94521],[-85.86335,35.94437],[-85.86407,35.94274],[-85.86428,35.94132],[-85.86265,35.94004],[-85.86127,35.93856],[-85.86023,35.93815],[-85.85975,35.93773],[-85.85937,35.93725],[-85.8587,35.93572],[-85.85857,35.93444],[-85.85733,35.93343],[-85.8565,35.93135],[-85.85671,35.93055],[-85.85669,35.92975],[-85.85768,35.9272],[-85.8574,35.92607],[-85.85703,35.92563],[-85.85658,35.92444],[-85.8558,35.92362],[-85.85425,35.92268],[-85.85286,35.92141],[-85.85124,35.92076],[-85.85032,35.91939],[-85.84969,35.91937],[-85.84892,35.91963],[-85.84812,35.9189],[-85.84657,35.91887],[-85.84539,35.91846],[-85.8439,35.91738],[-85.84268,35.91725],[-85.84201,35.91696],[-85.84075,35.91604],[-85.84057,35.91536],[-85.84025,35.91509],[-85.83953,35.91484],[-85.83769,35.9147],[-85.83577,35.91522],[-85.83399,35.9148],[-85.833,35.91534],[-85.83214,35.91551],[-85.83042,35.91483],[-85.82998,35.91511],[-85.82959,35.91572],[-85.82991,35.91701],[-85.82984,35.91766],[-85.82956,35.91808],[-85.82894,35.91855],[-85.82792,35.91739],[-85.82642,35.91717],[-85.82472,35.9172],[-85.82439,35.91671],[-85.82302,35.91586],[-85.82214,35.91468],[-85.82096,35.91375],[-85.82077,35.91318],[-85.82121,35.91249],[-85.82121,35.91212],[-85.82095,35.91165],[-85.82022,35.91115],[-85.81981,35.91052],[-85.81856,35.91035],[-85.81654,35.90983],[-85.8138,35.90887],[-85.81279,35.90826],[-85.81145,35.90689],[-85.8114,35.90598],[-85.81083,35.90599],[-85.81005,35.90545],[-85.80956,35.90546],[-85.80842,35.90599],[-85.80744,35.90513],[-85.807,35.90495],[-85.80619,35.90484],[-85.80542,35.90499],[-85.80501,35.90485],[-85.80449,35.90493],[-85.80392,35.90516],[-85.8031,35.90594],[-85.80226,35.90722],[-85.80049,35.90813],[-85.80009,35.90814],[-85.79777,35.90725],[-85.79641,35.90617],[-85.79458,35.90531],[-85.79424,35.90536],[-85.79364,35.90585],[-85.79289,35.90614],[-85.78975,35.90692],[-85.78834,35.90572],[-85.7866,35.9046],[-85.78497,35.90373],[-85.78427,35.90353],[-85.78379,35.90365],[-85.78349,35.90414],[-85.78408,35.90534],[-85.78399,35.906],[-85.78366,35.90607],[-85.78194,35.90583],[-85.78128,35.90539],[-85.78078,35.90399],[-85.77978,35.90281],[-85.77876,35.90247],[-85.77777,35.90245],[-85.77492,35.90364],[-85.77502,35.90404],[-85.77616,35.90498],[-85.77669,35.90582],[-85.77666,35.90648],[-85.77621,35.90703],[-85.77608,35.90779],[-85.77575,35.90802],[-85.77486,35.90818],[-85.77413,35.90802],[-85.77341,35.90679],[-85.77283,35.90642],[-85.7725,35.90648],[-85.77242,35.90686],[-85.7717,35.90769],[-85.77118,35.90796],[-85.77068,35.90768],[-85.76964,35.90669],[-85.76853,35.90629],[-85.76813,35.90634],[-85.76788,35.90688],[-85.76824,35.90822],[-85.76791,35.90952],[-85.76807,35.91084],[-85.76778,35.91098],[-85.76674,35.9107],[-85.76598,35.9108],[-85.76576,35.91118],[-85.76566,35.9126],[-85.76524,35.91363],[-85.76503,35.9138],[-85.76373,35.91396],[-85.76176,35.91382],[-85.76049,35.91347],[-85.75859,35.91218],[-85.75842,35.91178],[-85.7585,35.91144],[-85.76014,35.91009],[-85.76008,35.90971],[-85.75978,35.9094],[-85.75926,35.90944],[-85.75888,35.90972],[-85.75828,35.91068],[-85.75576,35.91083],[-85.75438,35.91146],[-85.75365,35.91159],[-85.75046,35.91106],[-85.74994,35.91065],[-85.74957,35.90961],[-85.74927,35.9094],[-85.74642,35.90917],[-85.74584,35.909],[-85.74515,35.90838],[-85.74503,35.90787],[-85.74555,35.90669],[-85.74632,35.90575],[-85.74617,35.90507],[-85.7453,35.90497],[-85.74438,35.90531],[-85.74379,35.90579],[-85.74284,35.90579],[-85.74216,35.90524],[-85.74111,35.90369],[-85.74031,35.90334],[-85.73915,35.90355],[-85.73847,35.90446],[-85.73792,35.90639],[-85.73796,35.90817],[-85.73721,35.90915],[-85.73632,35.90908],[-85.73493,35.90845],[-85.73368,35.90817],[-85.73261,35.90819],[-85.73168,35.9088],[-85.73091,35.90908],[-85.72994,35.90905],[-85.72922,35.90859],[-85.72869,35.9073],[-85.72802,35.90676],[-85.72719,35.90634],[-85.72592,35.90614],[-85.7247,35.90656],[-85.72443,35.90736],[-85.7246,35.9084],[-85.72361,35.90956],[-85.72295,35.90973],[-85.72209,35.90951],[-85.72166,35.90932],[-85.72109,35.90875],[-85.71966,35.90829],[-85.71758,35.90788],[-85.71517,35.9078],[-85.71387,35.9085],[-85.71185,35.91049]]]}}
