{"type":"Feature","properties":{"id":"north-chickamauga-creek","name":"North Chickamauga Creek","waterbodyType":"creek","throughLakeIds":[],"allowOpenEnds":false,"source":"nhd-hu8-06020001","approximate":false,"labelAnchor":[-85.21524,35.21122],"bounds":[-85.403,35.10572,-85.21312,35.26729],"crs":"EPSG:4326","coordinateOrder":"longitude,latitude","partCount":1,"vertexCount":434,"lengthKm":57.7,"sourceIds":["139285671","139285658","139285657","139285659","139276695","139276694","139276693","139276692","139280861","139276697","139276696","139276698","139276708","139276709","139276729","139276730","139276731","139276732","139276733","139276734","139276735","139276736","139276738","139276737","139276740","139276739","139276742","139276741","139276744","139276743","139276750","139276752","139276751","139276749","139276748","139276747","139276746","139276745","139285672","139285674","139285675","139285654","139285655","139285656","139285652","139285653","139285650","139285651","139285645","139285648","139285646","139285647","139285649","139285644","139285641","139285642","139285643","139285636","139285637","139285638","139285639","139285640","139285978"],"sourceRetrieved":"2026-09-11","geometrySource":"nhd","hu8":"06020001","simplification":{"toleranceM":10,"verticesBefore":2937,"verticesAfter":434,"budgetBytes":81920},"trace":{"anchor":{"lat":35.2112,"lon":-85.2152,"snapDistM":3.9},"up":{"spec":"headwater","reason":"headwater","terminus":[-85.403003,35.245697],"distKmFromAnchor":31.58},"down":{"spec":"mouth","reason":"name-change","terminus":[-85.232518,35.105719],"enteredNames":["Tennessee River"],"distKmFromAnchor":25.95},"vaaUsed":false,"toleranceM":12}},"geometry":{"type":"MultiLineString","coordinates":[[[-85.403,35.2457],[-85.40167,35.24487],[-85.40078,35.24402],[-85.3997,35.24367],[-85.3995,35.24347],[-85.39928,35.24295],[-85.39927,35.24205],[-85.39856,35.24137],[-85.39725,35.23863],[-85.39648,35.23773],[-85.39623,35.23691],[-85.39454,35.23498],[-85.3938,35.23351],[-85.39373,35.2332],[-85.39422,35.23102],[-85.39353,35.2304],[-85.39272,35.22889],[-85.39076,35.22709],[-85.38984,35.22676],[-85.38811,35.22548],[-85.38778,35.22444],[-85.38688,35.22302],[-85.38679,35.22242],[-85.38705,35.22181],[-85.38691,35.22124],[-85.38566,35.22064],[-85.38538,35.21988],[-85.38454,35.21915],[-85.38313,35.21715],[-85.382,35.21683],[-85.38159,35.21591],[-85.37996,35.21487],[-85.37957,35.21501],[-85.37942,35.21588],[-85.37921,35.21619],[-85.37754,35.21591],[-85.37496,35.21611],[-85.37439,35.21638],[-85.3739,35.21736],[-85.37366,35.21749],[-85.37302,35.21715],[-85.37238,35.21622],[-85.37188,35.21689],[-85.37154,35.21799],[-85.37079,35.21849],[-85.36929,35.21877],[-85.36813,35.21928],[-85.36669,35.21925],[-85.3654,35.22037],[-85.36435,35.22048],[-85.36119,35.22012],[-85.36077,35.21958],[-85.36061,35.21841],[-85.36031,35.21817],[-85.3585,35.21851],[-85.3581,35.2189],[-85.35662,35.21916],[-85.35433,35.21842],[-85.35408,35.21801],[-85.35404,35.21709],[-85.35376,35.2169],[-85.3532,35.21683],[-85.35215,35.21756],[-85.35151,35.21769],[-85.35112,35.2171],[-85.35077,35.21587],[-85.34995,35.21524],[-85.34909,35.21509],[-85.34869,35.21477],[-85.34704,35.21494],[-85.34483,35.21418],[-85.34398,35.21416],[-85.34281,35.21458],[-85.34086,35.21476],[-85.34067,35.21497],[-85.34057,35.21559],[-85.34017,35.21598],[-85.33976,35.21611],[-85.33875,35.21575],[-85.33825,35.21502],[-85.33811,35.21445],[-85.33709,35.21413],[-85.33582,35.21433],[-85.33492,35.21408],[-85.33307,35.21322],[-85.33199,35.21352],[-85.33062,35.21492],[-85.32965,35.21527],[-85.32747,35.2151],[-85.32635,35.21581],[-85.32562,35.21596],[-85.32335,35.21546],[-85.32244,35.21545],[-85.322,35.21564],[-85.32181,35.21661],[-85.32134,35.21703],[-85.32074,35.21714],[-85.31992,35.21669],[-85.31833,35.21706],[-85.31756,35.21815],[-85.3175,35.2187],[-85.31697,35.21922],[-85.31691,35.22016],[-85.31707,35.22086],[-85.31673,35.22135],[-85.31597,35.22169],[-85.31389,35.22125],[-85.31325,35.22146],[-85.31308,35.22202],[-85.31318,35.22243],[-85.3141,35.2233],[-85.31439,35.22429],[-85.31409,35.22455],[-85.31203,35.22503],[-85.31137,35.22536],[-85.31162,35.22589],[-85.31232,35.22643],[-85.3134,35.2269],[-85.31362,35.22755],[-85.31332,35.22819],[-85.31241,35.22869],[-85.31055,35.22935],[-85.31003,35.22999],[-85.31006,35.23053],[-85.3112,35.23219],[-85.31139,35.23304],[-85.30971,35.23708],[-85.30964,35.23821],[-85.30996,35.23917],[-85.30988,35.24112],[-85.30946,35.24257],[-85.30906,35.24303],[-85.30826,35.2431],[-85.30706,35.24156],[-85.30652,35.24126],[-85.30529,35.24162],[-85.29972,35.24226],[-85.29903,35.24253],[-85.29697,35.24412],[-85.29587,35.24465],[-85.29512,35.24464],[-85.29357,35.24426],[-85.29287,35.24442],[-85.29264,35.24482],[-85.29282,35.24589],[-85.29263,35.24687],[-85.29203,35.24767],[-85.29122,35.24828],[-85.28851,35.24947],[-85.28774,35.25037],[-85.28723,35.25069],[-85.28684,35.25075],[-85.28502,35.25022],[-85.28167,35.25152],[-85.28128,35.25205],[-85.28137,35.2529],[-85.28181,35.25376],[-85.28238,35.25438],[-85.28229,35.25478],[-85.28147,35.25514],[-85.28018,35.25633],[-85.27835,35.25859],[-85.27735,35.25886],[-85.27624,35.26044],[-85.27544,35.26105],[-85.27421,35.26327],[-85.27366,35.26341],[-85.27269,35.26337],[-85.26995,35.26285],[-85.26882,35.26326],[-85.26843,35.26403],[-85.2689,35.26543],[-85.26891,35.26612],[-85.26857,35.2666],[-85.26807,35.26689],[-85.26435,35.26729],[-85.26338,35.26705],[-85.26309,35.26646],[-85.26327,35.26547],[-85.26286,35.2639],[-85.26225,35.26304],[-85.2615,35.26268],[-85.25979,35.26248],[-85.25825,35.26315],[-85.25776,35.26322],[-85.25686,35.26318],[-85.25632,35.26282],[-85.2561,35.26227],[-85.2562,35.26193],[-85.25678,35.26111],[-85.25765,35.25925],[-85.25725,35.25701],[-85.25796,35.25492],[-85.25776,35.25442],[-85.25614,35.25302],[-85.25596,35.25251],[-85.25596,35.25174],[-85.25677,35.24944],[-85.2568,35.24888],[-85.2565,35.24825],[-85.25587,35.24795],[-85.25457,35.24798],[-85.24976,35.24719],[-85.24735,35.24737],[-85.24654,35.24765],[-85.24279,35.24969],[-85.23927,35.24871],[-85.23891,35.24842],[-85.23857,35.24807],[-85.23834,35.24707],[-85.23675,35.24546],[-85.23607,35.24434],[-85.23617,35.24364],[-85.23695,35.24251],[-85.23721,35.24122],[-85.23713,35.24057],[-85.23635,35.23973],[-85.23455,35.23592],[-85.23395,35.23508],[-85.23129,35.22981],[-85.22839,35.22691],[-85.22777,35.22654],[-85.2271,35.22641],[-85.22548,35.2255],[-85.22475,35.22467],[-85.22315,35.22375],[-85.22205,35.22289],[-85.22154,35.22222],[-85.2204,35.2195],[-85.2192,35.21781],[-85.21725,35.21548],[-85.21488,35.21384],[-85.21471,35.21351],[-85.2149,35.21182],[-85.21555,35.21085],[-85.2162,35.21032],[-85.21818,35.20936],[-85.21524,35.21122],[-85.21836,35.20912],[-85.21948,35.20778],[-85.22046,35.20708],[-85.22321,35.20642],[-85.22465,35.20551],[-85.22967,35.19934],[-85.23059,35.19842],[-85.23225,35.19733],[-85.23285,35.19672],[-85.23328,35.19536],[-85.23554,35.19399],[-85.23592,35.19329],[-85.23626,35.19302],[-85.23676,35.19303],[-85.23755,35.19346],[-85.23845,35.19345],[-85.23914,35.19221],[-85.23898,35.19103],[-85.23931,35.19101],[-85.24028,35.19145],[-85.24035,35.18996],[-85.24064,35.18994],[-85.24146,35.19038],[-85.24182,35.19011],[-85.24144,35.18947],[-85.24056,35.18892],[-85.24048,35.18846],[-85.24076,35.18747],[-85.23981,35.18681],[-85.23984,35.18607],[-85.23877,35.1858],[-85.23905,35.18463],[-85.24001,35.18318],[-85.23973,35.18282],[-85.23895,35.1831],[-85.23866,35.18299],[-85.23876,35.18205],[-85.23826,35.18112],[-85.23833,35.18093],[-85.2388,35.18075],[-85.23872,35.18042],[-85.23772,35.17958],[-85.23621,35.17866],[-85.23483,35.17732],[-85.23406,35.1769],[-85.23293,35.17652],[-85.23073,35.17632],[-85.22929,35.1758],[-85.228,35.17556],[-85.22741,35.17185],[-85.22715,35.17109],[-85.22706,35.16955],[-85.22679,35.16896],[-85.22549,35.16888],[-85.22465,35.16906],[-85.22175,35.16918],[-85.2182,35.17021],[-85.21738,35.17074],[-85.21692,35.17082],[-85.2154,35.17073],[-85.21344,35.16991],[-85.21312,35.16951],[-85.21395,35.16857],[-85.2144,35.16597],[-85.21532,35.1644],[-85.21547,35.16368],[-85.21594,35.16311],[-85.2161,35.16259],[-85.21662,35.16273],[-85.21741,35.16334],[-85.22034,35.16672],[-85.22086,35.16782],[-85.22115,35.16794],[-85.22185,35.16776],[-85.22249,35.16723],[-85.22671,35.16505],[-85.22754,35.16432],[-85.22828,35.1632],[-85.22826,35.16292],[-85.22701,35.16241],[-85.22569,35.16145],[-85.22498,35.1602],[-85.22502,35.15876],[-85.22591,35.15742],[-85.22594,35.15667],[-85.22629,35.15611],[-85.22697,35.15579],[-85.22892,35.15556],[-85.22916,35.15532],[-85.22911,35.15494],[-85.22878,35.15472],[-85.22726,35.15459],[-85.22688,35.15443],[-85.22683,35.15425],[-85.22775,35.15322],[-85.22784,35.1523],[-85.22825,35.15157],[-85.23105,35.15083],[-85.2319,35.14991],[-85.23181,35.14963],[-85.2315,35.14951],[-85.22951,35.14963],[-85.22924,35.14946],[-85.22922,35.14919],[-85.22964,35.14842],[-85.23097,35.14805],[-85.2305,35.14725],[-85.23072,35.14674],[-85.23113,35.14685],[-85.23153,35.14747],[-85.23182,35.1475],[-85.2321,35.14734],[-85.23223,35.14688],[-85.23188,35.14574],[-85.23291,35.1457],[-85.23306,35.1454],[-85.23181,35.14469],[-85.23028,35.14465],[-85.22894,35.14426],[-85.2285,35.14427],[-85.22715,35.14594],[-85.2264,35.14656],[-85.22414,35.14761],[-85.21977,35.14921],[-85.21831,35.14992],[-85.21754,35.15017],[-85.21705,35.15017],[-85.2154,35.14941],[-85.21508,35.14905],[-85.21511,35.14878],[-85.21585,35.14797],[-85.21546,35.14666],[-85.21618,35.14631],[-85.21672,35.14548],[-85.21638,35.14506],[-85.21487,35.14521],[-85.21466,35.1451],[-85.21495,35.1443],[-85.21476,35.14378],[-85.21493,35.1435],[-85.21728,35.1431],[-85.21756,35.14283],[-85.21786,35.14197],[-85.21874,35.14147],[-85.22155,35.14155],[-85.22418,35.14205],[-85.22582,35.14213],[-85.22689,35.14155],[-85.22762,35.14136],[-85.22798,35.14006],[-85.22712,35.1393],[-85.2275,35.13859],[-85.22768,35.13748],[-85.22757,35.13703],[-85.22635,35.13598],[-85.22591,35.13495],[-85.22538,35.13443],[-85.22425,35.13397],[-85.22069,35.13316],[-85.21695,35.1318],[-85.21543,35.13112],[-85.2153,35.13047],[-85.21557,35.12773],[-85.21698,35.12687],[-85.21747,35.12689],[-85.21879,35.1282],[-85.21979,35.12894],[-85.22093,35.12936],[-85.22196,35.1294],[-85.22496,35.12812],[-85.22706,35.12657],[-85.2279,35.12575],[-85.22811,35.12506],[-85.22799,35.12443],[-85.22782,35.12378],[-85.22738,35.12332],[-85.22693,35.12332],[-85.22632,35.12377],[-85.2251,35.12631],[-85.22487,35.12653],[-85.2244,35.12661],[-85.22338,35.12634],[-85.22055,35.12468],[-85.21985,35.12383],[-85.21971,35.12324],[-85.22261,35.11897],[-85.22908,35.11468],[-85.22928,35.11423],[-85.22919,35.11335],[-85.22848,35.11182],[-85.22767,35.11094],[-85.22754,35.11031],[-85.22763,35.10972],[-85.22819,35.10914],[-85.23137,35.10703],[-85.23252,35.10572]]]}}
