{"type":"Feature","properties":{"id":"cumberland-river","name":"Cumberland River","waterbodyType":"river","throughLakeIds":[],"allowOpenEnds":false,"source":"nhd-hu8-05130202","approximate":false,"labelAnchor":[-86.71284,36.23721],"bounds":[-87.17044,36.13543,-86.63895,36.31173],"crs":"EPSG:4326","coordinateOrder":"longitude,latitude","partCount":1,"vertexCount":312,"lengthKm":108.13,"sourceIds":["47451995","47451587","47451479","47451539","47451701","47451757","47451897","47451917","47452121","47452183","47452267","47452381","47452375","47452305","47452065","47452005","47451939","47451535","47451339","47451297","47450875","47450829","47450693","47450711","47452135","47452245","47452309","47452373","47452667","47452701","47452807","47452831","47452867","47452873","47452879","47452915","47452991","47452523","47452435","47452417","47452665","47452929","47452965","47452849","47452695","47452565","47452649","47452709","47452863","47452895","47452945","47453035","47453085","47453263","47453291","47453339","47453347","47453331","47453311","47453221","47453135","47453055","47453047","47453029","47452959","47452647","47452621","47452589","47452573","47452571","47452555","47452513","47452509","47452497","47452473","47452443","47452283","47452191","47452143","47452045","47451965","47451925","47451905","47451739","47451593","47451551","47451385","47451329","47451163","{1CBEDFEF-67AA-4411-BC6B-E6657B497F20}","{03581838-20E6-4851-A241-EC62D4E9E776}","{D03C2636-B31D-4C81-9965-DC3187A3C424}","58813891"],"sourceRetrieved":"2026-09-11","geometrySource":"nhd","hu8":"05130202","simplification":{"toleranceM":10,"verticesBefore":726,"verticesAfter":312,"budgetBytes":81920},"trace":{"anchor":{"lat":36.2372,"lon":-86.7128,"snapDistM":3.8},"up":{"spec":"headwater","reason":"headwater","terminus":[-86.655859,36.296641],"distKmFromAnchor":28.04},"down":{"spec":"confluence:Lake Barkley","reason":"terminal-node","terminus":[-87.170445,36.311726],"enteredNames":null,"distKmFromAnchor":75.93},"vaaUsed":false,"toleranceM":12}},"geometry":{"type":"MultiLineString","coordinates":[[[-86.65586,36.29664],[-86.65775,36.29724],[-86.66139,36.29902],[-86.66274,36.29953],[-86.67016,36.30106],[-86.67186,36.301],[-86.67255,36.30082],[-86.67524,36.29976],[-86.67623,36.29921],[-86.67812,36.29768],[-86.67965,36.2961],[-86.68437,36.29006],[-86.6858,36.2886],[-86.68673,36.28705],[-86.68715,36.28443],[-86.68683,36.28073],[-86.68642,36.27853],[-86.68482,36.27489],[-86.68129,36.26857],[-86.68029,36.2673],[-86.67466,36.26244],[-86.6732,36.26048],[-86.67154,36.25775],[-86.66998,36.25596],[-86.66689,36.25379],[-86.6633,36.25157],[-86.6611,36.24959],[-86.66016,36.24826],[-86.66002,36.24774],[-86.65862,36.24535],[-86.65708,36.24351],[-86.65333,36.23968],[-86.64997,36.23668],[-86.64882,36.23511],[-86.64722,36.23228],[-86.64517,36.22785],[-86.64375,36.22351],[-86.64289,36.21989],[-86.64191,36.21689],[-86.63906,36.21034],[-86.63895,36.20875],[-86.63909,36.20811],[-86.64064,36.20586],[-86.64372,36.20262],[-86.64598,36.20055],[-86.65031,36.1976],[-86.65288,36.19621],[-86.6572,36.19425],[-86.65967,36.1936],[-86.66278,36.19306],[-86.66354,36.19279],[-86.66538,36.19276],[-86.66712,36.19287],[-86.66874,36.1936],[-86.67196,36.19751],[-86.67269,36.19901],[-86.67317,36.20053],[-86.67558,36.20438],[-86.6763,36.20591],[-86.67665,36.20828],[-86.67677,36.21157],[-86.67755,36.21821],[-86.6775,36.2242],[-86.6776,36.22626],[-86.67787,36.22783],[-86.67927,36.23152],[-86.68221,36.23738],[-86.68306,36.24007],[-86.68414,36.24211],[-86.68534,36.24339],[-86.68729,36.24453],[-86.69001,36.2457],[-86.69216,36.24631],[-86.69503,36.24624],[-86.70334,36.24539],[-86.70565,36.24461],[-86.70857,36.24266],[-86.71072,36.24065],[-86.7115,36.24013],[-86.71276,36.23757],[-86.71288,36.23665],[-86.71238,36.2334],[-86.71158,36.23154],[-86.70864,36.22606],[-86.70727,36.22093],[-86.70686,36.2187],[-86.71284,36.23721],[-86.70661,36.21793],[-86.70504,36.21512],[-86.70431,36.21413],[-86.70077,36.21027],[-86.69848,36.20652],[-86.69614,36.20208],[-86.69128,36.195],[-86.69025,36.19318],[-86.68998,36.19217],[-86.68991,36.19142],[-86.69011,36.1904],[-86.69085,36.18894],[-86.69356,36.18567],[-86.70073,36.17966],[-86.70269,36.17733],[-86.70444,36.17484],[-86.70683,36.17211],[-86.70855,36.17047],[-86.71298,36.16721],[-86.7151,36.16622],[-86.71962,36.16507],[-86.7205,36.16471],[-86.72269,36.16434],[-86.72821,36.16413],[-86.72988,36.16422],[-86.73367,36.16392],[-86.7406,36.16292],[-86.74408,36.1621],[-86.74673,36.16121],[-86.74866,36.16074],[-86.7609,36.15897],[-86.76542,36.15895],[-86.76765,36.15968],[-86.77088,36.16128],[-86.77294,36.16272],[-86.77342,36.1634],[-86.77405,36.16389],[-86.77465,36.16468],[-86.77588,36.16778],[-86.78035,36.17521],[-86.78163,36.17961],[-86.7825,36.18708],[-86.78203,36.18787],[-86.78216,36.19001],[-86.78276,36.19098],[-86.78303,36.19211],[-86.78367,36.19367],[-86.78579,36.19676],[-86.7874,36.19815],[-86.78967,36.19949],[-86.79342,36.20101],[-86.79747,36.2018],[-86.80569,36.20253],[-86.80988,36.20226],[-86.81181,36.20194],[-86.81425,36.20123],[-86.81582,36.20062],[-86.81922,36.19891],[-86.82047,36.19815],[-86.82382,36.19552],[-86.82706,36.19216],[-86.82911,36.18961],[-86.82996,36.18812],[-86.83067,36.18657],[-86.83349,36.17606],[-86.83432,36.17417],[-86.83565,36.17188],[-86.83776,36.1689],[-86.8391,36.16761],[-86.84037,36.16694],[-86.84273,36.16658],[-86.84399,36.1666],[-86.84611,36.16689],[-86.84898,36.16772],[-86.85054,36.16835],[-86.85295,36.16966],[-86.85626,36.17207],[-86.85978,36.17535],[-86.86349,36.17959],[-86.87037,36.19038],[-86.87258,36.19353],[-86.8751,36.19617],[-86.88017,36.20011],[-86.88351,36.2024],[-86.88637,36.20401],[-86.8907,36.20581],[-86.89434,36.2067],[-86.89686,36.20704],[-86.90077,36.20687],[-86.9022,36.20644],[-86.90365,36.20573],[-86.90603,36.2039],[-86.90764,36.20214],[-86.91046,36.19829],[-86.91223,36.19499],[-86.91273,36.19354],[-86.91308,36.19088],[-86.91302,36.18988],[-86.91266,36.18841],[-86.91123,36.18575],[-86.90687,36.18104],[-86.90338,36.1767],[-86.90098,36.17525],[-86.89677,36.172],[-86.89422,36.16973],[-86.89155,36.16702],[-86.88928,36.1639],[-86.88867,36.16269],[-86.88835,36.16191],[-86.88777,36.1587],[-86.8894,36.1497],[-86.89152,36.14412],[-86.89246,36.14241],[-86.89464,36.14012],[-86.89644,36.13862],[-86.89872,36.13713],[-86.90139,36.1362],[-86.90411,36.13563],[-86.90634,36.13543],[-86.90897,36.13561],[-86.91278,36.13639],[-86.91425,36.13651],[-86.91564,36.13691],[-86.92005,36.13745],[-86.92208,36.1379],[-86.92481,36.13904],[-86.9266,36.14017],[-86.92778,36.14115],[-86.9293,36.1429],[-86.93054,36.14468],[-86.93315,36.14766],[-86.93523,36.14977],[-86.93748,36.15155],[-86.93893,36.15309],[-86.93963,36.15413],[-86.94018,36.1556],[-86.94046,36.15891],[-86.94173,36.16569],[-86.94183,36.17728],[-86.9419,36.17852],[-86.94227,36.18014],[-86.94244,36.18399],[-86.94223,36.18598],[-86.94171,36.18815],[-86.94136,36.19228],[-86.94134,36.19487],[-86.94213,36.19801],[-86.94306,36.19931],[-86.94823,36.20384],[-86.95004,36.20464],[-86.95211,36.20531],[-86.95432,36.20555],[-86.95811,36.2063],[-86.96593,36.20815],[-86.96855,36.20847],[-86.97045,36.20824],[-86.97618,36.20842],[-86.98428,36.20968],[-86.98521,36.21005],[-86.99133,36.21093],[-87.00022,36.21359],[-87.00725,36.21622],[-87.01348,36.21894],[-87.01545,36.22],[-87.02307,36.22476],[-87.02578,36.22679],[-87.0278,36.22841],[-87.03034,36.23091],[-87.0332,36.2345],[-87.03495,36.23636],[-87.03592,36.23669],[-87.037,36.23672],[-87.03721,36.23752],[-87.03778,36.23783],[-87.03893,36.23897],[-87.04467,36.24183],[-87.04712,36.24288],[-87.04834,36.24238],[-87.04893,36.24356],[-87.05416,36.24589],[-87.05714,36.24641],[-87.05704,36.24675],[-87.05723,36.24767],[-87.05786,36.24889],[-87.05903,36.24862],[-87.06025,36.24889],[-87.06566,36.25189],[-87.06901,36.25452],[-87.07111,36.25683],[-87.0726,36.25911],[-87.07322,36.26071],[-87.07572,36.2697],[-87.07651,36.27163],[-87.07753,36.27313],[-87.07866,36.27561],[-87.08008,36.27756],[-87.08115,36.27861],[-87.0837,36.28037],[-87.08673,36.28176],[-87.09441,36.28428],[-87.09948,36.28643],[-87.10106,36.28737],[-87.10384,36.28862],[-87.11028,36.29213],[-87.1106,36.29272],[-87.11131,36.29337],[-87.11544,36.29558],[-87.1165,36.29597],[-87.11782,36.29616],[-87.11952,36.29597],[-87.12476,36.29694],[-87.13042,36.29746],[-87.13401,36.29809],[-87.13715,36.29829],[-87.14039,36.29965],[-87.1466,36.30274],[-87.15209,36.3048],[-87.15267,36.30534],[-87.15441,36.30647],[-87.15658,36.30768],[-87.15919,36.30855],[-87.16099,36.30898],[-87.1665,36.30994],[-87.16915,36.31092],[-87.17044,36.31173]]]}}
