{"type":"Feature","properties":{"id":"new-river","name":"New River","waterbodyType":"river","throughLakeIds":[],"allowOpenEnds":false,"source":"nhd-hu8-05130104","approximate":false,"labelAnchor":[-84.55435,36.38558],"bounds":[-84.6236,36.12362,-84.32109,36.43385],"crs":"EPSG:4326","coordinateOrder":"longitude,latitude","partCount":1,"vertexCount":623,"lengthKm":93.78,"sourceIds":["38157488","38157494","38157497","38157513","38157515","38157521","38157638","38157697","38157713","38157712","38157630","38157616","38157525","38157438","38157439","38157432","38157369","38157323","38157299","38157294","38157069","38157004","38156968","38156984","38156982","38157052","38157240","38157326","38157444","38157421","38157393","38157158","38157146","38157131","38157384","38157485","38157546","38157577","38157724","38157776","38157878","38158020","38158091","38158192","38158183","38158251","38158248","38157985","38158042","38158034","38158028","38158045","38158066","38158074","38158116","38158235","38158250","38158260","38158281","38158396","38158402","38158452","38158458","38158479","38158715","38158735","38158732","38158728","38158733","38158793","38158914","38158965","38158972","38158988","38158987","38158963","38158960","38158934","38158930","38158947","38159045","38159073","38159117","38159144","38159203","38159276","38159315","38159384","38159399","38159424","38159463","38159505","38159619","38159621","38159630","38159648","38159638","38159631","38159601","38159599","38159606","38159633","38159671","38159715","38159792","38159946","38159976","38160029","38160037","38160048","38160055","38160057","38160110","38160240","38160276","38160292","38160451","38160501","38160577","38160585","38160593","38160604","38160625","38160715","38160738","38160773","38160787","38160822","38160861","38160875","38160892","38160933","38160939","38160953","38161003","38161006","38161052","38161059","38161071","38161113","38161124","38161127","38161135","38161148","38161182","38161199","38161236","38161280","38161323","38161325","38161341","38161371","38161392","38161398","38161406","38161395","38161400","38161403","38161412","38161414","38161416","38161427","38161432","38161430","38161436","38161448","38161446","38161443","38161441","38161440","38161377","38161363","38161350","38161309","38157454","38157417","38157401","38157319","38157289","38157193","38157251","38157278","38157281","38157338","38157360","38157386","38157379","38157364","38157315","38157309","38157219","38157160","38157145","38157122","38157114","38157095","38157025","38156849","38156815","38156729","38156708","38156716","38156717","38156746","38156837","38156876","38156879","38156873"],"sourceRetrieved":"2026-09-11","geometrySource":"nhd","hu8":"05130104","simplification":{"toleranceM":10,"verticesBefore":14136,"verticesAfter":623,"budgetBytes":81920},"trace":{"anchor":{"lat":36.3855,"lon":-84.5547,"snapDistM":32.9},"up":{"spec":"headwater","reason":"headwater","terminus":[-84.448977,36.148739],"distKmFromAnchor":80.37},"down":{"spec":"mouth","reason":"name-change","terminus":[-84.623596,36.424294],"enteredNames":["Big South Fork Cumberland River"],"distKmFromAnchor":14.07},"vaaUsed":false,"toleranceM":12}},"geometry":{"type":"MultiLineString","coordinates":[[[-84.44898,36.14874],[-84.44912,36.14815],[-84.44948,36.14767],[-84.45036,36.1456],[-84.45145,36.14454],[-84.45226,36.14343],[-84.4524,36.14244],[-84.45212,36.14202],[-84.45231,36.14097],[-84.45187,36.14048],[-84.45174,36.13969],[-84.45102,36.13797],[-84.44947,36.1369],[-84.44897,36.1368],[-84.44764,36.13594],[-84.44745,36.13551],[-84.4465,36.13502],[-84.44543,36.13374],[-84.44524,36.13322],[-84.44333,36.13214],[-84.44275,36.13141],[-84.44024,36.1305],[-84.43927,36.12965],[-84.43796,36.12925],[-84.43769,36.12871],[-84.43685,36.12792],[-84.43663,36.12716],[-84.43447,36.12536],[-84.43348,36.12508],[-84.43274,36.12468],[-84.43077,36.12426],[-84.43058,36.12398],[-84.42977,36.12368],[-84.42896,36.12362],[-84.42514,36.12468],[-84.42128,36.12529],[-84.41985,36.12532],[-84.41856,36.12492],[-84.41697,36.12497],[-84.41639,36.12519],[-84.41543,36.126],[-84.41365,36.12601],[-84.41343,36.12617],[-84.41346,36.12664],[-84.41279,36.12682],[-84.41114,36.12679],[-84.41048,36.12706],[-84.40926,36.12678],[-84.40821,36.12692],[-84.40724,36.12669],[-84.40643,36.12612],[-84.40539,36.12625],[-84.40442,36.12619],[-84.40325,36.12669],[-84.40181,36.12766],[-84.39925,36.12723],[-84.39847,36.12693],[-84.39813,36.12709],[-84.39756,36.12795],[-84.39592,36.12782],[-84.39537,36.12802],[-84.3945,36.12864],[-84.3931,36.12889],[-84.39229,36.12968],[-84.39071,36.13022],[-84.38967,36.13127],[-84.38954,36.13167],[-84.39005,36.1326],[-84.39003,36.133],[-84.38899,36.13425],[-84.38779,36.13508],[-84.38701,36.13634],[-84.38671,36.1375],[-84.3878,36.13809],[-84.38811,36.1388],[-84.38768,36.14025],[-84.3871,36.14135],[-84.38668,36.14201],[-84.38571,36.14291],[-84.38575,36.14495],[-84.38621,36.14617],[-84.38619,36.14663],[-84.38591,36.14711],[-84.3853,36.14737],[-84.38484,36.1485],[-84.38293,36.14977],[-84.38179,36.15263],[-84.3804,36.15287],[-84.37965,36.15316],[-84.37838,36.15315],[-84.37581,36.15549],[-84.37452,36.15637],[-84.37392,36.15664],[-84.37238,36.15695],[-84.37111,36.15749],[-84.37039,36.15859],[-84.36733,36.15893],[-84.36627,36.15992],[-84.36466,36.16029],[-84.36351,36.16092],[-84.36265,36.16228],[-84.36227,36.16324],[-84.36165,36.16382],[-84.3606,36.16371],[-84.35922,36.16469],[-84.35888,36.16476],[-84.35801,36.1646],[-84.35651,36.1653],[-84.35609,36.16514],[-84.35584,36.1647],[-84.35548,36.16451],[-84.35337,36.16464],[-84.3531,36.1649],[-84.35298,36.16535],[-84.35375,36.16627],[-84.35377,36.16667],[-84.35346,36.1669],[-84.35206,36.16725],[-84.35174,36.16757],[-84.3516,36.16873],[-84.35211,36.1704],[-84.35015,36.17083],[-84.34897,36.17048],[-84.34841,36.17049],[-84.34751,36.17115],[-84.34626,36.17175],[-84.34542,36.17257],[-84.34408,36.1728],[-84.34253,36.17355],[-84.34234,36.17382],[-84.3425,36.17439],[-84.34188,36.17454],[-84.34093,36.17527],[-84.34082,36.17594],[-84.34139,36.17673],[-84.34049,36.17774],[-84.34041,36.17853],[-84.34075,36.17913],[-84.34225,36.18042],[-84.34385,36.1825],[-84.34421,36.18335],[-84.34415,36.1838],[-84.34374,36.1839],[-84.34171,36.18367],[-84.34081,36.18523],[-84.33902,36.18641],[-84.33851,36.18699],[-84.33814,36.18782],[-84.33773,36.18819],[-84.3369,36.18847],[-84.3361,36.18795],[-84.33554,36.18802],[-84.33334,36.18994],[-84.33304,36.19041],[-84.33317,36.19097],[-84.33471,36.19177],[-84.33492,36.1928],[-84.33441,36.19396],[-84.33336,36.19486],[-84.33212,36.19543],[-84.32974,36.19605],[-84.32899,36.19668],[-84.32884,36.19791],[-84.32923,36.19857],[-84.32923,36.19934],[-84.32977,36.20187],[-84.32936,36.20315],[-84.32881,36.20363],[-84.32612,36.20526],[-84.32389,36.20739],[-84.32168,36.20909],[-84.32121,36.20988],[-84.32109,36.21042],[-84.32201,36.21109],[-84.32233,36.21119],[-84.32309,36.2111],[-84.32623,36.21197],[-84.32697,36.21233],[-84.32773,36.21316],[-84.32773,36.21375],[-84.32683,36.21472],[-84.32648,36.21537],[-84.32606,36.21736],[-84.32627,36.218],[-84.32636,36.22018],[-84.32707,36.2215],[-84.327,36.22202],[-84.32666,36.22242],[-84.32695,36.2234],[-84.32786,36.22375],[-84.32921,36.22478],[-84.32987,36.22507],[-84.33335,36.2253],[-84.336,36.22592],[-84.33673,36.22662],[-84.33703,36.2273],[-84.33763,36.22792],[-84.34063,36.2293],[-84.34225,36.23124],[-84.34203,36.23177],[-84.33967,36.23388],[-84.33818,36.23447],[-84.33719,36.23507],[-84.33674,36.23579],[-84.33633,36.23719],[-84.33593,36.23765],[-84.33447,36.23815],[-84.33257,36.23834],[-84.33162,36.23877],[-84.33146,36.23915],[-84.33174,36.23964],[-84.33099,36.24099],[-84.33092,36.24161],[-84.33141,36.24343],[-84.33213,36.24399],[-84.33312,36.24417],[-84.33717,36.24398],[-84.33803,36.24419],[-84.33857,36.24461],[-84.33866,36.24541],[-84.33826,36.24641],[-84.33765,36.24748],[-84.3368,36.24781],[-84.3364,36.24869],[-84.33651,36.24952],[-84.33688,36.25004],[-84.33756,36.25037],[-84.33819,36.25039],[-84.34137,36.24862],[-84.34185,36.24855],[-84.34303,36.2487],[-84.34516,36.24943],[-84.3458,36.25011],[-84.34872,36.25209],[-84.3493,36.25288],[-84.34993,36.25466],[-84.34954,36.25526],[-84.34969,36.25581],[-84.35025,36.25657],[-84.35116,36.25695],[-84.35277,36.25902],[-84.35278,36.25932],[-84.35227,36.2595],[-84.3522,36.25967],[-84.35229,36.261],[-84.35283,36.26199],[-84.35258,36.26253],[-84.35051,36.2638],[-84.34903,36.26503],[-84.34752,36.26559],[-84.34655,36.26636],[-84.34546,36.26677],[-84.34443,36.26875],[-84.34468,36.2701],[-84.34536,36.27065],[-84.34606,36.27202],[-84.34721,36.27237],[-84.34903,36.27456],[-84.34907,36.27514],[-84.34853,36.27674],[-84.34864,36.27744],[-84.34937,36.27875],[-84.3509,36.28062],[-84.35106,36.28139],[-84.35167,36.28263],[-84.35202,36.28568],[-84.35235,36.28664],[-84.35293,36.28699],[-84.35365,36.28685],[-84.35646,36.28487],[-84.35911,36.28341],[-84.35977,36.28319],[-84.36088,36.28321],[-84.36519,36.28416],[-84.36664,36.28489],[-84.36702,36.28529],[-84.36718,36.28577],[-84.3671,36.28651],[-84.36568,36.29139],[-84.36636,36.29341],[-84.3664,36.29376],[-84.36616,36.29414],[-84.36625,36.29436],[-84.3677,36.29504],[-84.36919,36.29516],[-84.37266,36.29593],[-84.37377,36.296],[-84.37437,36.29576],[-84.37502,36.29572],[-84.37725,36.29602],[-84.37903,36.29606],[-84.38185,36.2966],[-84.38389,36.2972],[-84.38493,36.29728],[-84.38644,36.29812],[-84.38653,36.29827],[-84.38627,36.2986],[-84.38638,36.29883],[-84.38814,36.3005],[-84.38822,36.30112],[-84.38757,36.30196],[-84.38708,36.30295],[-84.38633,36.30541],[-84.38547,36.30701],[-84.38433,36.30767],[-84.38218,36.30787],[-84.38171,36.30799],[-84.38138,36.30836],[-84.38137,36.30952],[-84.38165,36.31011],[-84.38328,36.31114],[-84.38427,36.31197],[-84.38518,36.31243],[-84.38578,36.31312],[-84.38583,36.31376],[-84.38557,36.31405],[-84.38491,36.31435],[-84.38118,36.31563],[-84.38104,36.31606],[-84.38164,36.31681],[-84.3816,36.31705],[-84.38084,36.31772],[-84.37982,36.31814],[-84.37887,36.31804],[-84.37814,36.31837],[-84.37584,36.32096],[-84.37436,36.32314],[-84.37424,36.32354],[-84.37524,36.32447],[-84.37523,36.32571],[-84.375,36.32681],[-84.37512,36.32875],[-84.37587,36.32923],[-84.37841,36.3295],[-84.38059,36.33014],[-84.38371,36.33192],[-84.38422,36.33241],[-84.38553,36.33304],[-84.38739,36.33446],[-84.39029,36.33522],[-84.39126,36.33608],[-84.39246,36.33849],[-84.39315,36.33897],[-84.39581,36.33903],[-84.39813,36.33981],[-84.40064,36.3392],[-84.40248,36.33907],[-84.40298,36.33945],[-84.40322,36.34035],[-84.40382,36.34134],[-84.40437,36.34163],[-84.40548,36.34161],[-84.40631,36.34116],[-84.40654,36.34019],[-84.40789,36.33799],[-84.40919,36.33719],[-84.40991,36.33698],[-84.41053,36.33698],[-84.41122,36.33734],[-84.41208,36.33875],[-84.41298,36.33968],[-84.41464,36.34052],[-84.41558,36.34067],[-84.41816,36.34243],[-84.41899,36.34279],[-84.42002,36.343],[-84.42133,36.34286],[-84.42285,36.3421],[-84.42316,36.34168],[-84.42321,36.34087],[-84.42273,36.33978],[-84.42299,36.33803],[-84.42249,36.33692],[-84.4223,36.33601],[-84.42235,36.33462],[-84.42261,36.33409],[-84.42618,36.33157],[-84.42786,36.33075],[-84.43168,36.32942],[-84.43404,36.3295],[-84.43503,36.33029],[-84.4355,36.33109],[-84.43591,36.33247],[-84.43575,36.33284],[-84.43515,36.33312],[-84.43475,36.33363],[-84.43462,36.3343],[-84.43481,36.33506],[-84.43521,36.33543],[-84.43591,36.33548],[-84.43696,36.33588],[-84.43753,36.33627],[-84.4381,36.33699],[-84.44084,36.33676],[-84.44403,36.33603],[-84.44492,36.33562],[-84.44719,36.334],[-84.44782,36.33374],[-84.44973,36.33351],[-84.45084,36.33353],[-84.45124,36.33367],[-84.45157,36.33425],[-84.45152,36.33574],[-84.45111,36.3377],[-84.45048,36.33886],[-84.44797,36.34118],[-84.44732,36.34289],[-84.44683,36.34368],[-84.44611,36.34395],[-84.44465,36.34412],[-84.44368,36.34441],[-84.44335,36.34473],[-84.44331,36.34522],[-84.44406,36.34678],[-84.44569,36.34839],[-84.44588,36.34878],[-84.4463,36.35298],[-84.44685,36.35436],[-84.44661,36.35604],[-84.44833,36.35873],[-84.44836,36.35955],[-84.448,36.36091],[-84.45,36.36602],[-84.45018,36.37061],[-84.45065,36.37291],[-84.45115,36.37424],[-84.45273,36.37613],[-84.45332,36.37762],[-84.45397,36.37824],[-84.45581,36.37896],[-84.45802,36.37938],[-84.46002,36.37954],[-84.46193,36.37993],[-84.46292,36.38039],[-84.46332,36.38093],[-84.46341,36.38153],[-84.46326,36.38234],[-84.46224,36.38477],[-84.46176,36.38549],[-84.46105,36.38592],[-84.45977,36.38591],[-84.45859,36.38551],[-84.45811,36.3851],[-84.45806,36.38333],[-84.45736,36.3829],[-84.45631,36.38276],[-84.45477,36.383],[-84.4541,36.38407],[-84.45299,36.38489],[-84.45202,36.38517],[-84.44985,36.38544],[-84.44931,36.38595],[-84.44922,36.38651],[-84.44937,36.38706],[-84.45087,36.38908],[-84.45122,36.3893],[-84.45407,36.39012],[-84.45564,36.39153],[-84.45678,36.39222],[-84.45731,36.39226],[-84.45768,36.39212],[-84.45817,36.39225],[-84.45913,36.39168],[-84.45924,36.39144],[-84.46022,36.39123],[-84.46233,36.39126],[-84.4655,36.3919],[-84.46672,36.39196],[-84.46794,36.39173],[-84.47056,36.39081],[-84.47123,36.39035],[-84.47271,36.38856],[-84.47446,36.38699],[-84.47565,36.38513],[-84.47855,36.38246],[-84.48074,36.38007],[-84.48158,36.37943],[-84.48218,36.37935],[-84.48441,36.38098],[-84.48529,36.38187],[-84.48689,36.38551],[-84.4875,36.3886],[-84.48816,36.38956],[-84.48926,36.38994],[-84.49054,36.3901],[-84.49315,36.3895],[-84.49417,36.38951],[-84.49477,36.38982],[-84.49596,36.3908],[-84.49705,36.3921],[-84.49713,36.39252],[-84.49693,36.39292],[-84.49453,36.39503],[-84.49334,36.39637],[-84.49197,36.3975],[-84.49105,36.3988],[-84.49092,36.39964],[-84.49142,36.40231],[-84.49207,36.40362],[-84.49343,36.40481],[-84.49457,36.4053],[-84.49723,36.40548],[-84.49906,36.40505],[-84.50118,36.40616],[-84.50291,36.40674],[-84.50601,36.40671],[-84.50709,36.4062],[-84.50759,36.40476],[-84.50809,36.40415],[-84.51075,36.40246],[-84.51194,36.40138],[-84.51377,36.39882],[-84.51396,36.39827],[-84.51388,36.3976],[-84.51257,36.39635],[-84.51238,36.39577],[-84.5126,36.39472],[-84.51349,36.39352],[-84.51458,36.39239],[-84.51612,36.39141],[-84.51985,36.38836],[-84.52446,36.3852],[-84.52511,36.38488],[-84.52741,36.3844],[-84.52944,36.38437],[-84.53307,36.3852],[-84.53818,36.38693],[-84.53912,36.38692],[-84.54018,36.38641],[-84.54059,36.38575],[-84.54238,36.38002],[-84.54325,36.37815],[-84.54377,36.37619],[-84.54397,36.37436],[-84.54494,36.37225],[-84.5457,36.37161],[-84.5473,36.37095],[-84.55007,36.37013],[-84.55105,36.37021],[-84.553,36.37093],[-84.5537,36.37147],[-84.55377,36.37193],[-84.55357,36.37381],[-84.5539,36.37574],[-84.55362,36.37794],[-84.55271,36.38215],[-84.55277,36.38372],[-84.55403,36.38484],[-84.5546,36.3864],[-84.55496,36.38816],[-84.5566,36.38995],[-84.55753,36.39141],[-84.5581,36.39396],[-84.55788,36.39594],[-84.55863,36.39728],[-84.55935,36.39915],[-84.5599,36.39974],[-84.56067,36.40002],[-84.56152,36.40001],[-84.56294,36.39906],[-84.56475,36.39826],[-84.56976,36.39638],[-84.57169,36.39579],[-84.57307,36.39583],[-84.57708,36.39673],[-84.57913,36.39673],[-84.58243,36.39369],[-84.58401,36.39263],[-84.58589,36.39205],[-84.58752,36.39226],[-84.58981,36.3931],[-84.59027,36.39354],[-84.59053,36.39419],[-84.59046,36.39479],[-84.59025,36.39506],[-84.58962,36.39539],[-84.58884,36.39551],[-84.58801,36.39653],[-84.5875,36.40032],[-84.58766,36.4015],[-84.58839,36.40238],[-84.5908,36.40341],[-84.59331,36.40492],[-84.59408,36.4063],[-84.59482,36.40813],[-84.59642,36.41062],[-84.59706,36.41107],[-84.59858,36.41135],[-84.59945,36.41106],[-84.6018,36.40976],[-84.60435,36.4098],[-84.60553,36.41007],[-84.60613,36.41038],[-84.60758,36.41195],[-84.60801,36.41335],[-84.60802,36.41647],[-84.60732,36.41879],[-84.60646,36.42085],[-84.60515,36.42267],[-84.60454,36.42313],[-84.60211,36.42428],[-84.59829,36.42766],[-84.59753,36.42941],[-84.59705,36.43155],[-84.59728,36.43224],[-84.59772,36.43271],[-84.59946,36.43353],[-84.6014,36.43385],[-84.60301,36.4338],[-84.60584,36.43301],[-84.60836,36.43323],[-84.61055,36.4336],[-84.61197,36.43358],[-84.61255,36.43301],[-84.61402,36.42986],[-84.61409,36.4293],[-84.61544,36.4269],[-84.6164,36.42541],[-84.61722,36.42461],[-84.61819,36.42398],[-84.619,36.42379],[-84.62107,36.42372],[-84.6236,36.42429]]]}}
