{"type":"Feature","properties":{"id":"buffalo-creek-grainger","name":"Buffalo Creek (Grainger County)","waterbodyType":"creek","throughLakeIds":[],"allowOpenEnds":false,"source":"nhd-hu8-06010104","approximate":false,"labelAnchor":[-83.56497,36.22273],"bounds":[-83.59888,36.19186,-83.55494,36.22873],"crs":"EPSG:4326","coordinateOrder":"longitude,latitude","partCount":1,"vertexCount":66,"lengthKm":9.74,"sourceIds":["138745359","138745399","138745389","138803653","138730040","138745368","138745379","138745338","138745348","138745328","138803824"],"sourceRetrieved":"2026-09-11","geometrySource":"nhd","hu8":"06010104","simplification":{"toleranceM":10,"verticesBefore":576,"verticesAfter":66,"budgetBytes":81920},"trace":{"anchor":{"lat":36.22273,"lon":-83.564968,"snapDistM":0.1},"up":{"spec":"headwater","reason":"headwater","terminus":[-83.598881,36.228279],"distKmFromAnchor":4.53},"down":{"spec":"mouth","reason":"name-change","terminus":[-83.563885,36.191858],"enteredNames":["Holston River"],"distKmFromAnchor":3.86},"vaaUsed":false,"toleranceM":12}},"geometry":{"type":"MultiLineString","coordinates":[[[-83.59888,36.22828],[-83.59731,36.22737],[-83.59587,36.22595],[-83.59539,36.22575],[-83.59371,36.2255],[-83.5931,36.22487],[-83.59137,36.22545],[-83.5911,36.2257],[-83.59078,36.22689],[-83.58917,36.22766],[-83.58789,36.22802],[-83.58743,36.22784],[-83.58668,36.22782],[-83.58552,36.22836],[-83.58457,36.22784],[-83.58384,36.22795],[-83.58362,36.2277],[-83.58312,36.22773],[-83.58262,36.22818],[-83.58135,36.22873],[-83.57989,36.22843],[-83.57945,36.22819],[-83.57768,36.22791],[-83.5742,36.22615],[-83.57324,36.22641],[-83.57249,36.22616],[-83.57186,36.22645],[-83.57121,36.22642],[-83.5694,36.22596],[-83.56869,36.22555],[-83.5674,36.22545],[-83.56629,36.22478],[-83.56497,36.22273],[-83.56496,36.22188],[-83.56315,36.21819],[-83.56273,36.21636],[-83.56497,36.22273],[-83.56271,36.21624],[-83.56201,36.21526],[-83.56194,36.21328],[-83.5605,36.21236],[-83.55974,36.21119],[-83.55853,36.21022],[-83.55769,36.20878],[-83.55701,36.20823],[-83.55595,36.20583],[-83.5556,36.20545],[-83.55494,36.20522],[-83.556,36.20382],[-83.55599,36.20335],[-83.5554,36.20215],[-83.55604,36.20127],[-83.55672,36.20117],[-83.55741,36.20171],[-83.55839,36.20206],[-83.5588,36.20207],[-83.55909,36.20192],[-83.559,36.19991],[-83.55779,36.19852],[-83.55809,36.1983],[-83.55905,36.19808],[-83.56087,36.19802],[-83.56218,36.19642],[-83.56252,36.19538],[-83.56269,36.19204],[-83.56388,36.19186]]]}}
