{"type":"Feature","properties":{"id":"upper-hills-creek","name":"Upper Hills Creek","waterbodyType":"creek","throughLakeIds":[],"allowOpenEnds":false,"source":"nhd-hu8-05130107","approximate":false,"labelAnchor":[-85.6751,35.57099],"bounds":[-85.70031,35.55031,-85.63375,35.57201],"crs":"EPSG:4326","coordinateOrder":"longitude,latitude","partCount":1,"vertexCount":81,"lengthKm":9.39,"sourceIds":["51182611","51182513","51182479","51182499","51182573","51182585","51182587","51182599","51182609","51182621","51182647","51182701","51182785","51182501"],"sourceRetrieved":"2026-09-11","geometrySource":"nhd","hu8":"05130107","simplification":{"toleranceM":10,"verticesBefore":188,"verticesAfter":81,"budgetBytes":81920},"trace":{"anchor":{"lat":35.571,"lon":-85.6751,"snapDistM":0.9},"up":{"spec":"headwater","reason":"headwater","terminus":[-85.633749,35.550305],"distKmFromAnchor":5.34},"down":{"spec":"mouth","reason":"name-change","terminus":[-85.700312,35.570604],"enteredNames":["Collins River"],"distKmFromAnchor":3.81},"vaaUsed":false,"toleranceM":12}},"geometry":{"type":"MultiLineString","coordinates":[[[-85.63375,35.55031],[-85.63493,35.55083],[-85.63708,35.55315],[-85.63835,35.55337],[-85.63975,35.55328],[-85.64264,35.55442],[-85.64319,35.55507],[-85.64282,35.55577],[-85.64241,35.55736],[-85.64308,35.55887],[-85.64366,35.55942],[-85.64505,35.55996],[-85.64548,35.56045],[-85.64583,35.56034],[-85.64601,35.55988],[-85.64637,35.55991],[-85.64729,35.56053],[-85.64781,35.56058],[-85.6489,35.56053],[-85.64986,35.56007],[-85.65133,35.55988],[-85.6534,35.56111],[-85.65411,35.5612],[-85.65489,35.56101],[-85.65525,35.56109],[-85.65549,35.56122],[-85.65585,35.56187],[-85.65591,35.56369],[-85.65668,35.56433],[-85.6577,35.56487],[-85.65873,35.56492],[-85.65949,35.56519],[-85.65981,35.56556],[-85.65985,35.56616],[-85.66008,35.56641],[-85.66208,35.56729],[-85.66234,35.56791],[-85.66309,35.56834],[-85.66326,35.56813],[-85.66329,35.56711],[-85.66369,35.56688],[-85.66401,35.56687],[-85.66464,35.56728],[-85.66856,35.56851],[-85.66924,35.56884],[-85.66981,35.5695],[-85.67035,35.56947],[-85.67111,35.5697],[-85.67185,35.56942],[-85.67334,35.56937],[-85.6751,35.57099],[-85.6743,35.56967],[-85.67489,35.57021],[-85.67507,35.57098],[-85.67541,35.57113],[-85.67733,35.57138],[-85.67844,35.57201],[-85.67867,35.57182],[-85.67969,35.5685],[-85.68122,35.56813],[-85.68167,35.56805],[-85.68204,35.56818],[-85.68362,35.56922],[-85.6865,35.57035],[-85.68821,35.57048],[-85.68917,35.57027],[-85.68998,35.56955],[-85.68979,35.56905],[-85.68762,35.56904],[-85.68736,35.5688],[-85.6874,35.56847],[-85.68782,35.56789],[-85.68913,35.56733],[-85.68925,35.56618],[-85.69076,35.56582],[-85.69227,35.56742],[-85.69459,35.56862],[-85.69566,35.5691],[-85.69989,35.57018],[-85.70023,35.57037],[-85.70031,35.5706]]]}}
