{"type":"Feature","properties":{"id":"wolf-river-west-tennessee","name":"Wolf River","waterbodyType":"river","throughLakeIds":[],"allowOpenEnds":false,"source":"nhd-hu8-08010210","approximate":false,"labelAnchor":[-89.66228,35.08821],"bounds":[-90.05742,34.89329,-89.00678,35.20259],"crs":"EPSG:4326","coordinateOrder":"longitude,latitude","partCount":1,"vertexCount":319,"lengthKm":147.29,"sourceIds":["123819122","123819123","123819124","123819125","123819126","123819127","123819128","123819129","123819130","123819131","123819132","123819133","123819134","123819135","123819136","123819137","123819138","123819249","123819245","123819243","123819244","123819139","123819327","123819343","123819328","123819142","123819143","123819144","123819329","123819330","123819331","123819146","123819147","{08DB304B-2636-45B5-8665-00E7C0DCFB5A}","123819334","123819335","123819336","123819201","123819339","123819148","123819149","123819150","123819151","123819152","{443F68AE-D5D0-492D-ACEC-2B3516D3CB75}","123819153","123819154","123819155","123819156","123818900","123817435","123817436","123817437","123817438","123817439","123819913","123817440","123819912","123817441","123819921","123819923","123818452","123819920","123818453","123818891","123818892","123818893","123818894","123818884","123818885","123819919","123818886","123818859","123819914","123819915","123819917","123818882","123818883","123819910","123819911","123818887","123818860","123818881","123818880","123818877","123818878","123818879","123818896","123818875","123818876","123819899","123819898","123818861","123818862","123818863","123818864","123818865","123818888","123818866","123818867","123819850","123818868","123819851","123819852","123818869","123819821","123819822","123819823","123818870","123818871","123818897","123818873","123818889","123818890","123818328","123819827","123819828","123819829","123818329","123819842","123819843","123819832","123819833","123819844","123819834","123819837","123818001","123819861","123819860","123819859","123819865","123819864","123818002","123817442","123817443","123819877","123819878","123819879","123819880","123819887","123818531","{f66ac010-e3b3-4e81-828b-7f1620211459}","{32c43b41-37d4-41f5-b492-9959da2774d3}","{1a539c45-b0ee-4604-b8c6-de74ce34cc9a}","123817466","{c3f75d50-b882-4599-91fa-d1d6ba403ab2}","123817444","{e0723748-b2cb-417a-ab63-07ea771424bd}","{380619fe-40c0-4318-a2e0-4cfd805baa5f}","{0994ecad-99fe-424b-abf5-a20b01f122bf}","{28286f11-8278-4e5f-923b-b08922f61c77}","{0aa7d13e-ec8f-49e3-a652-b495f40aa098}","{60007bad-c688-446a-b613-48bc15d3c99d}","{8e68ece7-15e9-4b27-8fd2-c422f2752203}","{01e7713e-e45e-417d-a218-7912e385016a}","{a1c4d589-d37e-45b0-b78c-f0e48d42f453}","123818551","{20bc1142-f3d8-427f-8c24-f3684e398aca}","123818582","123818591","123818592","{8bef097e-470a-4dca-aec6-0bc6b256c3be}","{3ba58f47-654d-422b-9018-fa9ac3dfda72}","{73e4e1b4-62c1-48df-a6a8-c513b87353c5}","123818622","{a7b1e460-3321-4750-bfdf-99e49b604457}","{8744c258-238a-40b6-931c-881e1c8d3e15}","{e4bcc275-4842-45ab-b085-199b42577dbe}","{3d74e6b3-8ef5-4cfb-88e2-561e088a9724}","123818671","{f3bd519f-e7fc-4022-82ab-d0e84af6bca9}","{af970d52-8705-4c55-bb07-fe51556d710f}","{513c96b7-84af-4c65-bba1-dd827b4f07bb}","{c5def069-a62d-4b6d-9d05-a93b80ea935d}","{43c8ab68-11f4-4f4a-8260-0bba883115a1}","{47e08cad-f518-4993-b24c-2e1d09ae3681}","123820128","123818690","123820148","{ea21e032-39b9-4f74-97bb-b9326c55f6bb}","{e52933f7-9bb6-423e-8920-9cd7846aedfc}","{6f470f10-85f5-49be-b064-d515864aa9c2}","{9c393a4d-622c-4d17-b7ef-eb7c5d892f54}","{8b00c0bd-1d3e-4802-870e-135251d6def9}","{21ef2415-3c4f-4552-8024-314a0cfd23a9}","123817445","{aa4df10f-fc8d-4f4e-815f-d86808340f6a}","{65cafc5d-4359-40dd-a075-8a08d11ed4e8}","{b0c94a8f-f9bd-44e4-98fe-621281967157}","{a351797f-3d84-4050-bf5e-323022728ce8}","123818702","{fb25ea64-f299-4a95-bcfd-c8a82d46af19}","123818709","{9ed9f981-c57e-457c-a5d6-8574ba28e667}","{41652d8a-1abf-4235-9fea-cbf4c4a613b6}","123818715","{430790e8-fd3c-4fdd-92d0-26ca5a278a56}","123818718","{0cec3455-5446-4e61-abed-a2ef80579286}","{009c75a8-4197-4b8f-9324-6c4b1e10fd0b}","{e674b880-bb16-4b49-b782-d90119f36bda}","{d8bdc67a-9e0b-493b-a8da-7f1703ab7e16}","{addb6b37-5d34-4957-8c94-d9fabd3657f1}","{6d474ad7-70a9-4d97-a35e-425d45dee399}","{173757c1-45cd-4c94-a843-e0a18fb8d0fa}","{901cfd4e-4fda-4e1a-9ffa-bc378aece6d6}","{1e718ce3-c3f1-4919-8c8b-32c891c46874}","123818731","{bde6cb9d-957e-48fb-8f4f-181403858a1d}","123818733","{1c595eab-60a2-4564-a27d-a6d3e2a6190f}","{6e37b4fb-f313-4000-b455-af05b73a013e}","{6cdc32c5-a456-4377-8688-95de32ad9db0}","123818743","{1bac04c0-3868-419f-aec0-a42eb849a7ad}","123807289","{2ba71373-7330-4b13-9ade-800a26e4d094}","{94f031fe-08c2-4c39-9a13-b908bcf6b2ac}","{27592762-6dd3-4ed2-8c4f-0cbde5eee02a}","123817467","{000c747d-a3d2-4867-926b-00828b6d7a62}","{bd741599-10eb-4555-9a85-c8e3b79a3f15}","123817468","{d9d39162-7823-414c-beef-1e054fc452b0}","{ddaf3114-6391-4f6f-b6e5-05c8ba8a5b59}","{79e2fb53-1650-48ff-9c9d-bf844b56613d}","{03ba76d5-300c-41e2-a8a7-f77e9442cffb}","{53f446e6-cec1-4511-adba-fea569028056}","123817469","123817470","123817471","123818931","123818932","123818933","123818934","123818936","123818937","123818938","{453f39d8-b9fb-478f-a28b-efcd0f81c1b2}","{29e5f79e-2c9a-43bc-93b3-d0e93a544ebf}","{7851d40c-8bcc-43ac-b502-1c678519d613}","123817474","123817475","{18458423-5f0f-4a89-b1b5-9d7c398cbb1a}","123817478","{818afa6a-7f0b-40c9-8bb6-9cd53808ce73}","123817479","{039935a8-f1aa-4827-8da6-e75588620a6f}","{1921b57c-2e93-4c31-8111-9d764193493c}","{04d9f6e4-6e01-46b2-be3d-9c990e143441}","123817480","{fefc1c19-d1a9-4087-b7c9-e3dbb2f051cc}","{64f361fc-9e50-4109-b0f5-b4373372f157}","123817481","{6e67ba2e-c55c-471f-8ad7-2829b5ab64a3}","{3b7cc001-6245-4f8f-9daa-a26c22baa4c4}","{f2390782-3bf8-40a0-9783-fa67d548bc73}","{c7562f03-3bea-4bf3-8ae7-4870b4a15db6}","{17ac2a47-de08-4889-b461-e0ccad729a5b}","123817482","123809520","{918377e2-a381-49ba-aba3-5590a3fc2aa0}","{988c78a4-7994-46a4-98a8-e1b08d9b2b93}","{9e1a925d-c8ae-405e-9290-75eb0a95be99}","{3285a093-868b-4df1-9a17-8172ee7e040e}","{07433d29-56e5-40b0-ad22-ef6abca51006}","123809500","{8f91248f-9315-4140-ad06-e2d2adfb991e}","{8b22d366-1a49-4e59-9ada-9f6f1ca13705}","{442c5b65-8e73-479d-9ee5-8c0a079ddbe7}","{9a7fc515-9b39-4b54-b0ee-6a46082f1b48}","123809538","123820101","{2b6217bc-3dbd-459d-aa65-1fda3d818863}","123819121","123819120","123819119","123819118","123819117","123819315","123819116","123819115","123819114","123819113","123819112","123819111","123819110","123819109","123819108","123819107","123819106","123819105","123819104","123819103","123819102","123819101","123819100","123819224","123819223","123819259","123819248","123819254","123819096","123819095","123819304","123819231","123819094","123819093","123819092","123819091","123819090","123819233","123819087","123819086","123819085","123819084","123819083","123819082","123819081","123819080","{8F260300-C346-479B-8E11-0016E5CFCEB9}","{E8129CE4-9D38-4FA7-9BA2-BF5C25ADDCD1}","123819079","123819078","123819077","123819076","123819075","123819074","123819073","123819072","123819071","123819070","123819069","123819242","123819241","123819289","123819287","123819068","123819067","123819066","123819065","123819064","123819063","123819062","123819061","123819059","123819060","123819058","123819056","123819057","123819055","123819054","123819053","123819052","123819051","123819050","123819049","123819048","123819047","123819046","123819045","123819250","123819252","123819251","123819247","123819246","123819044","123819043","123819042","123819040","123819041"],"sourceRetrieved":"2026-09-11","geometrySource":"nhd","hu8":"08010210","simplification":{"toleranceM":100,"verticesBefore":12369,"verticesAfter":319,"budgetBytes":17694},"trace":{"anchor":{"lat":35.0882,"lon":-89.6623,"snapDistM":1.7},"up":{"spec":"headwater","reason":"headwater","terminus":[-89.006778,34.951268],"distKmFromAnchor":117.84},"down":{"spec":"mouth","reason":"terminal-node","terminus":[-90.057421,35.182857],"enteredNames":null,"distKmFromAnchor":49.8},"vaaUsed":false,"toleranceM":12}},"geometry":{"type":"MultiLineString","coordinates":[[[-89.00678,34.95127],[-89.00928,34.95218],[-89.01259,34.95004],[-89.01733,34.93981],[-89.02368,34.93856],[-89.02439,34.93486],[-89.02804,34.93305],[-89.02937,34.92884],[-89.03768,34.91761],[-89.05146,34.90607],[-89.06646,34.90686],[-89.07116,34.90518],[-89.0756,34.90611],[-89.09159,34.89664],[-89.10021,34.89625],[-89.10777,34.89329],[-89.12082,34.89876],[-89.12164,34.90059],[-89.1248,34.90099],[-89.12431,34.90195],[-89.1292,34.90229],[-89.13203,34.90421],[-89.13178,34.90596],[-89.13632,34.90427],[-89.14451,34.90409],[-89.14439,34.90515],[-89.14869,34.90602],[-89.14895,34.90797],[-89.15046,34.90726],[-89.1537,34.90904],[-89.15417,34.91097],[-89.15614,34.91042],[-89.15607,34.91284],[-89.15996,34.90989],[-89.16504,34.91523],[-89.17319,34.91761],[-89.17447,34.91942],[-89.1795,34.91941],[-89.1802,34.92122],[-89.18159,34.92074],[-89.18409,34.92455],[-89.18658,34.92523],[-89.18747,34.92822],[-89.18978,34.92755],[-89.19116,34.93336],[-89.19699,34.93902],[-89.1982,34.94445],[-89.19518,34.95142],[-89.19725,34.95405],[-89.1954,34.95382],[-89.20144,34.95731],[-89.20278,34.96241],[-89.20146,34.96466],[-89.20382,34.97066],[-89.2214,34.9784],[-89.22481,34.97764],[-89.2252,34.97608],[-89.22662,34.97821],[-89.22928,34.97668],[-89.23007,34.97838],[-89.23143,34.97545],[-89.23579,34.97398],[-89.23703,34.97603],[-89.24058,34.97389],[-89.24471,34.97655],[-89.2487,34.97429],[-89.24986,34.97494],[-89.24869,34.9759],[-89.25353,34.97755],[-89.255,34.98227],[-89.25332,34.98944],[-89.2514,34.98971],[-89.25209,34.99248],[-89.24294,34.99862],[-89.23882,35.00539],[-89.2361,35.00368],[-89.23524,35.00789],[-89.23266,35.01028],[-89.23461,35.01147],[-89.23392,35.01425],[-89.23541,35.01479],[-89.23714,35.02314],[-89.23898,35.02364],[-89.23924,35.02681],[-89.24239,35.0289],[-89.24304,35.03173],[-89.25438,35.03314],[-89.25553,35.03583],[-89.25725,35.03468],[-89.25783,35.03661],[-89.26258,35.03609],[-89.26451,35.03862],[-89.27215,35.03987],[-89.2749,35.03827],[-89.27619,35.04035],[-89.28309,35.03683],[-89.28668,35.03791],[-89.28882,35.03695],[-89.29125,35.03286],[-89.29818,35.03052],[-89.29946,35.02843],[-89.30215,35.02764],[-89.30377,35.02903],[-89.31258,35.02915],[-89.31809,35.02611],[-89.31932,35.02737],[-89.32614,35.0258],[-89.32678,35.02712],[-89.332,35.02542],[-89.33967,35.02779],[-89.34417,35.026],[-89.34819,35.02737],[-89.35416,35.02678],[-89.35527,35.02861],[-89.35885,35.02591],[-89.37245,35.02822],[-89.37522,35.03016],[-89.37558,35.02805],[-89.37972,35.02914],[-89.38232,35.03269],[-89.38541,35.03156],[-89.38608,35.03283],[-89.38873,35.03259],[-89.392,35.03807],[-89.39418,35.03659],[-89.39734,35.03812],[-89.39764,35.04304],[-89.40186,35.04608],[-89.40082,35.053],[-89.40308,35.05222],[-89.40489,35.05407],[-89.40348,35.05531],[-89.41429,35.06154],[-89.41388,35.06289],[-89.41584,35.06241],[-89.4169,35.06508],[-89.41908,35.06377],[-89.41878,35.06558],[-89.42036,35.06433],[-89.42493,35.06521],[-89.42783,35.06771],[-89.43067,35.06645],[-89.43112,35.06948],[-89.43523,35.07032],[-89.4381,35.07281],[-89.43983,35.07176],[-89.44255,35.07415],[-89.443,35.07287],[-89.44383,35.07409],[-89.44857,35.07244],[-89.45136,35.07381],[-89.45081,35.07193],[-89.45399,35.07111],[-89.45671,35.07314],[-89.45777,35.07213],[-89.45819,35.0739],[-89.46094,35.07194],[-89.4627,35.07378],[-89.4629,35.07192],[-89.46816,35.07105],[-89.4685,35.06994],[-89.47855,35.06896],[-89.48029,35.07165],[-89.48188,35.07059],[-89.48929,35.07091],[-89.49127,35.07017],[-89.48929,35.06871],[-89.49023,35.06748],[-89.49342,35.06738],[-89.495,35.06577],[-89.49778,35.06749],[-89.49862,35.06509],[-89.50054,35.06652],[-89.50091,35.0645],[-89.50294,35.06499],[-89.50529,35.05964],[-89.5075,35.06072],[-89.50727,35.05822],[-89.50998,35.05958],[-89.5098,35.05843],[-89.5154,35.05761],[-89.51578,35.05647],[-89.52803,35.05503],[-89.52858,35.0522],[-89.5343,35.05237],[-89.53607,35.05543],[-89.53838,35.05452],[-89.53895,35.05625],[-89.54122,35.0544],[-89.54263,35.05711],[-89.54691,35.05702],[-89.54863,35.05945],[-89.55096,35.05902],[-89.54928,35.05671],[-89.55087,35.05593],[-89.55191,35.05804],[-89.55478,35.05799],[-89.55578,35.05981],[-89.5544,35.06036],[-89.55845,35.06209],[-89.56162,35.05831],[-89.56462,35.06017],[-89.56447,35.06197],[-89.56556,35.05899],[-89.56772,35.06175],[-89.57028,35.06287],[-89.57112,35.06148],[-89.57363,35.06409],[-89.57694,35.06265],[-89.57782,35.06352],[-89.57998,35.06164],[-89.58116,35.0641],[-89.5856,35.06448],[-89.58757,35.06319],[-89.59071,35.06613],[-89.59321,35.06416],[-89.59527,35.06577],[-89.59741,35.06481],[-89.60224,35.0663],[-89.60371,35.06453],[-89.60564,35.067],[-89.60843,35.06437],[-89.61529,35.06844],[-89.61491,35.06731],[-89.6177,35.06641],[-89.61872,35.06763],[-89.61703,35.06923],[-89.62014,35.06923],[-89.62079,35.07053],[-89.62226,35.06913],[-89.625,35.0693],[-89.63009,35.07321],[-89.63672,35.07384],[-89.6375,35.07602],[-89.639,35.07528],[-89.63644,35.07927],[-89.64008,35.08038],[-89.64012,35.08164],[-89.64367,35.08004],[-89.64329,35.08221],[-89.64485,35.08284],[-89.64624,35.08129],[-89.65191,35.08144],[-89.65472,35.08368],[-89.65658,35.08329],[-89.65576,35.08495],[-89.6582,35.08738],[-89.65863,35.0849],[-89.66127,35.08418],[-89.66229,35.08821],[-89.66389,35.08772],[-89.66384,35.08914],[-89.66653,35.09042],[-89.66556,35.09209],[-89.67109,35.09125],[-89.67331,35.09327],[-89.68388,35.0967],[-89.68217,35.09488],[-89.68498,35.09488],[-89.68536,35.09366],[-89.68915,35.09488],[-89.68942,35.09245],[-89.69202,35.09366],[-89.69384,35.09139],[-89.69419,35.09337],[-89.70232,35.09598],[-89.7034,35.09456],[-89.70912,35.09902],[-89.71072,35.09651],[-89.71216,35.09889],[-89.71362,35.09864],[-89.71292,35.10278],[-89.72211,35.10325],[-89.72288,35.10538],[-89.72501,35.10488],[-89.72712,35.10682],[-89.73217,35.10776],[-89.73547,35.11083],[-89.73718,35.10913],[-89.74014,35.10973],[-89.74281,35.10733],[-89.76273,35.10304],[-89.77756,35.10581],[-89.79189,35.11183],[-89.79771,35.11635],[-89.8029,35.11731],[-89.80836,35.11616],[-89.83566,35.12132],[-89.84351,35.12115],[-89.85666,35.1342],[-89.87262,35.14377],[-89.87826,35.14922],[-89.88014,35.15729],[-89.89298,35.16627],[-89.91417,35.18961],[-89.92223,35.20156],[-89.92489,35.20259],[-89.93185,35.20134],[-89.93282,35.19866],[-89.93079,35.19462],[-89.93238,35.19384],[-89.93416,35.19499],[-89.93983,35.19201],[-89.94567,35.18595],[-89.9556,35.18561],[-89.96304,35.18297],[-89.96639,35.18337],[-89.97264,35.18804],[-89.97876,35.18888],[-89.98274,35.18785],[-89.98536,35.19111],[-90.01375,35.18625],[-90.02727,35.18788],[-90.03051,35.19088],[-90.03357,35.18926],[-90.03787,35.18967],[-90.04196,35.19213],[-90.04439,35.18894],[-90.05742,35.18286]]]}}
