{"type":"Feature","properties":{"id":"powell-river","name":"Powell River","waterbodyType":"river","throughLakeIds":["norris-lake"],"allowOpenEnds":false,"source":"nhd-hu8-06010206","approximate":false,"labelAnchor":[-83.63059,36.54251],"bounds":[-84.02599,36.28851,-83.30558,36.5973],"crs":"EPSG:4326","coordinateOrder":"longitude,latitude","partCount":1,"vertexCount":623,"lengthKm":175.54,"sourceIds":["44950703","44950679","44950587","44950585","44950543","44950441","44950537","44950521","44950421","44950617","44950729","44950757","44950759","44950751","44950685","44950595","44950439","44950399","44950497","44950573","44950827","44950763","44950695","44950693","44950517","44950553","44950605","44950743","44950903","44950939","44950937","44951037","44951045","44950971","44950873","44950647","44950653","44950627","44950565","44950659","44950327","44950513","44950507","44950509","44950429","44950413","44950317","44950279","44950271","44950095","44950245","44950247","44950231","44950193","44950183","44950161","44950177","44949991","44949995","44950021","44950033","44950041","44950043","44949955","44949857","44949693","44949691","44949725","44949793","167677826","167677825","167677823","44949675","44949665","44949597","167677880","44949431","44949427","44949421","44950721","44951205","44951253","44951301","44951283","44951351","44951413","44951467","44951567","44951595","44951699","44951739","44951665","44951491","44951581","44951587","44951801","44951811","44951869","44951911","44951967","44952085","44952127","44952105","44952103","44952111","44952113","44952047","44952067","44952145","44952255","44952273","44952343","44952419","44952463","44952491","44952495","44952601","44952699","44952751","44952811","44952843","44952911","44952913","44952969","44953003","44953129","44953135","44953139","44953225","44953297","44953409","44953561","44953573","44953691","44953709","44953707","44953663","44953533","44953421","44953355","44953605","44953645","44953635","44953555","44953793","44953627","44953659","44953849","44953965","44953967","44953833","44953975","44954073","44954227","44954361","44954339","44954307","44954309","44954251","44954263","44954299","44954305","44954473","44954245","44954417","44954467","44954401","44954403","44954259","44954549","44954631","44954733","44954743","44954745","44954867","44954935","44954997","44955015","44955017","44955009","44955073","44955151","44955211","44955239","44955265","44955279","44955281","44955269","44955245","44955253","44955299","44955311","44955331","44955333"],"sourceRetrieved":"2026-09-11","geometrySource":"nhd","hu8":"06010206","simplification":{"toleranceM":25,"verticesBefore":2073,"verticesAfter":623,"budgetBytes":49152},"trace":{"anchor":{"lat":36.5425,"lon":-83.63,"snapDistM":52.9},"up":{"spec":"point:36.5962,-83.3056","reason":"point","terminus":[-83.305583,36.596215],"distKmFromAnchor":80.92},"down":{"spec":"mouth","reason":"name-change","terminus":[-84.024909,36.296032],"enteredNames":["Clinch River"],"distKmFromAnchor":96.07},"vaaUsed":false,"toleranceM":12}},"geometry":{"type":"MultiLineString","coordinates":[[[-83.30558,36.59622],[-83.30598,36.59371],[-83.30695,36.59307],[-83.30827,36.59289],[-83.3134,36.59414],[-83.31574,36.59562],[-83.32091,36.5973],[-83.32168,36.59726],[-83.32325,36.5949],[-83.32401,36.5905],[-83.32324,36.58919],[-83.32127,36.58893],[-83.32023,36.58837],[-83.31975,36.58766],[-83.31994,36.587],[-83.32193,36.5851],[-83.32278,36.58496],[-83.32546,36.5865],[-83.32776,36.5891],[-83.32923,36.58953],[-83.33135,36.58951],[-83.33255,36.58861],[-83.33304,36.58763],[-83.33252,36.58566],[-83.33304,36.58184],[-83.33368,36.58102],[-83.33501,36.58079],[-83.33591,36.58119],[-83.3361,36.5817],[-83.33644,36.58548],[-83.33743,36.5864],[-83.33869,36.58627],[-83.34046,36.58474],[-83.34114,36.58327],[-83.34156,36.5774],[-83.34212,36.57627],[-83.34303,36.57566],[-83.34641,36.57603],[-83.34727,36.57656],[-83.34718,36.57742],[-83.34428,36.58074],[-83.34384,36.58252],[-83.34406,36.58349],[-83.34525,36.5845],[-83.34677,36.58484],[-83.34791,36.5846],[-83.34928,36.5835],[-83.35072,36.58057],[-83.35063,36.57769],[-83.34863,36.57396],[-83.34854,36.57315],[-83.34896,36.57268],[-83.35147,36.57269],[-83.3549,36.57198],[-83.35594,36.57239],[-83.35635,36.57324],[-83.3547,36.57639],[-83.35481,36.57811],[-83.35621,36.5789],[-83.36051,36.5799],[-83.36155,36.58065],[-83.36155,36.58147],[-83.35966,36.5833],[-83.3598,36.58442],[-83.36078,36.58467],[-83.3627,36.58398],[-83.36462,36.58275],[-83.36647,36.57933],[-83.36611,36.57827],[-83.36387,36.57647],[-83.36102,36.57336],[-83.36145,36.56977],[-83.36257,36.56745],[-83.36441,36.56634],[-83.36646,36.56673],[-83.36898,36.56847],[-83.36991,36.56856],[-83.37109,36.56797],[-83.37284,36.5658],[-83.37353,36.56316],[-83.37489,36.56236],[-83.37595,36.56258],[-83.37763,36.56551],[-83.379,36.56657],[-83.38297,36.56795],[-83.38508,36.56806],[-83.38608,36.56559],[-83.38605,36.56447],[-83.38234,36.56195],[-83.37902,36.5576],[-83.37895,36.55643],[-83.37949,36.5562],[-83.3808,36.55681],[-83.38355,36.55953],[-83.38693,36.56116],[-83.38874,36.56128],[-83.3946,36.56025],[-83.39527,36.55937],[-83.39552,36.55736],[-83.3947,36.55396],[-83.39474,36.55054],[-83.39769,36.55058],[-83.39923,36.55138],[-83.40152,36.55339],[-83.40283,36.55348],[-83.40664,36.55184],[-83.41181,36.54798],[-83.41384,36.54727],[-83.41503,36.54853],[-83.41454,36.55097],[-83.41497,36.55205],[-83.41904,36.55405],[-83.42207,36.55776],[-83.4236,36.55829],[-83.42733,36.55866],[-83.42784,36.55772],[-83.42634,36.55476],[-83.42653,36.55359],[-83.42713,36.55271],[-83.42939,36.55109],[-83.43257,36.54686],[-83.43322,36.54685],[-83.43401,36.54741],[-83.43561,36.55029],[-83.43685,36.55051],[-83.439,36.54934],[-83.44229,36.54579],[-83.44379,36.54539],[-83.44813,36.54557],[-83.44955,36.5449],[-83.44925,36.54331],[-83.44656,36.53892],[-83.44058,36.5398],[-83.43792,36.53864],[-83.43687,36.53706],[-83.43908,36.53509],[-83.44717,36.53504],[-83.45023,36.53602],[-83.45339,36.53833],[-83.45449,36.53997],[-83.45328,36.54476],[-83.45424,36.54721],[-83.4547,36.55034],[-83.45608,36.55116],[-83.45797,36.55017],[-83.45881,36.54884],[-83.4605,36.5407],[-83.46175,36.53802],[-83.46398,36.5366],[-83.46735,36.53718],[-83.46804,36.53802],[-83.46772,36.53898],[-83.4641,36.54204],[-83.46393,36.54291],[-83.46441,36.54432],[-83.46583,36.54581],[-83.4689,36.54661],[-83.47006,36.54739],[-83.47182,36.54992],[-83.47347,36.55003],[-83.4745,36.54925],[-83.47489,36.54821],[-83.47437,36.54704],[-83.47204,36.54455],[-83.4728,36.54119],[-83.47259,36.53956],[-83.47167,36.53842],[-83.46688,36.53503],[-83.46327,36.53039],[-83.4631,36.52833],[-83.46496,36.52717],[-83.46833,36.52668],[-83.47015,36.52838],[-83.47101,36.53025],[-83.4696,36.5332],[-83.46991,36.53413],[-83.47101,36.53508],[-83.47328,36.53521],[-83.47918,36.53417],[-83.48053,36.53471],[-83.48092,36.53692],[-83.47998,36.53865],[-83.48061,36.53948],[-83.482,36.53916],[-83.48254,36.53603],[-83.48437,36.53472],[-83.48986,36.53336],[-83.49225,36.53151],[-83.49383,36.53087],[-83.49531,36.53098],[-83.49998,36.53251],[-83.50313,36.53085],[-83.50428,36.5306],[-83.50545,36.53114],[-83.50783,36.53372],[-83.50916,36.5342],[-83.50993,36.53406],[-83.51098,36.53302],[-83.51125,36.53166],[-83.50967,36.52877],[-83.50794,36.52773],[-83.50383,36.52652],[-83.50161,36.52515],[-83.49877,36.52162],[-83.49472,36.51479],[-83.49523,36.51381],[-83.49651,36.51282],[-83.50253,36.51178],[-83.50561,36.51072],[-83.50687,36.50967],[-83.50829,36.50658],[-83.50987,36.50547],[-83.51189,36.5059],[-83.51262,36.50716],[-83.51231,36.5083],[-83.51042,36.51103],[-83.5106,36.51167],[-83.51197,36.51206],[-83.51512,36.51043],[-83.51599,36.51096],[-83.51453,36.51428],[-83.51444,36.51556],[-83.51487,36.51634],[-83.51812,36.51909],[-83.5184,36.51997],[-83.51798,36.52102],[-83.51582,36.52333],[-83.51574,36.52422],[-83.51653,36.52545],[-83.5203,36.52773],[-83.52107,36.52871],[-83.52403,36.53617],[-83.52453,36.539],[-83.52417,36.54238],[-83.525,36.54343],[-83.52628,36.54393],[-83.52958,36.54324],[-83.53242,36.5408],[-83.53781,36.53783],[-83.53771,36.53598],[-83.53424,36.53179],[-83.53425,36.53066],[-83.5347,36.53022],[-83.54059,36.52872],[-83.54414,36.52493],[-83.54576,36.52427],[-83.54833,36.52394],[-83.55026,36.52462],[-83.55065,36.52609],[-83.54894,36.53159],[-83.5473,36.53519],[-83.5483,36.54078],[-83.54675,36.54475],[-83.54692,36.5475],[-83.54847,36.54928],[-83.55367,36.55171],[-83.55514,36.55179],[-83.55653,36.55135],[-83.5608,36.54739],[-83.5621,36.54148],[-83.56532,36.53605],[-83.56713,36.53504],[-83.57179,36.53353],[-83.57333,36.53096],[-83.57444,36.5303],[-83.57541,36.53056],[-83.57622,36.53189],[-83.57577,36.53652],[-83.57901,36.53909],[-83.57999,36.54039],[-83.58071,36.54571],[-83.58232,36.54971],[-83.58287,36.55426],[-83.58415,36.55557],[-83.58524,36.55591],[-83.58764,36.55598],[-83.58919,36.55554],[-83.59039,36.5544],[-83.59195,36.55104],[-83.59495,36.54808],[-83.59706,36.5469],[-83.59885,36.54711],[-83.59968,36.54788],[-83.59974,36.54978],[-83.59886,36.55326],[-83.60013,36.55557],[-83.60214,36.55663],[-83.60638,36.55694],[-83.60796,36.55593],[-83.60958,36.55234],[-83.61096,36.55068],[-83.61418,36.54779],[-83.6167,36.54666],[-83.62053,36.54603],[-83.6282,36.54983],[-83.62927,36.55006],[-83.6306,36.54965],[-83.63142,36.54866],[-83.63153,36.54742],[-83.6306,36.5421],[-83.63168,36.54056],[-83.63305,36.54023],[-83.63517,36.54043],[-83.6413,36.54383],[-83.64417,36.54451],[-83.6455,36.54421],[-83.64701,36.54338],[-83.64786,36.54235],[-83.64763,36.53812],[-83.64991,36.53495],[-83.64963,36.5336],[-83.64739,36.53034],[-83.64903,36.52633],[-83.64975,36.52561],[-83.65043,36.52552],[-83.65345,36.52716],[-83.6543,36.5271],[-83.65551,36.52627],[-83.65622,36.52443],[-83.65572,36.5226],[-83.65101,36.51364],[-83.64978,36.50865],[-83.64761,36.50504],[-83.64738,36.50313],[-83.64802,36.5013],[-83.64917,36.50053],[-83.65032,36.50036],[-83.65192,36.50049],[-83.65325,36.50129],[-83.6541,36.50297],[-83.65454,36.50728],[-83.65766,36.5144],[-83.65897,36.51675],[-83.66131,36.51953],[-83.66665,36.52232],[-83.67049,36.52194],[-83.67296,36.52119],[-83.67423,36.52015],[-83.67508,36.51826],[-83.6748,36.51558],[-83.67392,36.51416],[-83.6723,36.51305],[-83.66754,36.51258],[-83.66522,36.51149],[-83.66414,36.50936],[-83.66471,36.50803],[-83.666,36.50675],[-83.66797,36.50563],[-83.67206,36.50416],[-83.67541,36.50224],[-83.67669,36.50092],[-83.67772,36.49902],[-83.67921,36.49847],[-83.68186,36.49912],[-83.68294,36.5008],[-83.68341,36.5048],[-83.68299,36.50592],[-83.68076,36.5087],[-83.68082,36.50954],[-83.68185,36.51056],[-83.68487,36.51165],[-83.68632,36.51112],[-83.68773,36.50978],[-83.69076,36.50416],[-83.69077,36.50221],[-83.68875,36.4984],[-83.69085,36.49385],[-83.69123,36.49176],[-83.689,36.48967],[-83.68207,36.48742],[-83.68021,36.48645],[-83.67966,36.4854],[-83.67957,36.48269],[-83.68075,36.48129],[-83.68351,36.48096],[-83.68924,36.48171],[-83.69093,36.48228],[-83.69632,36.48595],[-83.69815,36.48642],[-83.70262,36.48625],[-83.70379,36.48669],[-83.70432,36.48819],[-83.70302,36.49091],[-83.70164,36.49244],[-83.69831,36.49398],[-83.69752,36.49489],[-83.6975,36.49565],[-83.69819,36.4964],[-83.70025,36.497],[-83.70429,36.4961],[-83.70822,36.49415],[-83.70976,36.49019],[-83.71008,36.48796],[-83.71203,36.48473],[-83.71549,36.4818],[-83.72121,36.47983],[-83.72367,36.47815],[-83.72348,36.47564],[-83.71961,36.47237],[-83.72002,36.47104],[-83.72096,36.47034],[-83.72357,36.47021],[-83.72701,36.47219],[-83.72869,36.47268],[-83.7374,36.47356],[-83.74104,36.47358],[-83.7439,36.47476],[-83.74687,36.47805],[-83.74882,36.47824],[-83.75068,36.47776],[-83.75166,36.47581],[-83.74722,36.46964],[-83.74715,36.46656],[-83.74786,36.46297],[-83.74913,36.46119],[-83.75325,36.45813],[-83.75577,36.45745],[-83.76099,36.45798],[-83.76387,36.45653],[-83.76411,36.45487],[-83.76244,36.45161],[-83.76158,36.45085],[-83.76119,36.44884],[-83.7625,36.44621],[-83.76418,36.44516],[-83.77021,36.44405],[-83.77362,36.4428],[-83.77539,36.44071],[-83.77716,36.43972],[-83.77936,36.4401],[-83.78258,36.44179],[-83.78443,36.44202],[-83.7863,36.44137],[-83.7882,36.43912],[-83.78889,36.43631],[-83.78813,36.43415],[-83.78635,36.43171],[-83.78234,36.42855],[-83.78043,36.42511],[-83.78101,36.41693],[-83.781,36.41489],[-83.78043,36.413],[-83.78184,36.4103],[-83.78293,36.40936],[-83.78456,36.40888],[-83.78672,36.4091],[-83.79039,36.4112],[-83.79323,36.41208],[-83.79573,36.41334],[-83.79625,36.41486],[-83.79286,36.41922],[-83.79261,36.42018],[-83.79281,36.42204],[-83.79359,36.42304],[-83.79463,36.42353],[-83.7972,36.42342],[-83.79978,36.42216],[-83.8025,36.41526],[-83.8042,36.4144],[-83.80628,36.41433],[-83.80894,36.4152],[-83.81048,36.41709],[-83.81303,36.41804],[-83.81521,36.41795],[-83.81593,36.4169],[-83.81609,36.41352],[-83.81718,36.41159],[-83.82117,36.40885],[-83.82428,36.40799],[-83.82703,36.40848],[-83.82914,36.4109],[-83.82947,36.41237],[-83.82923,36.41607],[-83.8297,36.41744],[-83.8311,36.41817],[-83.83311,36.41843],[-83.83419,36.41769],[-83.83475,36.41633],[-83.83503,36.41461],[-83.8347,36.41188],[-83.84,36.40686],[-83.84251,36.40392],[-83.84413,36.40432],[-83.84539,36.40523],[-83.84545,36.40833],[-83.84579,36.40887],[-83.8469,36.40963],[-83.84869,36.40969],[-83.85048,36.40916],[-83.85086,36.40868],[-83.85373,36.40737],[-83.85689,36.40514],[-83.86033,36.40213],[-83.86213,36.39949],[-83.86281,36.39791],[-83.86223,36.39585],[-83.86155,36.39528],[-83.85693,36.39358],[-83.85599,36.3922],[-83.85589,36.39064],[-83.85508,36.38941],[-83.85273,36.38744],[-83.85322,36.38612],[-83.85449,36.38579],[-83.86016,36.38698],[-83.86722,36.39033],[-83.86977,36.39088],[-83.87107,36.39082],[-83.87281,36.38999],[-83.87456,36.39047],[-83.88067,36.39651],[-83.88267,36.3963],[-83.88547,36.39463],[-83.8898,36.39377],[-83.89419,36.39228],[-83.89687,36.39313],[-83.89848,36.3932],[-83.90042,36.39256],[-83.90119,36.39197],[-83.90236,36.38891],[-83.90335,36.38777],[-83.9046,36.38684],[-83.90739,36.38604],[-83.9086,36.38679],[-83.90881,36.38776],[-83.90605,36.393],[-83.9055,36.3958],[-83.90445,36.39807],[-83.9045,36.40032],[-83.90697,36.39958],[-83.91083,36.39725],[-83.91184,36.39604],[-83.91869,36.3909],[-83.91964,36.38946],[-83.92267,36.38802],[-83.92416,36.388],[-83.92711,36.38942],[-83.92952,36.39233],[-83.93149,36.39224],[-83.93326,36.39327],[-83.93866,36.39397],[-83.94277,36.39685],[-83.94663,36.39847],[-83.94885,36.40106],[-83.95109,36.40046],[-83.95368,36.39739],[-83.95576,36.3935],[-83.95543,36.39276],[-83.95603,36.39058],[-83.95551,36.38766],[-83.95413,36.38555],[-83.95426,36.384],[-83.95823,36.381],[-83.95821,36.37972],[-83.95607,36.37786],[-83.9533,36.37458],[-83.95181,36.37067],[-83.95211,36.37022],[-83.95649,36.37093],[-83.96058,36.37044],[-83.96214,36.37284],[-83.96422,36.37347],[-83.967,36.37321],[-83.96934,36.37222],[-83.96977,36.36693],[-83.96878,36.36562],[-83.96823,36.36239],[-83.96872,36.35986],[-83.96775,36.35401],[-83.96715,36.3529],[-83.96502,36.35145],[-83.96256,36.34789],[-83.9634,36.34599],[-83.96567,36.34572],[-83.97118,36.34605],[-83.97393,36.3487],[-83.9782,36.34961],[-83.98062,36.3494],[-83.98343,36.34744],[-83.98391,36.34667],[-83.98878,36.34275],[-83.98954,36.34261],[-83.99468,36.3371],[-83.99427,36.33421],[-83.9948,36.33177],[-83.99348,36.32726],[-83.99369,36.32522],[-83.99531,36.32427],[-84.00079,36.32239],[-84.00491,36.32014],[-84.00712,36.32014],[-84.00929,36.32098],[-84.01485,36.32224],[-84.01602,36.32381],[-84.01818,36.32467],[-84.02063,36.32689],[-84.02266,36.32806],[-84.02509,36.32843],[-84.02599,36.32759],[-84.02597,36.32595],[-84.02552,36.32314],[-84.02472,36.32194],[-84.02422,36.31987],[-84.02462,36.31889],[-84.02454,36.317],[-84.02542,36.3154],[-84.02164,36.31152],[-84.01971,36.31096],[-84.01601,36.31092],[-84.01363,36.30917],[-84.0126,36.30787],[-84.01239,36.30667],[-84.01104,36.30452],[-84.00839,36.30217],[-84.00808,36.29481],[-84.00695,36.29225],[-84.0075,36.29078],[-84.01003,36.28851],[-84.01231,36.28853],[-84.01518,36.2902],[-84.01582,36.2913],[-84.02146,36.29583],[-84.02491,36.29603]]]}}
