{"type":"Feature","properties":{"id":"mossy-creek-jefferson","name":"Mossy Creek (Jefferson County)","waterbodyType":"creek","throughLakeIds":["cherokee-lake"],"allowOpenEnds":false,"source":"nhd-hu8-06010104","approximate":false,"labelAnchor":[-83.48373,36.12326],"bounds":[-83.508,36.09438,-83.47384,36.15975],"crs":"EPSG:4326","coordinateOrder":"longitude,latitude","partCount":1,"vertexCount":81,"lengthKm":12.73,"sourceIds":["138777288","138777355","138777418","138777475","138777217","138802741","138802740","138802739","138802918","138802900"],"sourceRetrieved":"2026-09-11","geometrySource":"nhd","hu8":"06010104","simplification":{"toleranceM":10,"verticesBefore":431,"verticesAfter":81,"budgetBytes":81920},"trace":{"anchor":{"lat":36.123263,"lon":-83.483734,"snapDistM":0},"up":{"spec":"headwater","reason":"headwater","terminus":[-83.48037,36.094377],"distKmFromAnchor":3.37},"down":{"spec":"mouth","reason":"name-change","terminus":[-83.494772,36.15975],"enteredNames":["Black Oak Creek"],"distKmFromAnchor":7.68},"vaaUsed":false,"toleranceM":12}},"geometry":{"type":"MultiLineString","coordinates":[[[-83.48037,36.09438],[-83.47991,36.09535],[-83.47985,36.09589],[-83.48025,36.0969],[-83.4812,36.09763],[-83.48135,36.0982],[-83.48104,36.09889],[-83.48127,36.09961],[-83.48068,36.10046],[-83.47865,36.10175],[-83.47742,36.10227],[-83.47631,36.10314],[-83.47613,36.10347],[-83.47598,36.10416],[-83.47607,36.10473],[-83.4767,36.10583],[-83.47701,36.10692],[-83.47714,36.10832],[-83.47702,36.10972],[-83.47725,36.11084],[-83.47721,36.11296],[-83.47704,36.11318],[-83.47717,36.11395],[-83.47686,36.11535],[-83.47616,36.11666],[-83.47466,36.11878],[-83.4741,36.12066],[-83.47384,36.12092],[-83.47388,36.12116],[-83.48373,36.12326],[-83.47413,36.12162],[-83.4744,36.12228],[-83.47587,36.12306],[-83.47682,36.12401],[-83.47788,36.12448],[-83.47858,36.12422],[-83.47854,36.1234],[-83.47872,36.12284],[-83.47947,36.12272],[-83.48052,36.12288],[-83.48161,36.12192],[-83.48211,36.12168],[-83.48297,36.12197],[-83.48335,36.12229],[-83.48373,36.12326],[-83.48429,36.12394],[-83.48564,36.12438],[-83.48653,36.12513],[-83.48656,36.12573],[-83.48604,36.12671],[-83.48668,36.12806],[-83.48667,36.12854],[-83.48714,36.12886],[-83.48745,36.12886],[-83.48873,36.1283],[-83.48947,36.12829],[-83.48989,36.12803],[-83.49083,36.12814],[-83.4913,36.12789],[-83.4922,36.12782],[-83.4929,36.12748],[-83.49482,36.12719],[-83.49696,36.12772],[-83.49841,36.12755],[-83.49928,36.12792],[-83.50183,36.12965],[-83.5024,36.12973],[-83.50465,36.13074],[-83.50599,36.13167],[-83.5051,36.13584],[-83.50584,36.13656],[-83.50681,36.13805],[-83.508,36.13935],[-83.50755,36.14135],[-83.50754,36.14281],[-83.5042,36.14746],[-83.50321,36.14987],[-83.50316,36.15141],[-83.50253,36.15266],[-83.50174,36.15319],[-83.49477,36.15975]]]}}
