{"type":"Feature","properties":{"id":"west-prong-little-pigeon","name":"West Prong Little Pigeon River","waterbodyType":"creek","throughLakeIds":[],"allowOpenEnds":false,"source":"nhd-hu8-06010107","approximate":false,"labelAnchor":[-83.52701,35.69952],"bounds":[-83.59351,35.62966,-83.41589,35.87441],"crs":"EPSG:4326","coordinateOrder":"longitude,latitude","partCount":1,"vertexCount":379,"lengthKm":50.57,"sourceIds":["{24811642-B9CA-4668-9F93-63CAD0B9FA10}","{D6DF2D2F-E1A1-440E-9763-C99BBB61F00C}","{6C9B8921-4FEC-485C-81F5-482FAB3C9CEF}","51638546","51638568","{6D6526CA-AFCF-4084-8BDE-9E234803E9AA}","{B4E9C88C-B76A-4476-BBCF-2C0EB486C3EF}","51638596","51638624","{A3B01CB5-78EA-405F-BCDE-82FE0C4005D6}","{A59D0CA4-4F49-48DE-A5DA-D62A222E4991}","{EEC71C5C-BD0D-4AF5-85F7-C1A196231838}","{96E7D427-12BB-4AA4-BEE0-4C5AF26AC078}","{751B0CF1-D432-4B26-89F9-98A0473E941D}","{85EB672D-14EF-464D-9D8F-9B8F340EC7EE}","{A9A58AB7-6819-43CE-B491-CE11C9674168}","{3668C814-5D98-44C7-A155-9C5CC2B42742}","{F3237427-1423-4B34-9BB0-24E05EB8978D}","{E9B07BFA-4A9F-428E-9BB3-4D8702F946E4}","{FB856DA4-6B25-4107-AFFD-1D7F52CC083A}","{3F956BC7-2085-4880-9DD7-4C4F11BBB8BE}","{4B16BCF2-7B5C-4B43-AC33-F3B53DFD1272}","{638D660F-B0D9-471E-9BEF-9707A9B223C1}","{956AF4F8-89D8-400A-BF58-D9E349199A78}","{2184A49B-C90C-4F44-B7C3-B615A23FE707}","{9FC5BCD4-237D-44A7-B1D8-7EBC4B4E2048}","{72E610DB-9F08-47E7-81B8-2F8657A5C56C}","{A2228B09-81FD-40E1-8EB3-80E0E0B2CABF}","{EF147C5F-C2F4-4148-AE46-3CD60AD69FB1}","{30DB7047-2F51-489F-A7EC-E12339874AC0}","{3C9B4ED3-991B-4B6A-BD76-842B0A3336A0}","{CFCDADF3-BFB2-4D3C-B267-2B742CFFB41E}","{224A0598-72D4-46A9-ABF7-3AB2476FF098}","{62355244-9767-4935-B7C7-6EC6AFCD3BE4}","{EE6555B9-552D-4DDD-9AA2-815767DD3F38}","{13E7FB64-37CC-41AA-A13B-5FDFF35B1B13}","{938FBA23-03AD-4098-A8CC-BBC9D10177C8}","{32248D04-71AB-482F-81E4-6301A2A5058E}","{232E1FF9-65E8-4FB2-A0A0-A13E83885B95}","{314434C6-61FD-4400-A7C7-AD33BC76EE65}","{47B480B1-B564-47D9-A29D-7094BE1C714E}","{E75AFEE1-D067-4C69-9D78-16185B4AA535}","{E9EEF097-6AF5-4DB4-A02F-EBCC9D8A2400}","{B82689D7-F114-4413-91A4-F3E773F57A4F}","{44A274F4-091F-40EF-A5A8-682B89B8D11E}","{A930AC98-8437-402D-9610-EE0E251B93AA}","{3CC756E7-5939-49D8-B3FF-8F7698B1BFE6}","{6151902F-15B1-4EEF-969A-A026E9644D3A}","51639074","51639064","51639036","51639024","51639022","51639016","{F97163B8-F35D-435E-9722-8C729868EF23}","{0EA8B390-BA3A-4B9E-A050-3E9C458132C7}","{915F18F1-8D3A-423C-89EF-9CCB60216E68}","{9CD2A110-FEC5-4FFA-AF80-B92EF03F7AC5}","{996E6C19-F1BF-4635-B020-85116027A8DE}","{39EEB713-F1AD-4031-88CF-4E21C199D5C1}","{825A85D4-5C41-4EA9-9FAA-A08C95CDB3CE}","{65D8ED34-4884-4FD4-9FF2-40325CCA48A0}","{D1468E8B-0E43-4EAB-A31B-0CCE9B3B0535}","{D1867A25-902F-4DEB-9D0A-348C152B3B67}","{5C461779-9452-4DDC-959F-792F8F5C48C2}","{6DE4E1D6-41DA-49E2-A32B-8F5CD38BC0DD}","{728BC3C0-3097-4A1D-8D14-004E2A28DC9D}","{655E8512-F0A9-4CDC-8F7C-30254C055A26}","{5181DA31-052E-4CB5-81AA-7B3111F8ADA9}","{3ED31154-C2CD-4F82-964A-79CCCED85B2C}","{E5FB03F1-41AC-4676-A684-3430789F219F}","{12F93DC6-3222-44E6-B510-15C5796C148C}","{C19837D5-DB5C-42FB-AF08-7E4BCE6FEE8C}","{515A46E2-537C-4D86-8BC4-FDDCEBE60FBE}","{3F4B09F5-9E31-4CA7-9411-987DB8C9C6E4}","{5F5B0D97-AEB0-4FAB-A1F2-77345FED74FC}","{46C15C28-DACB-4B4A-AF12-0301A810CF2C}","{1F246C34-A4C2-433E-B29D-8D07C924D42E}","{C84D6D77-3FE1-4E00-AF36-FB7DB5693453}","{4C8290C8-D3C7-41C3-8086-2F304EDFAA8B}","{65907E1E-131D-4B2A-814A-EF7412E1175F}","{A7C28AA3-D51C-43DD-994B-0E0803CCC478}","{E5CC7FCB-BA16-4936-9B3C-79B577F574EA}","{F9654F37-6A09-43FC-8223-3C06952FDB0B}","{E06E1601-0C2B-4B71-BE9F-9EDA6342A404}","{EF809AB4-58B2-4EDC-9A79-C891E830E575}","{C32D404E-5BE9-4DFB-B182-FC36671B15B2}","{7616E82F-9C4F-4FE2-9324-75DA369539BD}","{6B7980C0-A918-4A5B-88A3-922CD58E01C6}","51634934","51634832","{59EEEC13-ED88-4C60-AE61-151CFAE3E7B9}","{ED60500B-957F-4516-BBA2-56492CB90904}","{2345E56F-EC7C-4E44-9628-5412EC93437A}","{F332E9DE-949E-4E09-B509-E0A873207243}","{AAF98142-06F1-440F-85EA-39BA5B390F0A}","{1F3FDCA2-1F25-45A3-8946-C0C386EEEAEB}","{A69DE2A9-9AEF-4232-A334-2519D5556985}","{CCBE8F05-C982-479E-8C6B-D4C98288990C}","{7F1AA59E-E63A-4968-AB93-104ABA6E362A}","{C5AF80D4-33D8-49C7-9AF7-A37834E9E2FC}","{B0273E73-E2AC-45DE-98F2-3FB054FD59AC}","{67EA1E84-9F9F-486A-90B4-621CFF31B8F1}","{C26158BB-8AD8-4EC4-9C54-6AE27B5E3458}","{8E8BF318-2F82-49B2-9366-EA3F824BEEC6}","{2B9B2A42-B5AE-4AE9-BE1E-59845047A905}","{BEAA4783-A8EA-4E6C-92DA-B5C3BBA6C2B2}","{3219678B-A00D-4A23-AA54-66447A04FFA4}","{D9B31A95-A4C4-4CDF-A3A6-EAB0B6FDD272}","{1434A70E-B48D-44BB-A8BC-D68E3E9238C1}","{7D946DE1-AE79-4F48-A80F-9F17CFAE17D5}","{2E7EAD28-4552-4960-9AE9-F036611635A6}","{54AF8CEA-645B-4CBD-8A3E-AC8C95CC201D}","{A23B413E-462D-4422-A78F-1F0A4EF9AFCD}","{0B9E4C6B-0AB8-4BE7-8D1D-BAE4F6538BCC}","{A9C682C3-0077-4440-8A38-1B5ADEDC5882}","{3C19B867-076F-475E-89C6-592F709D2548}","{6E3C7E20-A25C-40FF-B8CF-71B94B4E3DC8}"],"sourceRetrieved":"2026-09-11","geometrySource":"nhd","hu8":"06010107","simplification":{"toleranceM":10,"verticesBefore":2070,"verticesAfter":379,"budgetBytes":81920},"trace":{"anchor":{"lat":35.6995,"lon":-83.5271,"snapDistM":8.1},"up":{"spec":"headwater","reason":"headwater","terminus":[-83.415889,35.635533],"distKmFromAnchor":19.51},"down":{"spec":"mouth","reason":"name-change","terminus":[-83.573596,35.874406],"enteredNames":["Little Pigeon River"],"distKmFromAnchor":30.49},"vaaUsed":false,"toleranceM":12}},"geometry":{"type":"MultiLineString","coordinates":[[[-83.41589,35.63553],[-83.41685,35.63541],[-83.41715,35.63554],[-83.41786,35.63554],[-83.41839,35.63577],[-83.41933,35.63569],[-83.42213,35.63613],[-83.4234,35.63582],[-83.42389,35.63553],[-83.42484,35.63567],[-83.42557,35.63557],[-83.42625,35.63522],[-83.42678,35.6347],[-83.4268,35.63448],[-83.42715,35.63435],[-83.42855,35.6348],[-83.42971,35.63466],[-83.43032,35.63473],[-83.43092,35.63458],[-83.43194,35.63467],[-83.43278,35.63497],[-83.43313,35.63487],[-83.43346,35.6345],[-83.43406,35.63444],[-83.43512,35.63358],[-83.43559,35.63365],[-83.43608,35.63348],[-83.43729,35.63406],[-83.43829,35.63398],[-83.43885,35.63363],[-83.43987,35.63383],[-83.44035,35.63342],[-83.4405,35.63302],[-83.44152,35.63232],[-83.44238,35.63202],[-83.4438,35.63237],[-83.44482,35.63222],[-83.44535,35.63154],[-83.44673,35.63061],[-83.44728,35.63052],[-83.44836,35.62996],[-83.45042,35.62966],[-83.45127,35.62973],[-83.45209,35.63002],[-83.45333,35.63075],[-83.45467,35.63067],[-83.45522,35.63139],[-83.45588,35.63163],[-83.45716,35.63165],[-83.45894,35.63096],[-83.4606,35.63168],[-83.46091,35.63219],[-83.46078,35.63292],[-83.46161,35.63327],[-83.46203,35.6337],[-83.46183,35.63506],[-83.4623,35.63607],[-83.46267,35.63651],[-83.46387,35.63648],[-83.46414,35.63669],[-83.46415,35.63707],[-83.46445,35.63731],[-83.46511,35.63713],[-83.4653,35.63686],[-83.46545,35.63634],[-83.46484,35.63549],[-83.46563,35.63448],[-83.46605,35.63427],[-83.46664,35.63421],[-83.47034,35.63492],[-83.47203,35.63611],[-83.47259,35.63608],[-83.47365,35.63526],[-83.47449,35.63535],[-83.47471,35.63549],[-83.47487,35.63602],[-83.47408,35.63745],[-83.47414,35.63779],[-83.47468,35.63837],[-83.47637,35.63919],[-83.47725,35.6391],[-83.47812,35.63876],[-83.47977,35.63865],[-83.48087,35.64007],[-83.48145,35.64046],[-83.48194,35.64012],[-83.48247,35.63922],[-83.48351,35.63867],[-83.48357,35.63818],[-83.48382,35.63791],[-83.48414,35.63773],[-83.48524,35.63766],[-83.48581,35.63719],[-83.4871,35.63705],[-83.48781,35.6373],[-83.48813,35.63763],[-83.48856,35.63771],[-83.48916,35.63766],[-83.49056,35.63709],[-83.49258,35.63739],[-83.49433,35.63715],[-83.49526,35.63765],[-83.49681,35.63815],[-83.49833,35.6393],[-83.49964,35.63962],[-83.50114,35.64058],[-83.50255,35.64088],[-83.50353,35.64083],[-83.50385,35.64096],[-83.50408,35.64132],[-83.5041,35.64206],[-83.5043,35.6426],[-83.50419,35.64319],[-83.50505,35.64416],[-83.50523,35.64528],[-83.50547,35.6456],[-83.50572,35.64573],[-83.50681,35.64581],[-83.50787,35.64564],[-83.50887,35.6469],[-83.51108,35.6484],[-83.51117,35.64913],[-83.51102,35.65001],[-83.51231,35.6508],[-83.5122,35.6511],[-83.51167,35.65157],[-83.51165,35.6526],[-83.51209,35.65306],[-83.51209,35.65388],[-83.51228,35.65428],[-83.51289,35.65483],[-83.51287,35.6558],[-83.51308,35.65627],[-83.51374,35.65664],[-83.51568,35.65672],[-83.51657,35.65709],[-83.5178,35.65811],[-83.51819,35.6582],[-83.51853,35.65848],[-83.51929,35.65944],[-83.51948,35.66071],[-83.51982,35.66148],[-83.51973,35.66205],[-83.52032,35.66263],[-83.52071,35.66366],[-83.52129,35.6639],[-83.52264,35.66541],[-83.52273,35.66609],[-83.52223,35.66713],[-83.52271,35.66767],[-83.52431,35.67081],[-83.52464,35.67081],[-83.52477,35.67094],[-83.5251,35.6723],[-83.52569,35.67302],[-83.52628,35.67501],[-83.52729,35.67669],[-83.52735,35.67705],[-83.52971,35.68017],[-83.53066,35.68065],[-83.53211,35.6818],[-83.5332,35.68297],[-83.53306,35.68354],[-83.53321,35.68458],[-83.53357,35.68531],[-83.53479,35.68701],[-83.53729,35.68913],[-83.53761,35.68973],[-83.53742,35.69032],[-83.5371,35.69059],[-83.53586,35.69104],[-83.5329,35.69169],[-83.53199,35.69288],[-83.5322,35.69383],[-83.53071,35.69506],[-83.5288,35.69575],[-83.52854,35.69658],[-83.5286,35.69761],[-83.52808,35.69807],[-83.52692,35.6986],[-83.52688,35.69908],[-83.52736,35.70057],[-83.5271,35.70147],[-83.52562,35.70362],[-83.52701,35.69952],[-83.52551,35.7038],[-83.52449,35.70557],[-83.5244,35.70608],[-83.52455,35.70696],[-83.52436,35.70729],[-83.52353,35.70795],[-83.52289,35.70888],[-83.52271,35.70957],[-83.52299,35.71013],[-83.52193,35.71153],[-83.52071,35.71196],[-83.51882,35.71292],[-83.5171,35.71345],[-83.51538,35.71367],[-83.51194,35.71354],[-83.51122,35.71398],[-83.51094,35.71444],[-83.51112,35.71518],[-83.51172,35.71608],[-83.5115,35.7178],[-83.51065,35.71992],[-83.51036,35.72121],[-83.51067,35.72357],[-83.51123,35.72421],[-83.51237,35.7263],[-83.51266,35.72629],[-83.51342,35.72585],[-83.51468,35.72461],[-83.51567,35.72431],[-83.51618,35.72436],[-83.51681,35.72646],[-83.51866,35.72844],[-83.51922,35.72953],[-83.52086,35.73549],[-83.52287,35.73825],[-83.52337,35.73945],[-83.52313,35.73994],[-83.52229,35.74034],[-83.52024,35.74058],[-83.51925,35.74092],[-83.51852,35.74168],[-83.51816,35.74258],[-83.51817,35.74344],[-83.51859,35.74422],[-83.51896,35.74442],[-83.52096,35.74443],[-83.52135,35.74455],[-83.52188,35.74504],[-83.52199,35.74551],[-83.52063,35.747],[-83.52044,35.74784],[-83.52098,35.74868],[-83.52235,35.74976],[-83.52248,35.75008],[-83.52222,35.75093],[-83.52372,35.75373],[-83.52348,35.75479],[-83.52158,35.75573],[-83.52097,35.75632],[-83.52092,35.75663],[-83.52186,35.7576],[-83.5224,35.7584],[-83.52295,35.76079],[-83.52476,35.76402],[-83.52582,35.76553],[-83.52576,35.76625],[-83.52612,35.7672],[-83.52774,35.76941],[-83.52848,35.76993],[-83.52956,35.77037],[-83.53225,35.77028],[-83.53289,35.77038],[-83.53483,35.77142],[-83.53739,35.7733],[-83.53876,35.77458],[-83.54012,35.77623],[-83.54141,35.77722],[-83.54341,35.77953],[-83.54529,35.78072],[-83.54612,35.78153],[-83.55043,35.78479],[-83.5531,35.78712],[-83.55489,35.78917],[-83.55727,35.79316],[-83.55811,35.79409],[-83.55988,35.7954],[-83.56462,35.79794],[-83.56757,35.80005],[-83.56941,35.80218],[-83.56952,35.80273],[-83.56929,35.80372],[-83.5694,35.80397],[-83.57239,35.8047],[-83.57317,35.80512],[-83.57371,35.80516],[-83.57537,35.80649],[-83.57642,35.80684],[-83.57749,35.80749],[-83.58012,35.80838],[-83.58049,35.80864],[-83.58049,35.80928],[-83.57995,35.81019],[-83.57928,35.81198],[-83.57925,35.81221],[-83.57955,35.81249],[-83.58026,35.81272],[-83.58105,35.8126],[-83.58306,35.81082],[-83.58489,35.81],[-83.58547,35.80902],[-83.58594,35.80865],[-83.58824,35.80825],[-83.59027,35.80936],[-83.59261,35.81133],[-83.59321,35.81302],[-83.5933,35.81354],[-83.59288,35.81392],[-83.59087,35.81449],[-83.5903,35.81491],[-83.58973,35.81557],[-83.58954,35.81626],[-83.59004,35.81676],[-83.59017,35.81742],[-83.59259,35.81919],[-83.59323,35.82013],[-83.59351,35.82095],[-83.59344,35.82137],[-83.59265,35.82212],[-83.59137,35.82259],[-83.59028,35.82275],[-83.58798,35.82271],[-83.58721,35.82236],[-83.58614,35.82155],[-83.58573,35.82118],[-83.58517,35.82024],[-83.58426,35.81956],[-83.5819,35.81876],[-83.58083,35.81796],[-83.58017,35.81791],[-83.57972,35.81851],[-83.57953,35.81909],[-83.57969,35.82039],[-83.58028,35.82127],[-83.58142,35.82204],[-83.58262,35.82335],[-83.58241,35.82482],[-83.58215,35.82518],[-83.58148,35.82551],[-83.57934,35.8258],[-83.5769,35.82551],[-83.57659,35.82564],[-83.57615,35.82626],[-83.57568,35.82641],[-83.57414,35.82609],[-83.57063,35.82433],[-83.56996,35.82414],[-83.56944,35.82422],[-83.56879,35.82505],[-83.56658,35.83051],[-83.56596,35.83139],[-83.56603,35.83259],[-83.56679,35.83395],[-83.56903,35.83654],[-83.56905,35.83718],[-83.56851,35.83857],[-83.56843,35.83945],[-83.56898,35.8408],[-83.57,35.84223],[-83.57004,35.84272],[-83.56887,35.84303],[-83.5681,35.84356],[-83.56867,35.84466],[-83.56917,35.84618],[-83.56914,35.84711],[-83.56892,35.84745],[-83.56851,35.84772],[-83.56481,35.84897],[-83.56253,35.85213],[-83.56237,35.85308],[-83.56249,35.85364],[-83.56386,35.85434],[-83.56449,35.85539],[-83.56479,35.85762],[-83.56617,35.85954],[-83.56788,35.86252],[-83.56874,35.86352],[-83.57023,35.86442],[-83.57136,35.86533],[-83.57385,35.86909],[-83.57418,35.8698],[-83.57429,35.87117],[-83.57357,35.87229],[-83.57338,35.87296],[-83.5736,35.87441]]]}}
