{"type":"Feature","properties":{"id":"gulf-fork-big-creek","name":"Gulf Fork Big Creek","waterbodyType":"creek","throughLakeIds":[],"allowOpenEnds":false,"source":"nhd-hu8-06010105","approximate":false,"labelAnchor":[-83.09083,35.8272],"bounds":[-83.19663,35.78429,-82.98069,36.02468],"crs":"EPSG:4326","coordinateOrder":"longitude,latitude","partCount":1,"vertexCount":472,"lengthKm":70.51,"sourceIds":["90671163","90671313","90671343","90671459","90671427","90671323","90671295","90671227","90671093","90671091","90670975","90670809","90670867","90671003","90671009","90671035","90671069","90671133","90671213","90671241","90671367","90671581","90671589","90671635","90671637","90671641","90671645","90671815","90671829","90671833","90671831","90671803","90671525","90671495","90671509","90671591","90671857","90672007","90672121","90672357","90672485","90672511","90672757","90673031","90673029","90673025","90672949","90671051","90671023","90670911","90670837","90670795","90670391","90670293","90670195","90669793","90669739","90669719","90669607","90669551","90669353","90669261","90669241","90669259","90669009","90668811","90668773","90668641","90668593","90668537","90668503","90668299","90668293","90668237","90668135","90668101","90668051","90668025","90668023","90667947","90667743","90667689","90667615","90667575","90667415","90667501","90667567","90667663","90667661","90667581","90667621","90667633","90667593","90667535","90667319","90667305","90667027","90667055","90666937","90666907","90666893","90666823","90666673","90666617","90666397","90666389","90666273","90665647","90665423","90665581","90665583","90665503","90665373","90665315","90665221","90665179","90664797","90664193","90663923","90663375","90663493","90663537","90663585","90663735","90663801","90664059","90664211","90664285","90664349","90664435","90664469","90664571","90664583","90664523","90664439","90664441","90664307","90664217","90663895","90663707","90663581","90663243","90663225","90663475","90663477","90663397","90663175","90663063","90662817","90662523","90661301","90661203","90661407","90661529","90661583","90661585","90661571","90661463","90661351","90661341","90661145","90660581","90660569","90660473","90660357","90660343","90660059","90659949","90659925","90659781","90659563","{CE91F356-99B7-4970-B8EF-5650B5D80718}","{E7C60B6A-026E-4BC3-9CEA-97CEE6DDA260}"],"sourceRetrieved":"2026-09-11","geometrySource":"nhd","hu8":"06010105","simplification":{"toleranceM":10,"verticesBefore":2322,"verticesAfter":472,"budgetBytes":81920},"trace":{"anchor":{"lat":35.827203,"lon":-83.090827,"snapDistM":0},"up":{"spec":"headwater","reason":"headwater","terminus":[-82.980686,35.784286],"distKmFromAnchor":15.52},"down":{"spec":"confluence:Big Creek","reason":"terminal-node","terminus":[-83.196226,36.024677],"enteredNames":null,"distKmFromAnchor":55.05},"vaaUsed":false,"toleranceM":12}},"geometry":{"type":"MultiLineString","coordinates":[[[-82.98069,35.78429],[-82.98142,35.78588],[-82.98191,35.78641],[-82.98257,35.78658],[-82.98497,35.78677],[-82.98623,35.78708],[-82.98849,35.78793],[-82.98979,35.78816],[-82.99192,35.788],[-82.99359,35.78758],[-82.99532,35.78652],[-82.996,35.78627],[-82.99694,35.78612],[-82.99842,35.78631],[-82.99935,35.78529],[-82.9997,35.78542],[-83.00152,35.78695],[-83.00259,35.78851],[-83.0027,35.78905],[-83.00318,35.78961],[-83.00726,35.7924],[-83.00848,35.79351],[-83.01063,35.79447],[-83.01174,35.79541],[-83.01178,35.7964],[-83.01152,35.79806],[-83.01166,35.79868],[-83.01245,35.79966],[-83.01319,35.80179],[-83.01473,35.80409],[-83.01474,35.80451],[-83.01681,35.80613],[-83.01767,35.80609],[-83.01806,35.80621],[-83.01871,35.80675],[-83.01881,35.80727],[-83.01977,35.80771],[-83.01967,35.80819],[-83.01901,35.80934],[-83.01914,35.8098],[-83.01979,35.81038],[-83.02001,35.81082],[-83.01932,35.81215],[-83.01967,35.81308],[-83.02179,35.81377],[-83.02449,35.81326],[-83.02474,35.81307],[-83.02527,35.81191],[-83.02563,35.81159],[-83.02724,35.81141],[-83.02756,35.81084],[-83.02858,35.8097],[-83.02926,35.8085],[-83.02948,35.80841],[-83.03019,35.80853],[-83.03127,35.80821],[-83.03246,35.8083],[-83.03288,35.80866],[-83.03344,35.81025],[-83.03386,35.81085],[-83.03351,35.81119],[-83.03173,35.81172],[-83.03155,35.81225],[-83.03195,35.81247],[-83.03332,35.81281],[-83.03412,35.81279],[-83.03559,35.81239],[-83.03636,35.81236],[-83.03888,35.8129],[-83.03978,35.81296],[-83.04031,35.81325],[-83.04062,35.81358],[-83.04154,35.8155],[-83.04154,35.81677],[-83.04187,35.81791],[-83.04405,35.81928],[-83.04572,35.81958],[-83.04708,35.82118],[-83.04719,35.82155],[-83.04703,35.82263],[-83.0472,35.82293],[-83.04946,35.82406],[-83.05077,35.82512],[-83.05271,35.82627],[-83.05337,35.82688],[-83.05504,35.82939],[-83.05675,35.83033],[-83.05754,35.83025],[-83.0588,35.82959],[-83.06036,35.82923],[-83.06306,35.82821],[-83.06471,35.82793],[-83.06602,35.82646],[-83.06681,35.82495],[-83.06736,35.82459],[-83.06819,35.82445],[-83.06939,35.82473],[-83.07046,35.82418],[-83.07228,35.82362],[-83.07292,35.82359],[-83.07643,35.82272],[-83.07843,35.82241],[-83.07995,35.82144],[-83.08057,35.82125],[-83.08278,35.82091],[-83.08411,35.82126],[-83.08504,35.82103],[-83.08779,35.82139],[-83.08969,35.82292],[-83.09249,35.82415],[-83.09297,35.82497],[-83.09282,35.82592],[-83.09261,35.82616],[-83.09083,35.8272],[-83.09244,35.82622],[-83.09137,35.8265],[-83.09083,35.8272],[-83.09088,35.82757],[-83.0922,35.82854],[-83.09398,35.82884],[-83.09482,35.8304],[-83.09525,35.83079],[-83.09846,35.83122],[-83.09986,35.83243],[-83.09999,35.83278],[-83.09989,35.83325],[-83.09796,35.83385],[-83.09722,35.8343],[-83.09737,35.83462],[-83.09839,35.83516],[-83.09862,35.83548],[-83.09814,35.83693],[-83.09779,35.8372],[-83.09629,35.83767],[-83.09573,35.83864],[-83.09579,35.84001],[-83.09441,35.84014],[-83.09305,35.84151],[-83.09313,35.84186],[-83.09422,35.84363],[-83.09468,35.84392],[-83.09729,35.84404],[-83.09862,35.84281],[-83.09909,35.84269],[-83.09989,35.84366],[-83.1012,35.84413],[-83.10244,35.845],[-83.10389,35.84747],[-83.10339,35.84775],[-83.10236,35.84754],[-83.10194,35.84772],[-83.10123,35.84989],[-83.10116,35.85056],[-83.10132,35.85117],[-83.10157,35.85144],[-83.10333,35.85199],[-83.10695,35.85395],[-83.10839,35.85434],[-83.10919,35.85484],[-83.10846,35.85503],[-83.10647,35.85493],[-83.10593,35.85522],[-83.1057,35.85562],[-83.10581,35.85627],[-83.10687,35.85756],[-83.107,35.85843],[-83.10644,35.85959],[-83.10487,35.86046],[-83.10463,35.86092],[-83.1053,35.86161],[-83.1067,35.86231],[-83.10695,35.86265],[-83.10687,35.86323],[-83.10651,35.86328],[-83.10541,35.8626],[-83.10346,35.86306],[-83.10269,35.86306],[-83.10125,35.86188],[-83.10078,35.86168],[-83.10026,35.86168],[-83.0999,35.8621],[-83.10003,35.86283],[-83.1003,35.86317],[-83.10171,35.8641],[-83.10184,35.86475],[-83.10172,35.86571],[-83.10141,35.86597],[-83.10091,35.86607],[-83.09906,35.86554],[-83.09846,35.86561],[-83.09852,35.86621],[-83.09897,35.86665],[-83.10045,35.86697],[-83.10067,35.86723],[-83.10063,35.8675],[-83.10021,35.86769],[-83.09766,35.86781],[-83.09728,35.86828],[-83.09749,35.86901],[-83.09895,35.86937],[-83.09959,35.86972],[-83.1,35.87082],[-83.10038,35.87108],[-83.10115,35.87115],[-83.10331,35.87049],[-83.10381,35.87045],[-83.10644,35.87125],[-83.10702,35.87166],[-83.10748,35.87225],[-83.10752,35.87342],[-83.1072,35.87406],[-83.10658,35.87447],[-83.10562,35.87475],[-83.10489,35.87468],[-83.10296,35.87355],[-83.10224,35.87346],[-83.10132,35.8737],[-83.09928,35.87461],[-83.09716,35.87436],[-83.0966,35.87445],[-83.09631,35.87467],[-83.0962,35.8751],[-83.09662,35.87733],[-83.09664,35.87868],[-83.0961,35.87921],[-83.09415,35.87982],[-83.09377,35.88009],[-83.09362,35.88058],[-83.09375,35.88083],[-83.09616,35.88221],[-83.09774,35.88436],[-83.09704,35.88509],[-83.0961,35.88509],[-83.0953,35.88534],[-83.0942,35.88883],[-83.09455,35.88941],[-83.09495,35.88972],[-83.09626,35.89036],[-83.09737,35.89048],[-83.09808,35.89078],[-83.09843,35.89137],[-83.09813,35.89162],[-83.09703,35.89161],[-83.09593,35.8918],[-83.09368,35.89261],[-83.09294,35.89315],[-83.0928,35.89384],[-83.09297,35.89417],[-83.09337,35.8944],[-83.09428,35.89442],[-83.09467,35.89457],[-83.09547,35.89547],[-83.09555,35.89614],[-83.09524,35.89725],[-83.09469,35.8977],[-83.09425,35.89763],[-83.09352,35.89708],[-83.09236,35.89563],[-83.09173,35.89517],[-83.0895,35.89484],[-83.08892,35.89482],[-83.08667,35.89591],[-83.08523,35.89622],[-83.08522,35.89587],[-83.08612,35.8936],[-83.08598,35.89269],[-83.08471,35.89166],[-83.08399,35.89127],[-83.08181,35.8905],[-83.08049,35.89051],[-83.07919,35.89101],[-83.0782,35.89174],[-83.07759,35.89195],[-83.07712,35.89178],[-83.07553,35.89025],[-83.07526,35.89012],[-83.07501,35.89018],[-83.0745,35.89064],[-83.07447,35.89114],[-83.07515,35.89318],[-83.07484,35.89337],[-83.07425,35.89342],[-83.07232,35.89316],[-83.07107,35.8925],[-83.07107,35.89224],[-83.0723,35.89146],[-83.07234,35.89119],[-83.07208,35.89075],[-83.07146,35.89061],[-83.07008,35.89086],[-83.0697,35.89125],[-83.06993,35.89229],[-83.06902,35.89288],[-83.06861,35.89352],[-83.06891,35.89473],[-83.06797,35.8953],[-83.06693,35.89542],[-83.06561,35.89522],[-83.06472,35.89491],[-83.06286,35.89387],[-83.06203,35.89372],[-83.06182,35.89594],[-83.06195,35.89695],[-83.06164,35.89727],[-83.06008,35.89819],[-83.05901,35.89807],[-83.05751,35.89758],[-83.05584,35.89766],[-83.05432,35.89838],[-83.05323,35.89862],[-83.05223,35.8996],[-83.05111,35.8995],[-83.04991,35.8989],[-83.04944,35.89896],[-83.04714,35.89997],[-83.04586,35.90074],[-83.04436,35.90228],[-83.04416,35.90279],[-83.04424,35.90668],[-83.04437,35.90704],[-83.04465,35.90719],[-83.04611,35.90735],[-83.04757,35.90794],[-83.04783,35.90855],[-83.04721,35.909],[-83.04588,35.90936],[-83.04444,35.9095],[-83.04375,35.90947],[-83.04265,35.90907],[-83.04187,35.90829],[-83.04132,35.90734],[-83.04091,35.90607],[-83.0406,35.90563],[-83.04025,35.90544],[-83.03766,35.9054],[-83.03534,35.90517],[-83.0342,35.90527],[-83.03397,35.90574],[-83.03391,35.90674],[-83.03504,35.90997],[-83.03443,35.90998],[-83.03304,35.90945],[-83.03191,35.9097],[-83.02905,35.90973],[-83.02775,35.91001],[-83.02683,35.91078],[-83.02678,35.91107],[-83.02767,35.91306],[-83.02733,35.91527],[-83.02764,35.917],[-83.02755,35.91824],[-83.0283,35.91903],[-83.02926,35.91871],[-83.0308,35.91848],[-83.03189,35.91798],[-83.03396,35.91749],[-83.03554,35.91732],[-83.03715,35.91762],[-83.03869,35.91829],[-83.04109,35.92018],[-83.04246,35.92232],[-83.04333,35.92674],[-83.04316,35.92781],[-83.04268,35.9288],[-83.0424,35.93317],[-83.0428,35.93669],[-83.04308,35.9376],[-83.04338,35.93808],[-83.04407,35.9387],[-83.04576,35.93993],[-83.05002,35.9435],[-83.05148,35.94514],[-83.0529,35.94604],[-83.05345,35.94622],[-83.05579,35.94605],[-83.05848,35.94497],[-83.06083,35.9448],[-83.06148,35.94463],[-83.06548,35.94205],[-83.06657,35.9412],[-83.06772,35.93989],[-83.06879,35.93912],[-83.07181,35.93819],[-83.07321,35.93793],[-83.0749,35.93711],[-83.08031,35.93636],[-83.08147,35.93661],[-83.08281,35.93732],[-83.08466,35.93794],[-83.08946,35.9387],[-83.09172,35.93889],[-83.0943,35.94031],[-83.09599,35.94178],[-83.09762,35.9435],[-83.09834,35.94437],[-83.09924,35.94596],[-83.10098,35.94763],[-83.1022,35.9493],[-83.10372,35.95072],[-83.10516,35.9527],[-83.10632,35.95375],[-83.10888,35.95434],[-83.11143,35.95474],[-83.112,35.9547],[-83.11439,35.95577],[-83.11481,35.9558],[-83.11867,35.95564],[-83.12184,35.95499],[-83.12671,35.95446],[-83.12778,35.95424],[-83.12891,35.95381],[-83.12962,35.95374],[-83.13011,35.9538],[-83.13071,35.95418],[-83.13237,35.95369],[-83.13436,35.95359],[-83.1358,35.95401],[-83.1369,35.95465],[-83.13778,35.95549],[-83.13807,35.95667],[-83.13692,35.9576],[-83.1363,35.95771],[-83.1361,35.95893],[-83.13589,35.95927],[-83.13521,35.95987],[-83.13353,35.96072],[-83.12973,35.9618],[-83.12576,35.96427],[-83.12446,35.96576],[-83.12395,35.96699],[-83.12339,35.96998],[-83.12358,35.97196],[-83.12405,35.97324],[-83.12413,35.97432],[-83.12319,35.97912],[-83.1232,35.98095],[-83.12266,35.98232],[-83.12277,35.98306],[-83.1234,35.98394],[-83.12413,35.98449],[-83.12535,35.98481],[-83.12828,35.9849],[-83.13005,35.98473],[-83.1325,35.98399],[-83.13724,35.98037],[-83.13849,35.97957],[-83.1409,35.97898],[-83.1436,35.97886],[-83.1471,35.97844],[-83.15122,35.97863],[-83.15324,35.979],[-83.15648,35.97986],[-83.15975,35.98123],[-83.16148,35.98284],[-83.16197,35.98389],[-83.16272,35.98463],[-83.16387,35.98625],[-83.16529,35.98887],[-83.16748,35.99172],[-83.16843,35.99436],[-83.16904,35.99531],[-83.16912,35.99679],[-83.16933,35.99739],[-83.17038,35.99873],[-83.17972,36.00764],[-83.18196,36.00928],[-83.18911,36.0124],[-83.19188,36.01416],[-83.19449,36.01692],[-83.19662,36.02194],[-83.19663,36.02428],[-83.19623,36.02468]]]}}
