{"type":"Feature","properties":{"id":"rocky-river","name":"Rocky River","waterbodyType":"creek","throughLakeIds":[],"allowOpenEnds":false,"source":"nhd-hu8-05130108","approximate":false,"labelAnchor":[-85.5228,35.5917],"bounds":[-85.61516,35.53339,-85.47775,35.79471],"crs":"EPSG:4326","coordinateOrder":"longitude,latitude","partCount":1,"vertexCount":428,"lengthKm":50.14,"sourceIds":["136990573","136990574","136990575","136990576","136990577","136990578","136990579","136991646","136991647","136992973","{70DCD0A9-5112-4DD0-97DE-03B8DC505819}","{9E476AC6-7B39-4177-B426-852247E4548B}","136992516","136990572","136990571","136990570","136990569","136990568","136990567","136990566","136990565","136990564","136990563","136990562","136990561","136990560","136990559","136990558","136990557","136990556","136994562","136994561","136994560","136994559","136994558","136994557","136994556","136994555","136994554","136994597"],"sourceRetrieved":"2026-09-11","geometrySource":"nhd","hu8":"05130108","simplification":{"toleranceM":10,"verticesBefore":2083,"verticesAfter":428,"budgetBytes":81920},"trace":{"anchor":{"lat":35.5917,"lon":-85.5228,"snapDistM":0.2},"up":{"spec":"headwater","reason":"headwater","terminus":[-85.484955,35.533386],"distKmFromAnchor":10.47},"down":{"spec":"mouth","reason":"name-change","terminus":[-85.602912,35.794715],"enteredNames":["Caney Fork"],"distKmFromAnchor":39.39},"vaaUsed":false,"toleranceM":12}},"geometry":{"type":"MultiLineString","coordinates":[[[-85.48495,35.53339],[-85.48313,35.53601],[-85.48198,35.53712],[-85.4818,35.53789],[-85.48058,35.53908],[-85.48002,35.53937],[-85.47935,35.53942],[-85.47868,35.53978],[-85.47826,35.53983],[-85.47779,35.54095],[-85.47775,35.542],[-85.478,35.54266],[-85.4779,35.54342],[-85.47826,35.54474],[-85.47808,35.54535],[-85.47842,35.54608],[-85.47814,35.54661],[-85.47824,35.54694],[-85.47872,35.54736],[-85.47829,35.54785],[-85.47865,35.54947],[-85.47831,35.55071],[-85.47858,35.55146],[-85.47978,35.55232],[-85.48111,35.55292],[-85.48232,35.55415],[-85.48371,35.55424],[-85.48555,35.5552],[-85.4857,35.55548],[-85.48514,35.55685],[-85.48519,35.55761],[-85.48559,35.55813],[-85.48592,35.55828],[-85.48751,35.55841],[-85.48849,35.55903],[-85.48878,35.56004],[-85.48874,35.56054],[-85.48931,35.56145],[-85.48902,35.56293],[-85.48967,35.56374],[-85.48938,35.56454],[-85.48945,35.56514],[-85.49004,35.56569],[-85.4911,35.56587],[-85.49195,35.56624],[-85.49153,35.56716],[-85.49166,35.56754],[-85.49221,35.56791],[-85.49298,35.56816],[-85.49323,35.56862],[-85.49428,35.56887],[-85.49482,35.56948],[-85.49546,35.57081],[-85.4965,35.57098],[-85.49759,35.5704],[-85.49806,35.57061],[-85.49846,35.5713],[-85.49914,35.57329],[-85.49965,35.5736],[-85.50047,35.5737],[-85.50201,35.5734],[-85.50285,35.57346],[-85.50335,35.57329],[-85.50361,35.57346],[-85.50364,35.57384],[-85.50317,35.57507],[-85.50309,35.57621],[-85.50269,35.57672],[-85.50296,35.57722],[-85.5038,35.57715],[-85.50481,35.57632],[-85.50557,35.57622],[-85.50602,35.57636],[-85.5078,35.57833],[-85.50994,35.579],[-85.51036,35.57925],[-85.51049,35.5795],[-85.51041,35.57985],[-85.50905,35.58039],[-85.50887,35.58064],[-85.50879,35.5809],[-85.50908,35.58134],[-85.50953,35.58147],[-85.50998,35.58135],[-85.51068,35.58061],[-85.51212,35.58065],[-85.51306,35.5808],[-85.51475,35.58188],[-85.51508,35.58226],[-85.51501,35.58248],[-85.51343,35.58385],[-85.51331,35.58428],[-85.51357,35.58466],[-85.51536,35.58458],[-85.517,35.58528],[-85.51756,35.58534],[-85.51778,35.58513],[-85.51744,35.58423],[-85.51758,35.58384],[-85.51786,35.58377],[-85.51823,35.58383],[-85.519,35.58442],[-85.51973,35.58472],[-85.52017,35.58528],[-85.52052,35.5868],[-85.52113,35.58718],[-85.52178,35.58807],[-85.52261,35.58851],[-85.5228,35.5917],[-85.52263,35.58859],[-85.52281,35.58875],[-85.52247,35.5894],[-85.523,35.59062],[-85.5228,35.5917],[-85.52207,35.59223],[-85.52067,35.59248],[-85.52053,35.59278],[-85.52062,35.5931],[-85.52103,35.59327],[-85.52225,35.5933],[-85.52437,35.59225],[-85.5247,35.59225],[-85.52497,35.59253],[-85.52469,35.59345],[-85.52366,35.59475],[-85.5235,35.59556],[-85.52344,35.59663],[-85.52414,35.59904],[-85.52445,35.59917],[-85.52541,35.59841],[-85.52607,35.59908],[-85.52691,35.59953],[-85.52733,35.59997],[-85.52884,35.59938],[-85.52941,35.59953],[-85.52991,35.59998],[-85.52981,35.60072],[-85.52874,35.60144],[-85.52817,35.60266],[-85.5283,35.60301],[-85.52892,35.60329],[-85.52923,35.60364],[-85.52913,35.60428],[-85.52876,35.60486],[-85.52791,35.60534],[-85.52673,35.60522],[-85.52546,35.60552],[-85.52433,35.60548],[-85.52374,35.60575],[-85.52324,35.60653],[-85.52363,35.60764],[-85.52346,35.60828],[-85.52246,35.60919],[-85.52119,35.61002],[-85.51981,35.61051],[-85.5193,35.61135],[-85.51856,35.61171],[-85.51754,35.61369],[-85.51646,35.6142],[-85.51577,35.61543],[-85.51562,35.61588],[-85.51578,35.61722],[-85.51633,35.61782],[-85.51776,35.61869],[-85.51916,35.61979],[-85.52038,35.61983],[-85.52102,35.6201],[-85.52191,35.62098],[-85.52254,35.62101],[-85.52268,35.6217],[-85.52369,35.62235],[-85.52399,35.62337],[-85.52522,35.62488],[-85.5265,35.62567],[-85.52821,35.62616],[-85.52844,35.62678],[-85.52822,35.62736],[-85.52825,35.62787],[-85.52881,35.62843],[-85.52994,35.63016],[-85.53016,35.63349],[-85.5304,35.63385],[-85.53188,35.63508],[-85.53258,35.63602],[-85.53333,35.63655],[-85.53402,35.63672],[-85.53761,35.63734],[-85.53799,35.6375],[-85.53858,35.63741],[-85.53902,35.63754],[-85.53921,35.63809],[-85.54094,35.64052],[-85.54103,35.641],[-85.54052,35.64135],[-85.54052,35.64155],[-85.54183,35.64272],[-85.54192,35.64464],[-85.54246,35.64545],[-85.54445,35.64623],[-85.54589,35.64622],[-85.54634,35.64604],[-85.54713,35.64633],[-85.54798,35.64645],[-85.54897,35.6471],[-85.54957,35.64784],[-85.5524,35.6487],[-85.55271,35.64867],[-85.55325,35.64931],[-85.55312,35.64955],[-85.55341,35.65007],[-85.55509,35.6508],[-85.55665,35.65207],[-85.55765,35.65332],[-85.55993,35.65454],[-85.56086,35.65482],[-85.56239,35.6557],[-85.56322,35.65639],[-85.56392,35.6567],[-85.56582,35.65598],[-85.5693,35.65617],[-85.56943,35.65657],[-85.57001,35.65723],[-85.57024,35.65737],[-85.57107,35.65744],[-85.57136,35.65762],[-85.5718,35.65914],[-85.57376,35.65964],[-85.57481,35.65968],[-85.57545,35.66013],[-85.5766,35.66052],[-85.57682,35.66086],[-85.57679,35.66124],[-85.57636,35.66151],[-85.57631,35.66187],[-85.57647,35.6622],[-85.57748,35.66285],[-85.57995,35.66343],[-85.58072,35.66383],[-85.58324,35.6645],[-85.58367,35.66521],[-85.58364,35.66569],[-85.58403,35.66621],[-85.58481,35.66669],[-85.58648,35.66722],[-85.58748,35.66853],[-85.58748,35.66911],[-85.58666,35.67012],[-85.58663,35.67177],[-85.58717,35.67308],[-85.58625,35.67452],[-85.58643,35.67615],[-85.58608,35.67684],[-85.5842,35.67844],[-85.5835,35.67957],[-85.58287,35.68008],[-85.58239,35.68111],[-85.58231,35.68171],[-85.58166,35.68213],[-85.57937,35.68309],[-85.57856,35.68404],[-85.57886,35.68525],[-85.57895,35.68756],[-85.5787,35.688],[-85.57873,35.68948],[-85.57795,35.69214],[-85.5787,35.69252],[-85.58003,35.69257],[-85.58054,35.6929],[-85.58064,35.69324],[-85.57974,35.69471],[-85.5793,35.695],[-85.57843,35.6951],[-85.57789,35.69539],[-85.57791,35.69614],[-85.57709,35.69708],[-85.57706,35.69789],[-85.57739,35.69989],[-85.57797,35.70148],[-85.57837,35.70195],[-85.57874,35.70285],[-85.57969,35.70399],[-85.57978,35.70565],[-85.58027,35.70708],[-85.58151,35.70841],[-85.58154,35.70886],[-85.58084,35.70964],[-85.58182,35.71108],[-85.58218,35.71198],[-85.58197,35.71244],[-85.58148,35.71261],[-85.58142,35.71278],[-85.57986,35.7137],[-85.57973,35.71426],[-85.57943,35.71453],[-85.57744,35.71395],[-85.57701,35.71416],[-85.57681,35.71629],[-85.57705,35.71694],[-85.57755,35.71715],[-85.57839,35.71714],[-85.58027,35.71679],[-85.58091,35.71692],[-85.58162,35.71739],[-85.58231,35.71858],[-85.58251,35.71938],[-85.58142,35.72055],[-85.58144,35.72083],[-85.58172,35.72101],[-85.58627,35.72119],[-85.58812,35.72159],[-85.58985,35.72215],[-85.59063,35.72249],[-85.59463,35.72537],[-85.59556,35.72569],[-85.59806,35.72618],[-85.59859,35.72644],[-85.59884,35.72673],[-85.5988,35.72708],[-85.59844,35.72752],[-85.59683,35.72853],[-85.59462,35.73048],[-85.59294,35.73339],[-85.59267,35.73458],[-85.59493,35.73795],[-85.59889,35.7407],[-85.59979,35.74145],[-85.59988,35.74176],[-85.59951,35.74209],[-85.598,35.74271],[-85.59711,35.74329],[-85.59627,35.74446],[-85.59578,35.74564],[-85.59551,35.74711],[-85.59617,35.74845],[-85.5967,35.75025],[-85.59661,35.75092],[-85.5956,35.7518],[-85.59437,35.75237],[-85.59277,35.7528],[-85.59232,35.75308],[-85.59186,35.75374],[-85.59187,35.75433],[-85.59339,35.75525],[-85.59598,35.75764],[-85.59728,35.75831],[-85.60132,35.75986],[-85.60202,35.75986],[-85.60362,35.75885],[-85.60565,35.75833],[-85.60646,35.75836],[-85.60815,35.75906],[-85.60902,35.75911],[-85.60939,35.75872],[-85.61011,35.75659],[-85.61038,35.75632],[-85.61072,35.75626],[-85.61132,35.75649],[-85.61231,35.75721],[-85.61446,35.75934],[-85.61507,35.76025],[-85.61516,35.76106],[-85.61482,35.76157],[-85.6119,35.7609],[-85.60912,35.76112],[-85.60689,35.76185],[-85.60353,35.76324],[-85.60283,35.7638],[-85.60288,35.76447],[-85.60328,35.76489],[-85.6038,35.76495],[-85.60455,35.76476],[-85.60559,35.76494],[-85.60668,35.76534],[-85.60753,35.7661],[-85.60761,35.76652],[-85.60722,35.76716],[-85.60578,35.76821],[-85.60464,35.76859],[-85.60433,35.76916],[-85.60626,35.76997],[-85.6076,35.77078],[-85.60814,35.77172],[-85.60826,35.77257],[-85.60803,35.77362],[-85.60721,35.77524],[-85.6066,35.7757],[-85.60545,35.77592],[-85.60483,35.77633],[-85.60448,35.7769],[-85.60455,35.77854],[-85.60586,35.77933],[-85.60608,35.77972],[-85.606,35.78003],[-85.60555,35.78025],[-85.60466,35.78021],[-85.60336,35.7798],[-85.60283,35.77987],[-85.6025,35.7801],[-85.60248,35.78067],[-85.60282,35.78185],[-85.60279,35.78263],[-85.60179,35.78472],[-85.6019,35.78531],[-85.60218,35.78553],[-85.60271,35.78555],[-85.60711,35.7847],[-85.60767,35.78416],[-85.60763,35.78342],[-85.60779,35.78293],[-85.60847,35.78265],[-85.6089,35.78273],[-85.60964,35.78318],[-85.61151,35.78393],[-85.61189,35.78428],[-85.61204,35.78473],[-85.61192,35.78507],[-85.61142,35.78553],[-85.61014,35.78629],[-85.60905,35.7866],[-85.60567,35.78675],[-85.60486,35.78695],[-85.60062,35.78994],[-85.60036,35.79043],[-85.6004,35.79099],[-85.60156,35.79205],[-85.60273,35.79353],[-85.60293,35.794],[-85.60291,35.79471]]]}}
