{"type":"Feature","properties":{"id":"daddys-creek","name":"Daddy’s Creek","waterbodyType":"creek","throughLakeIds":[],"allowOpenEnds":false,"source":"nhd-hu8-06010208","approximate":false,"labelAnchor":[-84.8225,35.99776],"bounds":[-85.09913,35.74633,-84.76558,36.07958],"crs":"EPSG:4326","coordinateOrder":"longitude,latitude","partCount":1,"vertexCount":632,"lengthKm":80.05,"sourceIds":["123939705","123939703","123939701","123939699","123939698","123939696","123939694","123939692","123939690","123939688","123939686","123939682","123939680","123935567","123935565","123935563","123935561","123935559","123935557","123935555","123935553","123935551","123935549","123935547","123935545","123935543","123935541","123935539","123935537","123935535","123935533","123935531","123935529","123935527","123935355","123935357","123935391","123935396","123935401","123936907","123936928","123936937","123936946","123936947","123936944","123936945","123936948","123936960","123936998","123936997","123936994","123936990","123936988","123941580","123941299","123941300","123941304","123941323","123941334","123941341","123941344","123941374","123941375","123941376","123941388","123941396","123941402","123941409","123941415","123941422","123941429","123941434","123941447","123941443","123941442","123941441","123941450","123941455","123939502","123939707","123937807","123937809","123937811","123937813","123937815","123937818","123937819","123937821","123937823","123937825","123937827","123937829","123937831","123937833","123937835","123937837","123937839","123937841","123937843","123937845","123937847","123937849","123937851","123937853","123937855","123937857"],"sourceRetrieved":"2026-09-11","geometrySource":"nhd","hu8":"06010208","simplification":{"toleranceM":10,"verticesBefore":2071,"verticesAfter":632,"budgetBytes":81920},"trace":{"anchor":{"lat":35.9977,"lon":-84.8225,"snapDistM":6.6},"up":{"spec":"headwater","reason":"headwater","terminus":[-85.097953,35.746326],"distKmFromAnchor":64.22},"down":{"spec":"confluence:Obed River","reason":"confluence","terminus":[-84.765582,36.079575],"enteredNames":["Obed River"],"distKmFromAnchor":14.99},"vaaUsed":false,"toleranceM":12}},"geometry":{"type":"MultiLineString","coordinates":[[[-85.09795,35.74633],[-85.09883,35.7473],[-85.09913,35.7491],[-85.09886,35.7498],[-85.09908,35.75043],[-85.0981,35.75195],[-85.09704,35.75276],[-85.09691,35.7535],[-85.09288,35.75514],[-85.09224,35.75591],[-85.09132,35.75668],[-85.08779,35.75738],[-85.08718,35.75737],[-85.08629,35.75814],[-85.08516,35.7585],[-85.08432,35.75904],[-85.08332,35.75933],[-85.08264,35.76056],[-85.08184,35.76093],[-85.08128,35.76182],[-85.08096,35.76186],[-85.08093,35.76228],[-85.08047,35.763],[-85.08015,35.76309],[-85.07996,35.76401],[-85.07938,35.76428],[-85.07899,35.76473],[-85.07836,35.76478],[-85.07819,35.76516],[-85.07716,35.76553],[-85.07596,35.76643],[-85.0756,35.76688],[-85.07501,35.76928],[-85.07347,35.77091],[-85.07355,35.77156],[-85.07196,35.77476],[-85.07056,35.77514],[-85.06975,35.77509],[-85.06925,35.77484],[-85.06909,35.77426],[-85.06813,35.77508],[-85.06791,35.77572],[-85.0676,35.77589],[-85.06524,35.77521],[-85.06385,35.77403],[-85.06349,35.77391],[-85.06332,35.77402],[-85.0631,35.77567],[-85.06252,35.77647],[-85.06211,35.77655],[-85.0611,35.77578],[-85.05975,35.77603],[-85.05925,35.77596],[-85.05904,35.77566],[-85.05907,35.77483],[-85.05848,35.77371],[-85.05745,35.77358],[-85.05658,35.77305],[-85.05525,35.77303],[-85.05424,35.77256],[-85.05348,35.77242],[-85.05346,35.77217],[-85.0533,35.77213],[-85.05218,35.77242],[-85.0521,35.77269],[-85.05147,35.77267],[-85.05082,35.77184],[-85.05029,35.77152],[-85.04926,35.77207],[-85.0483,35.77232],[-85.04765,35.77324],[-85.04621,35.77408],[-85.04605,35.77434],[-85.04624,35.77503],[-85.04576,35.77564],[-85.04647,35.77731],[-85.04699,35.7781],[-85.04547,35.7794],[-85.04516,35.78039],[-85.04652,35.7814],[-85.04656,35.78183],[-85.04545,35.7828],[-85.04522,35.78284],[-85.0447,35.78256],[-85.04438,35.78259],[-85.04368,35.78419],[-85.04202,35.78502],[-85.04326,35.78616],[-85.04329,35.78646],[-85.04273,35.78658],[-85.04184,35.7864],[-85.0414,35.78649],[-85.04122,35.7872],[-85.04051,35.78773],[-85.03995,35.78858],[-85.03863,35.7891],[-85.03854,35.78926],[-85.03879,35.78987],[-85.03942,35.79063],[-85.03952,35.79115],[-85.03937,35.79146],[-85.0385,35.79138],[-85.03811,35.79156],[-85.03796,35.79272],[-85.03847,35.79311],[-85.04012,35.79332],[-85.04018,35.79363],[-85.03905,35.79435],[-85.03805,35.79536],[-85.03761,35.79609],[-85.03643,35.79651],[-85.03517,35.79673],[-85.03506,35.79687],[-85.03522,35.79803],[-85.03489,35.79869],[-85.034,35.79954],[-85.03373,35.79952],[-85.03351,35.79928],[-85.03313,35.79737],[-85.03281,35.79706],[-85.03203,35.79683],[-85.03143,35.79683],[-85.03033,35.79705],[-85.02979,35.79739],[-85.02922,35.79838],[-85.02994,35.79954],[-85.02998,35.80003],[-85.02939,35.80074],[-85.02896,35.8019],[-85.02766,35.80212],[-85.0261,35.80195],[-85.02547,35.80206],[-85.02459,35.8019],[-85.02418,35.80198],[-85.02405,35.80215],[-85.02396,35.80302],[-85.02347,35.8038],[-85.02473,35.80554],[-85.02474,35.80608],[-85.02455,35.80623],[-85.02023,35.80674],[-85.01965,35.80658],[-85.01917,35.80671],[-85.01882,35.80653],[-85.0184,35.80654],[-85.01826,35.80633],[-85.01784,35.80632],[-85.01663,35.80677],[-85.01564,35.80645],[-85.01535,35.80652],[-85.01357,35.8107],[-85.01351,35.81263],[-85.01322,35.81308],[-85.01273,35.81341],[-85.01238,35.81354],[-85.01179,35.8135],[-85.00928,35.81281],[-85.00767,35.81259],[-85.00707,35.8126],[-85.00626,35.813],[-85.00607,35.81354],[-85.00633,35.81434],[-85.00685,35.81496],[-85.00734,35.81523],[-85.00755,35.81571],[-85.00809,35.81622],[-85.00788,35.81708],[-85.00809,35.81756],[-85.00883,35.81828],[-85.00969,35.81875],[-85.01097,35.819],[-85.01199,35.81975],[-85.01129,35.82042],[-85.01079,35.82069],[-85.00931,35.82109],[-85.00731,35.82139],[-85.00673,35.8217],[-85.00652,35.82213],[-85.00659,35.82261],[-85.00716,35.82325],[-85.00729,35.82373],[-85.00681,35.82439],[-85.00611,35.82456],[-85.00594,35.82487],[-85.00688,35.82561],[-85.00697,35.82602],[-85.0068,35.8265],[-85.00643,35.82673],[-85.00583,35.82665],[-85.00514,35.82601],[-85.00463,35.82614],[-85.00424,35.82648],[-85.00404,35.82691],[-85.00384,35.82855],[-85.00449,35.82955],[-85.00446,35.83029],[-85.0028,35.83084],[-85.00276,35.83177],[-85.00185,35.83284],[-85.00119,35.83297],[-84.99977,35.8328],[-84.9995,35.83295],[-84.99951,35.83325],[-84.99973,35.83351],[-85.00084,35.83408],[-85.00263,35.83546],[-85.00226,35.83593],[-85.00062,35.83702],[-85.00022,35.83774],[-84.99995,35.83891],[-84.99946,35.83903],[-84.99918,35.83893],[-84.99837,35.83805],[-84.99747,35.83756],[-84.99697,35.83769],[-84.99653,35.83826],[-84.99643,35.83873],[-84.99672,35.84071],[-84.99888,35.84259],[-84.9993,35.84311],[-84.99927,35.84347],[-84.99781,35.84357],[-84.99674,35.84199],[-84.99308,35.84225],[-84.99176,35.84188],[-84.98978,35.8406],[-84.98902,35.84061],[-84.98877,35.84097],[-84.98882,35.8414],[-84.98955,35.84262],[-84.98955,35.84344],[-84.98929,35.84382],[-84.98819,35.84434],[-84.98548,35.84432],[-84.98506,35.84451],[-84.98481,35.84482],[-84.98506,35.84529],[-84.98615,35.84575],[-84.98692,35.8463],[-84.9873,35.8469],[-84.98675,35.84876],[-84.98667,35.8505],[-84.98647,35.85091],[-84.98566,35.85158],[-84.98519,35.8518],[-84.98403,35.85188],[-84.98277,35.85257],[-84.98161,35.85276],[-84.98108,35.85259],[-84.98026,35.85179],[-84.97972,35.85157],[-84.97736,35.85164],[-84.97618,35.85187],[-84.97452,35.85165],[-84.97348,35.85124],[-84.97195,35.85113],[-84.96971,35.85199],[-84.96936,35.85225],[-84.96965,35.85348],[-84.97034,35.85392],[-84.97057,35.85455],[-84.97014,35.85511],[-84.96897,35.85511],[-84.96827,35.85531],[-84.96818,35.8557],[-84.96884,35.85663],[-84.96862,35.85698],[-84.96783,35.85704],[-84.96588,35.85592],[-84.96469,35.85608],[-84.9635,35.85669],[-84.96364,35.85833],[-84.96394,35.8591],[-84.96424,35.85931],[-84.96542,35.85963],[-84.96568,35.86013],[-84.9654,35.86064],[-84.96356,35.86166],[-84.96333,35.86197],[-84.96335,35.86233],[-84.9648,35.8638],[-84.96537,35.86537],[-84.96525,35.86633],[-84.96402,35.86782],[-84.96387,35.86862],[-84.964,35.86889],[-84.96443,35.86915],[-84.96614,35.86945],[-84.96674,35.87006],[-84.96761,35.87205],[-84.96951,35.87471],[-84.96958,35.87562],[-84.96932,35.87625],[-84.9688,35.87651],[-84.96722,35.87679],[-84.96696,35.87651],[-84.96655,35.8754],[-84.96599,35.8749],[-84.96563,35.87475],[-84.96489,35.87483],[-84.96308,35.87569],[-84.96209,35.87642],[-84.96161,35.87715],[-84.96172,35.87844],[-84.96105,35.8791],[-84.95774,35.87996],[-84.95573,35.88073],[-84.95326,35.88083],[-84.95031,35.88155],[-84.95006,35.88203],[-84.95025,35.88326],[-84.9506,35.88408],[-84.95113,35.88467],[-84.95356,35.88656],[-84.95397,35.88713],[-84.95408,35.88831],[-84.95375,35.88874],[-84.94869,35.89082],[-84.94604,35.89075],[-84.94397,35.89097],[-84.93808,35.89037],[-84.9367,35.89055],[-84.93503,35.89119],[-84.93475,35.89141],[-84.93461,35.89182],[-84.93482,35.89224],[-84.93581,35.89316],[-84.9379,35.89288],[-84.93955,35.89328],[-84.94112,35.89237],[-84.94191,35.89234],[-84.94243,35.89261],[-84.94264,35.89295],[-84.94269,35.89377],[-84.94181,35.8959],[-84.94069,35.89762],[-84.93956,35.8983],[-84.93882,35.89846],[-84.93763,35.89811],[-84.9353,35.89714],[-84.93434,35.89647],[-84.93385,35.89628],[-84.9331,35.89651],[-84.9316,35.89815],[-84.93136,35.89947],[-84.93101,35.89986],[-84.92904,35.90083],[-84.92753,35.90046],[-84.9265,35.90049],[-84.92542,35.90026],[-84.92367,35.89889],[-84.92283,35.8987],[-84.92207,35.89877],[-84.92033,35.89956],[-84.91641,35.8993],[-84.91319,35.89989],[-84.912,35.90033],[-84.91165,35.90076],[-84.91106,35.90246],[-84.91108,35.90548],[-84.91164,35.90631],[-84.91227,35.90641],[-84.91281,35.90617],[-84.91501,35.90364],[-84.91564,35.9033],[-84.91637,35.90343],[-84.91847,35.90463],[-84.91935,35.90538],[-84.91955,35.90583],[-84.91939,35.90642],[-84.91882,35.90726],[-84.91715,35.9085],[-84.91656,35.90855],[-84.91621,35.90841],[-84.91455,35.9074],[-84.91422,35.90738],[-84.91377,35.90767],[-84.91319,35.9084],[-84.91249,35.91017],[-84.9119,35.91091],[-84.91173,35.91226],[-84.91247,35.91293],[-84.91511,35.91403],[-84.91571,35.91401],[-84.917,35.91355],[-84.91773,35.91365],[-84.92025,35.91583],[-84.92052,35.91622],[-84.92077,35.91719],[-84.92044,35.91843],[-84.91993,35.91912],[-84.91674,35.91976],[-84.91625,35.91964],[-84.91548,35.91907],[-84.91406,35.91673],[-84.91382,35.9157],[-84.91345,35.91506],[-84.91317,35.91489],[-84.91243,35.91481],[-84.91181,35.91516],[-84.91131,35.91701],[-84.91155,35.91737],[-84.91258,35.91788],[-84.91279,35.91813],[-84.91289,35.91866],[-84.91262,35.9205],[-84.91265,35.92148],[-84.91471,35.92402],[-84.91486,35.92486],[-84.91469,35.92535],[-84.91389,35.92593],[-84.91156,35.92566],[-84.91041,35.92567],[-84.90983,35.92592],[-84.90934,35.92695],[-84.90914,35.92789],[-84.90989,35.92916],[-84.91011,35.93138],[-84.90933,35.93255],[-84.90884,35.93292],[-84.90754,35.93327],[-84.90714,35.93321],[-84.90602,35.93268],[-84.90515,35.93261],[-84.90441,35.93274],[-84.90265,35.93342],[-84.90196,35.93352],[-84.90079,35.93294],[-84.90032,35.93222],[-84.8996,35.93168],[-84.8983,35.93132],[-84.89371,35.93147],[-84.89158,35.93197],[-84.89018,35.93171],[-84.88746,35.93203],[-84.88624,35.93127],[-84.88415,35.9308],[-84.88329,35.93046],[-84.88238,35.9292],[-84.88146,35.92829],[-84.88082,35.92791],[-84.87798,35.92738],[-84.87629,35.92754],[-84.87591,35.9281],[-84.87619,35.92935],[-84.87831,35.93106],[-84.87899,35.93242],[-84.87889,35.93345],[-84.87828,35.93452],[-84.87758,35.93498],[-84.87663,35.93522],[-84.87572,35.93491],[-84.87495,35.93486],[-84.87284,35.93574],[-84.86989,35.93532],[-84.86892,35.93539],[-84.86804,35.93627],[-84.86644,35.93896],[-84.86573,35.93956],[-84.86517,35.94035],[-84.86532,35.94262],[-84.86471,35.94361],[-84.86429,35.9439],[-84.86292,35.94425],[-84.86041,35.94425],[-84.85932,35.94509],[-84.85909,35.94552],[-84.85916,35.94601],[-84.85893,35.94702],[-84.85898,35.94926],[-84.85956,35.95085],[-84.86017,35.95505],[-84.85993,35.95531],[-84.85975,35.95663],[-84.85937,35.95766],[-84.85892,35.95798],[-84.85608,35.95783],[-84.8534,35.95665],[-84.8499,35.95545],[-84.84852,35.95554],[-84.84644,35.95632],[-84.84628,35.9565],[-84.84647,35.95749],[-84.84754,35.9591],[-84.84825,35.95973],[-84.8487,35.95995],[-84.85,35.96014],[-84.85048,35.96056],[-84.85057,35.96165],[-84.85001,35.96295],[-84.85067,35.96484],[-84.85075,35.96567],[-84.85025,35.96642],[-84.84963,35.96677],[-84.8478,35.96711],[-84.84656,35.96764],[-84.84576,35.96878],[-84.84546,35.97044],[-84.84609,35.97192],[-84.84704,35.97351],[-84.84877,35.97492],[-84.84977,35.97627],[-84.85127,35.97775],[-84.85103,35.97835],[-84.8513,35.97956],[-84.85129,35.9817],[-84.85232,35.98414],[-84.85231,35.98442],[-84.85209,35.98459],[-84.85236,35.98501],[-84.85225,35.98568],[-84.85187,35.98609],[-84.85101,35.98659],[-84.84881,35.98707],[-84.84656,35.98704],[-84.8455,35.98684],[-84.84427,35.98694],[-84.84396,35.98709],[-84.84338,35.98807],[-84.84308,35.99051],[-84.84208,35.99212],[-84.84114,35.99268],[-84.83888,35.9935],[-84.83828,35.99391],[-84.83634,35.99589],[-84.83524,35.99638],[-84.83434,35.99713],[-84.83278,35.99741],[-84.83109,35.99736],[-84.8225,35.99776],[-84.83007,35.99744],[-84.8283,35.99763],[-84.82676,35.99762],[-84.8253,35.99776],[-84.82479,35.99795],[-84.82282,35.99776],[-84.82123,35.99783],[-84.81945,35.99888],[-84.81922,35.99948],[-84.82052,36.00074],[-84.82258,36.00206],[-84.82404,36.00256],[-84.82454,36.00296],[-84.82495,36.00393],[-84.82864,36.00684],[-84.82939,36.00772],[-84.82952,36.00809],[-84.82918,36.00877],[-84.82581,36.01006],[-84.8254,36.01044],[-84.8251,36.01105],[-84.82512,36.01154],[-84.82757,36.01265],[-84.82869,36.01373],[-84.82898,36.01449],[-84.82854,36.01563],[-84.82802,36.01627],[-84.82729,36.01681],[-84.8265,36.01704],[-84.82516,36.01704],[-84.8239,36.01741],[-84.82331,36.01809],[-84.8227,36.01955],[-84.82204,36.01995],[-84.82118,36.01987],[-84.81948,36.01927],[-84.81851,36.01939],[-84.8182,36.02096],[-84.81718,36.02219],[-84.81562,36.02292],[-84.81429,36.02308],[-84.81335,36.02337],[-84.81188,36.02464],[-84.80934,36.02832],[-84.80926,36.02902],[-84.80969,36.03029],[-84.81045,36.03099],[-84.81061,36.03134],[-84.81012,36.03432],[-84.81099,36.03515],[-84.81236,36.03594],[-84.81253,36.03631],[-84.81246,36.03687],[-84.81207,36.03793],[-84.81163,36.03847],[-84.81057,36.03923],[-84.80991,36.04011],[-84.80979,36.04064],[-84.80921,36.04151],[-84.80737,36.04239],[-84.80656,36.04327],[-84.80614,36.04422],[-84.80572,36.04463],[-84.80522,36.04483],[-84.80443,36.04483],[-84.80262,36.04404],[-84.80002,36.04383],[-84.79803,36.04407],[-84.79715,36.04459],[-84.79553,36.04501],[-84.79496,36.04534],[-84.79343,36.04725],[-84.79172,36.05056],[-84.79161,36.05224],[-84.79099,36.05268],[-84.79028,36.05353],[-84.78862,36.0561],[-84.78874,36.05644],[-84.79041,36.05737],[-84.79222,36.05786],[-84.79281,36.05845],[-84.79289,36.05909],[-84.79223,36.05935],[-84.7905,36.05936],[-84.7892,36.05963],[-84.78703,36.06085],[-84.78617,36.06172],[-84.7853,36.06322],[-84.78087,36.06382],[-84.78008,36.06413],[-84.77648,36.06634],[-84.7733,36.06665],[-84.77233,36.06705],[-84.77103,36.06888],[-84.76935,36.07054],[-84.76834,36.07207],[-84.7684,36.07337],[-84.76816,36.07445],[-84.76731,36.07661],[-84.76664,36.07766],[-84.76609,36.07896],[-84.76558,36.07958]]]}}
