{"type":"Feature","properties":{"id":"richardson-byrd-creek","name":"Richardson “Byrd” Creek","waterbodyType":"creek","throughLakeIds":[],"allowOpenEnds":false,"source":"nhd-hu8-06010205","approximate":false,"labelAnchor":[-83.12165,36.49353],"bounds":[-83.12251,36.46986,-83.09779,36.49698],"crs":"EPSG:4326","coordinateOrder":"longitude,latitude","partCount":1,"vertexCount":50,"lengthKm":5.74,"sourceIds":["44771444","44771447","44771442","44771408","44771410","44771590","44771652","44771722","44771764","44771816","44772204"],"sourceRetrieved":"2026-09-11","geometrySource":"nhd","hu8":"06010205","simplification":{"toleranceM":10,"verticesBefore":376,"verticesAfter":50,"budgetBytes":81920},"trace":{"anchor":{"lat":36.49353,"lon":-83.12165,"snapDistM":0.2},"up":{"spec":"headwater","reason":"headwater","terminus":[-83.099157,36.46986],"distKmFromAnchor":5.29},"down":{"spec":"mouth","reason":"name-change","terminus":[-83.122383,36.49698],"enteredNames":["Richardson Creek"],"distKmFromAnchor":0.43},"vaaUsed":false,"toleranceM":12}},"geometry":{"type":"MultiLineString","coordinates":[[[-83.09916,36.46986],[-83.09941,36.47116],[-83.10016,36.47248],[-83.09998,36.47272],[-83.09926,36.473],[-83.09825,36.47378],[-83.09779,36.47397],[-83.09924,36.47655],[-83.09873,36.47816],[-83.0989,36.479],[-83.09803,36.47997],[-83.09876,36.48195],[-83.09881,36.48258],[-83.09976,36.4834],[-83.10003,36.48661],[-83.10171,36.48901],[-83.10185,36.48962],[-83.1016,36.4911],[-83.1019,36.49209],[-83.10167,36.49299],[-83.1018,36.49327],[-83.10284,36.49392],[-83.10344,36.49464],[-83.10485,36.49552],[-83.10635,36.49562],[-83.10713,36.49544],[-83.10841,36.49392],[-83.1101,36.49462],[-83.11083,36.49555],[-83.1112,36.49577],[-83.11206,36.49503],[-83.11326,36.4948],[-83.11438,36.49406],[-83.11475,36.49402],[-83.115,36.49414],[-83.11543,36.49548],[-83.11586,36.4956],[-83.11617,36.49543],[-83.11656,36.49458],[-83.11707,36.49424],[-83.11792,36.49408],[-83.11966,36.49319],[-83.12085,36.49304],[-83.12133,36.49317],[-83.12165,36.49353],[-83.12142,36.49321],[-83.12165,36.49353],[-83.12169,36.49449],[-83.12251,36.49661],[-83.12238,36.49698]]]}}
