{"type":"Feature","properties":{"id":"pigeon-river","name":"Pigeon River (Hartford corridor)","waterbodyType":"river","throughLakeIds":[],"allowOpenEnds":false,"source":"nhd-hu8-06010106","approximate":false,"labelAnchor":[-83.17416,35.96044],"bounds":[-83.20338,35.69472,-83.02372,36.02623],"crs":"EPSG:4326","coordinateOrder":"longitude,latitude","partCount":1,"vertexCount":329,"lengthKm":60.79,"sourceIds":["132644926","132644941","132644947","132644960","132644970","132644983","132644986","132644988","132644990","132644992","132645005","132645019","132645023","132645027","132645031","132645033","132645050","132645062","132645082","132645126","132645176","132645179","132645180","132645192","132645208","132645214","132645228","132645232","132645256","132645263","132645279","132645300","132645309","132645353","132645362","132645376","132645392","132645401","132645425","132645511","132645545","132645566","132645585","132645597","132645624","132645632","132645688","132645721","132645723","132645773","132645797","132645859","{D23A4AAE-FC9E-4896-8214-63A94B307103}","132645838","{34B895E8-F396-474D-A358-2BBE3A7D3A79}","132645832","132645820","132645784","132645769","132645759","132645767","132645774","132645811","132645812","132645827","{194B3235-D22D-477F-B34C-3CF3C4199915}","132645844","132645864","132645869","132645885","132645887","{044E1832-231B-497C-883A-5E2B577DDA8B}","132645903","132645971","132645997","132646114","132646116","132646081","132646042","132646036","132646050","132646132","132646218","132646338","{7C981F79-4592-4420-B2D6-7AB3ADB4298A}","132646483","132646539","132646740","132646852","{3C1563CA-FE44-4212-975B-76DA318E43CE}","132646858","132646870","{482D6C4F-680E-4777-A1CE-97CA780CC88D}","{008774A7-0227-475D-98FB-654331659860}","132646896","{F7A7D2E4-631B-43CB-A733-30E8AA7726BF}","132646921","132646935","132646964","132646971","{2A35EEFC-5863-44C4-B8F1-C9A7F03A563B}","132647050","{1910C2BC-E998-4E43-A86B-FD465BD8E728}","{2C87A8DE-F478-4584-8345-7B537DBFC719}","{F93DD10C-B053-486B-A8C1-378363C1728C}","{F7C44A14-6FAD-430B-86EC-7C4251ED8295}","132647157","132647194","132647209","132647250","{4EFF89B7-109F-40D6-8BB9-A1283DC7836A}","132647330","132647344","132647372","132647390","132647492","{B4EBA360-3946-4EDD-89AE-8022F82D8261}","132647514","132647592","{D9D8204A-443B-4D8B-9BF3-69326A604A47}","{A1095D55-58C2-44D3-869D-C74CE8A26D65}","{8717C71D-4773-4D95-AB94-31151B2B889B}","{5619AE99-94CD-405F-9427-F3CD35C4B306}","{1E2B6E58-D3A9-481F-B42E-B0324CC6331E}","{40F0FA29-4073-4395-9536-1319DB74A609}","132647646","{4A8337E5-7A83-48F8-A989-5B3358FE91C8}","{8049769D-8282-430B-9BC2-0F7BF774243F}","{5CF9D6FD-E47D-4BCD-A850-1464F51B4BB3}","{D7017571-4917-43AD-8FBC-1973C5CCB199}","{A6BF24DF-1855-41E5-AA97-EE9DB675170D}","{FB67C31C-83C7-445F-8B78-11D873F03EAA}","{9F27F8E6-EF4B-426B-9F5B-B07D6B7E563D}","{F5D9AE1D-A420-47E0-89FE-E6DC76D34ABD}","132647622","{BB0EB0F8-D3DB-433A-8347-B21A05E94F69}","{FB59BA3A-F497-4E3A-B8AF-BC008DEDCE12}","{6718827B-717F-4FE5-AF27-844DC8D0CE5F}","132647416","{D9AA74DF-9487-44DD-8732-27D878F3E9EF}","132647384","132647424","{32601041-E68A-43F2-9DAE-E4DD94B8EFFB}","{FB688B99-CD5F-40CC-A437-D4916BE3B4DA}","{25A5CCB1-E48B-487F-AF9C-32AA1DD3FE0E}","132647498","{47879604-959B-47BE-A2F7-5E3EE6360307}","132647356","{DD0FE220-C2E9-49A4-86FF-A4196250C5E9}","132647311","132647294","132647350","132647412","{FDA95FB6-5E45-4102-B37E-195A136E39E9}","132647538","{AB55466C-82A9-4A66-828D-B237851AEBB3}","{44F73C57-ED7F-41B8-ABAB-E540F51541EC}","{388ED20F-AEC7-4053-B8E8-77D96A21B0FC}","{1BA3AE9D-160A-4772-9130-BD426264E1BA}","132647824","{AD854526-CE38-4F60-976A-B736C85DE781}","{96128E72-D1A3-42A6-88E9-ABEAAE70EF3C}","{5B7A9760-9454-42B5-826E-FD69536313C0}","{9568ACF6-6BF7-4DC0-89D5-70D6932B9266}","{6ECE61F1-D631-4DAA-96BC-4AE39B044837}","{8F400FF8-66D2-4AB8-81E8-76B3C63EB967}","132647862","{A4FF930A-3C7C-4C52-BDE6-B5600BEB30F6}","{BD2145F8-BDFC-4235-9DA0-574030668639}","132647867","{7B86F6D3-E8DA-47B9-8982-0D4E8D07F5FA}","{D244DFE5-6189-4D6D-864C-683BB10F5D3B}","{C037EEBA-A66E-4B91-945C-9F91E7A6A643}","{CD000CDF-E51C-42AD-8E20-6FFE9046D624}","132647871","{2959CB9C-2BC6-4930-850E-8906C809BC85}","{7484F3CF-7DF5-4583-A39B-5B269F4140C8}","{F49FD056-A2EF-4EA3-A72E-42FB414AF630}","132647966","{7EFE1030-18F5-4741-9E44-3AE7DD233A31}","{1881C06D-FFA0-499E-ADEE-E6F3138650F6}","{B8AB4BEA-D23D-41BF-8BC3-65F5A0810D0F}","{11CE4A75-7327-4522-BE46-977ADE0F18E4}","132648127","{60F8A044-403C-4633-AE50-D20907551C4D}","{D53B711E-40BC-4B34-A9DF-586168421752}","{519A967F-4689-429A-8994-6F4EA419998B}","{37EFEB87-A9FE-4A16-96B6-A34AFE060E65}","{5F1FD637-B4FA-46AE-961D-554F15963529}","{87286EA7-942B-40A0-B02C-8C9A7D954CD7}","{718C615D-6B98-4D0B-978C-EB02FF4D3DBE}","{930ED83A-2AAD-41F9-A6AD-0FB73DE7151D}","{31241470-5AEC-424E-B55F-FC75E07D7D15}","{2ADACAB6-7323-4BD1-9E6A-B201C7944FB7}","{BDD58043-CB27-4C8D-B301-84F39D895857}","132648148","{873CD7E8-3B17-44B1-95D1-A765CE4E50BC}","{9747101C-C247-4DB5-8A13-A4D601BA6ECE}","{F983D914-AC96-4918-95C2-318646E8ADF9}","132648176","132648234","{E262B4B2-A04C-40EA-9086-269EA66E3616}","132648323","{954D74DB-9328-4E75-BA63-69CBFF511DD7}","{D75194AB-AC65-4C37-918A-F216AB175655}","{F191B616-95DA-4562-8738-6A14DA9A2245}","{02E9C5F5-18D7-4012-B9F3-01DE73188AAE}","{B1C82029-CE30-441F-860F-0A0E74E9957F}","{BE2EE4BB-7B24-4E76-8A3A-EF141011B9A5}","{89984DD0-A5E5-433D-A448-79B481A5331E}","{B8C7056E-C2B7-48A7-B281-E1F66C45217F}","{4E9E1706-4048-47EB-9D41-471C23B94C4A}","{09B00EA8-90C3-4BF5-9004-2A1C9819AF6B}","{C1F83E59-B4FA-4AF8-9CFC-2468BD898126}","{7CA4C043-6ED2-4323-91C4-1E61B2A4FCD0}","{6817BA28-2461-406D-8304-BE4548E64981}","{25505335-AE26-4021-9236-0F5E1C9F7605}","{56989906-90C4-495B-B0DB-C17669B9BE37}","{ED10410F-8FC3-48F6-A9A4-20E6499D3686}","{79E536BF-FCA8-4D01-ABC3-C1AAF856EF55}","{7CA7F7D3-F2EA-468F-983B-65A0F11A0BA9}","{95C5CB2C-6F88-4729-AE5D-5982D6357C8D}","{C03EE995-1230-4FA7-B63A-117519DEA461}","{014767AE-0148-4A70-A89E-C828C15C47B7}","{A3CD83D1-8A3F-4546-B1C2-2D327335FF63}","{B81EEF6A-6744-4A79-996D-136F90E5B65C}","{D5C5CAC2-890A-4FA2-A087-F47EB3A17E6D}","{A6DAC6E5-C8B1-4C40-A225-1FD2032440D9}","{0315694B-3711-4E87-B941-CE13B288F41F}","{BAF94631-49CC-4C88-92D7-EF4A81C3F7E6}","{9ED68294-54A2-4998-BBD5-9F64AF95C7D1}","{3C6D820B-A621-454D-8DC3-90B117B79815}","132649586","{C94C2923-E099-49E9-8D69-E6116526A8A4}","{C9FFB90D-A44E-4840-B309-88024F65501E}","{E90300C2-AB3A-44EE-93E6-3B309F32C87C}","{6BCB0BD4-2737-4E5E-A0F5-08895888F247}","{1A496E03-4550-4FB4-83CD-DC5207B259AB}","{C43C1CDE-B06C-4684-B44E-C7314F809E28}","{C53C4135-1894-4AC5-8188-36EE7E6E8F80}","{6CC4E1AF-F0D9-4926-8777-2EE4124D0311}","132651032","132644922","132644912","132644905","132644903","132644880","132644873","132644860","132644857","132644853","132644838","132644832","132644831","132644828","132644826","132644822","132644819","132644818","132644815","147535015","{F15258EE-7E16-49C6-91C1-49F13A4182F3}"],"sourceRetrieved":"2026-09-11","geometrySource":"nhd","hu8":"06010106","simplification":{"toleranceM":10,"verticesBefore":3890,"verticesAfter":329,"budgetBytes":81920},"trace":{"anchor":{"lat":35.9606,"lon":-83.1743,"snapDistM":21.2},"up":{"spec":"dam:Waterville Lake","reason":"dam","terminus":[-83.05006850000001,35.6947035],"distKmFromAnchor":49.87},"down":{"spec":"mouth","reason":"terminal-node","terminus":[-83.19678800000001,36.024652],"enteredNames":null,"distKmFromAnchor":11.24},"vaaUsed":false,"toleranceM":12}},"geometry":{"type":"MultiLineString","coordinates":[[[-83.05009,35.69472],[-83.05078,35.69518],[-83.05126,35.6958],[-83.05133,35.69617],[-83.05067,35.69744],[-83.05014,35.70042],[-83.04992,35.70076],[-83.04918,35.70122],[-83.04833,35.70276],[-83.04884,35.70517],[-83.04878,35.70553],[-83.04856,35.70574],[-83.04639,35.7064],[-83.04491,35.70651],[-83.04428,35.7068],[-83.04323,35.70688],[-83.04081,35.70627],[-83.03799,35.70578],[-83.03614,35.70511],[-83.03551,35.70471],[-83.03427,35.70457],[-83.03291,35.70471],[-83.03186,35.70513],[-83.03064,35.70689],[-83.03065,35.70752],[-83.03105,35.70857],[-83.0322,35.71009],[-83.03222,35.71126],[-83.03246,35.71191],[-83.03394,35.71331],[-83.03509,35.71561],[-83.03579,35.71612],[-83.03708,35.71634],[-83.03924,35.71723],[-83.03929,35.71778],[-83.03989,35.71854],[-83.04076,35.72057],[-83.04061,35.72161],[-83.04084,35.7221],[-83.0409,35.7231],[-83.04062,35.7239],[-83.04012,35.72441],[-83.03933,35.72471],[-83.03683,35.72483],[-83.03238,35.72354],[-83.02903,35.72368],[-83.02841,35.72382],[-83.02801,35.72405],[-83.02751,35.72495],[-83.02703,35.72534],[-83.02563,35.72586],[-83.02427,35.7276],[-83.02381,35.72863],[-83.02372,35.72931],[-83.02392,35.7306],[-83.0257,35.7342],[-83.02567,35.73497],[-83.02505,35.73672],[-83.02526,35.73816],[-83.02559,35.73862],[-83.02648,35.7388],[-83.03021,35.73799],[-83.03114,35.73803],[-83.03375,35.73851],[-83.03576,35.7391],[-83.03723,35.73983],[-83.03787,35.74074],[-83.03791,35.7416],[-83.0359,35.74554],[-83.03569,35.74655],[-83.03427,35.74967],[-83.03377,35.75288],[-83.03385,35.75386],[-83.03371,35.75443],[-83.03385,35.75477],[-83.03485,35.75549],[-83.03567,35.75587],[-83.03717,35.75602],[-83.03883,35.75586],[-83.0424,35.75409],[-83.04494,35.75201],[-83.04609,35.75182],[-83.04652,35.75209],[-83.04754,35.75425],[-83.04818,35.75499],[-83.05026,35.75667],[-83.0509,35.75694],[-83.0515,35.75696],[-83.05318,35.75628],[-83.0545,35.75479],[-83.05556,35.75395],[-83.05703,35.75215],[-83.05963,35.75038],[-83.06078,35.74989],[-83.06253,35.74943],[-83.06349,35.74943],[-83.06522,35.75001],[-83.06704,35.75173],[-83.06878,35.75381],[-83.07126,35.75564],[-83.07144,35.75609],[-83.07128,35.75669],[-83.07189,35.75782],[-83.07281,35.75913],[-83.07531,35.76165],[-83.07617,35.76224],[-83.07814,35.76409],[-83.08062,35.76535],[-83.08167,35.76858],[-83.08204,35.76915],[-83.08281,35.76962],[-83.0831,35.77006],[-83.08452,35.77047],[-83.08644,35.77077],[-83.08885,35.77173],[-83.09283,35.7739],[-83.09428,35.77441],[-83.09631,35.77485],[-83.09944,35.77513],[-83.10265,35.77746],[-83.10552,35.77851],[-83.1088,35.78029],[-83.11013,35.78171],[-83.11339,35.78579],[-83.11741,35.78845],[-83.11748,35.78889],[-83.11716,35.78944],[-83.11523,35.7909],[-83.11461,35.79253],[-83.11471,35.79406],[-83.11523,35.79507],[-83.1158,35.7957],[-83.11746,35.79668],[-83.11971,35.79705],[-83.1214,35.79679],[-83.12435,35.79566],[-83.12635,35.79514],[-83.12807,35.79527],[-83.12995,35.79596],[-83.13115,35.79724],[-83.13199,35.79859],[-83.13295,35.80142],[-83.13527,35.80315],[-83.136,35.80392],[-83.13703,35.8046],[-83.13919,35.80696],[-83.141,35.80823],[-83.14194,35.80867],[-83.14473,35.81092],[-83.14491,35.81126],[-83.14502,35.81264],[-83.14489,35.81431],[-83.14524,35.81499],[-83.14678,35.81623],[-83.14878,35.81736],[-83.14907,35.81766],[-83.15096,35.81833],[-83.15094,35.81865],[-83.15202,35.81921],[-83.15258,35.81976],[-83.15351,35.81968],[-83.1542,35.81907],[-83.15573,35.81849],[-83.15791,35.81707],[-83.1599,35.81529],[-83.16202,35.81414],[-83.16455,35.81311],[-83.16772,35.81222],[-83.16892,35.81173],[-83.17359,35.81128],[-83.17734,35.81149],[-83.17805,35.81191],[-83.17864,35.81273],[-83.17848,35.81386],[-83.17768,35.81516],[-83.17766,35.81629],[-83.17839,35.81784],[-83.17997,35.81955],[-83.18118,35.82119],[-83.18251,35.82482],[-83.18269,35.82659],[-83.1823,35.82964],[-83.18132,35.83221],[-83.18011,35.83346],[-83.17822,35.83494],[-83.17734,35.83645],[-83.17704,35.83779],[-83.17763,35.83879],[-83.1786,35.8398],[-83.17973,35.84041],[-83.18128,35.84173],[-83.18383,35.84271],[-83.18616,35.84404],[-83.18713,35.84481],[-83.18776,35.84599],[-83.18816,35.84782],[-83.18811,35.84985],[-83.18843,35.85161],[-83.18867,35.85496],[-83.18855,35.8567],[-83.18988,35.86041],[-83.19034,35.86092],[-83.19022,35.86242],[-83.18996,35.86327],[-83.19005,35.86395],[-83.18972,35.86487],[-83.18988,35.86689],[-83.19074,35.86888],[-83.19259,35.86996],[-83.19248,35.87103],[-83.19269,35.87161],[-83.19569,35.87562],[-83.19698,35.87798],[-83.19767,35.88016],[-83.19767,35.88322],[-83.19807,35.88401],[-83.19796,35.88659],[-83.19768,35.88839],[-83.19695,35.889],[-83.18936,35.89171],[-83.18671,35.89202],[-83.18411,35.89164],[-83.18329,35.89215],[-83.18258,35.89307],[-83.18144,35.89528],[-83.18099,35.89651],[-83.18157,35.89834],[-83.18181,35.89993],[-83.18178,35.90057],[-83.18108,35.90218],[-83.1804,35.90302],[-83.17901,35.90364],[-83.17851,35.904],[-83.17625,35.90672],[-83.17496,35.90884],[-83.17356,35.91196],[-83.17333,35.91324],[-83.17339,35.91409],[-83.17528,35.919],[-83.17505,35.91976],[-83.17498,35.92104],[-83.17458,35.92183],[-83.17409,35.92198],[-83.17295,35.92414],[-83.1725,35.92562],[-83.17181,35.92664],[-83.17151,35.92837],[-83.17028,35.93036],[-83.16948,35.93306],[-83.16938,35.93473],[-83.16998,35.9364],[-83.17069,35.93698],[-83.17222,35.93747],[-83.17443,35.93763],[-83.17595,35.93806],[-83.17746,35.93876],[-83.17865,35.94],[-83.17896,35.94137],[-83.17888,35.94389],[-83.17869,35.94451],[-83.17836,35.94824],[-83.17857,35.95259],[-83.17837,35.95283],[-83.17833,35.95354],[-83.17758,35.9544],[-83.17684,35.95658],[-83.17568,35.95907],[-83.17565,35.95952],[-83.17266,35.96146],[-83.1721,35.964],[-83.1721,35.96485],[-83.1731,35.96528],[-83.17461,35.96658],[-83.17632,35.96719],[-83.18072,35.96776],[-83.18428,35.96858],[-83.18795,35.96883],[-83.18856,35.96916],[-83.18902,35.96911],[-83.18989,35.96872],[-83.19138,35.96857],[-83.19261,35.96874],[-83.19463,35.96938],[-83.19734,35.97062],[-83.19835,35.97142],[-83.20048,35.97528],[-83.20054,35.97563],[-83.20144,35.97673],[-83.20159,35.97718],[-83.20158,35.97817],[-83.20103,35.97914],[-83.19938,35.98135],[-83.19823,35.98245],[-83.19781,35.98326],[-83.19715,35.9837],[-83.19673,35.98614],[-83.19599,35.98831],[-83.19372,35.99164],[-83.19349,35.99218],[-83.19356,35.99249],[-83.19222,35.99447],[-83.1915,35.99634],[-83.19035,35.99737],[-83.18665,35.9978],[-83.18607,35.99807],[-83.1857,35.99868],[-83.18598,35.99957],[-83.18808,36.00142],[-83.19051,36.00478],[-83.19357,36.00699],[-83.19542,36.00745],[-83.19771,36.00953],[-83.19795,36.00998],[-83.20024,36.01163],[-83.20112,36.01274],[-83.20197,36.01471],[-83.2024,36.01627],[-83.20243,36.0172],[-83.20193,36.02014],[-83.20226,36.02103],[-83.20221,36.0215],[-83.20338,36.0248],[-83.20306,36.02527],[-83.20223,36.02592],[-83.20096,36.02623],[-83.19971,36.02615],[-83.19872,36.02584],[-83.19686,36.02499],[-83.19678,36.02465]]]}}
