{"type":"Feature","properties":{"id":"greasy-creek-polk","name":"Greasy Creek (Polk County)","waterbodyType":"creek","throughLakeIds":["lake-ocoee"],"allowOpenEnds":false,"source":"nhd-hu8-06020003","approximate":false,"labelAnchor":[-84.51656,35.14165],"bounds":[-84.57387,35.10928,-84.4884,35.14649],"crs":"EPSG:4326","coordinateOrder":"longitude,latitude","partCount":1,"vertexCount":172,"lengthKm":17.31,"sourceIds":["132752245","132752250","132752255","132752259","132752264","132752269","132750141","132752240","132752235","132752231","132752226","132752221","132752216","132752211","132752202","132752207","132752197","132752192","132752187","132752182","132752177","132760678","132760694"],"sourceRetrieved":"2026-09-11","geometrySource":"nhd","hu8":"06020003","simplification":{"toleranceM":10,"verticesBefore":791,"verticesAfter":172,"budgetBytes":81920},"trace":{"anchor":{"lat":35.141647,"lon":-84.516562,"snapDistM":0},"up":{"spec":"headwater","reason":"headwater","terminus":[-84.497383,35.119845],"distKmFromAnchor":6.07},"down":{"spec":"mouth","reason":"name-change","terminus":[-84.571879,35.109279],"enteredNames":["Ocoee River"],"distKmFromAnchor":11.47},"vaaUsed":false,"toleranceM":12}},"geometry":{"type":"MultiLineString","coordinates":[[[-84.49738,35.11985],[-84.49666,35.12043],[-84.49607,35.12057],[-84.4953,35.12122],[-84.49456,35.12143],[-84.49422,35.12173],[-84.49366,35.1218],[-84.4929,35.12251],[-84.49165,35.12294],[-84.48992,35.12306],[-84.4897,35.12443],[-84.4884,35.12501],[-84.48873,35.12535],[-84.48898,35.12663],[-84.48964,35.12709],[-84.49021,35.12851],[-84.49094,35.12935],[-84.49189,35.12981],[-84.49335,35.13104],[-84.49427,35.13151],[-84.49491,35.13139],[-84.49528,35.13034],[-84.4962,35.13208],[-84.49909,35.13351],[-84.49979,35.13369],[-84.49972,35.13404],[-84.49871,35.13449],[-84.49861,35.13469],[-84.49978,35.13512],[-84.50166,35.13621],[-84.50388,35.13678],[-84.50468,35.13803],[-84.50493,35.13885],[-84.50472,35.13952],[-84.505,35.13974],[-84.50596,35.14],[-84.5066,35.13977],[-84.50775,35.13975],[-84.50833,35.13993],[-84.50862,35.14034],[-84.50863,35.14074],[-84.50854,35.14127],[-84.5081,35.14184],[-84.50824,35.14247],[-84.51096,35.14401],[-84.51249,35.14417],[-84.51308,35.14437],[-84.51278,35.14523],[-84.5129,35.14597],[-84.51411,35.14649],[-84.51508,35.14649],[-84.51562,35.14605],[-84.51643,35.14484],[-84.51625,35.14446],[-84.51682,35.14341],[-84.51636,35.14261],[-84.51656,35.14165],[-84.51715,35.14108],[-84.51798,35.13971],[-84.51974,35.1374],[-84.52072,35.13731],[-84.5216,35.13647],[-84.52251,35.13661],[-84.52346,35.1363],[-84.52476,35.13614],[-84.52557,35.13578],[-84.52639,35.13504],[-84.52748,35.1355],[-84.52821,35.1356],[-84.52904,35.13602],[-84.52947,35.13602],[-84.53002,35.1358],[-84.53042,35.1353],[-84.53052,35.13462],[-84.5297,35.13275],[-84.5298,35.13229],[-84.53017,35.13205],[-84.53197,35.13152],[-84.53337,35.13186],[-84.5343,35.13272],[-84.53452,35.13313],[-84.53425,35.13353],[-84.53319,35.13399],[-84.53304,35.13445],[-84.53318,35.13472],[-84.53374,35.13503],[-84.5355,35.13529],[-84.53696,35.13523],[-84.53784,35.13567],[-84.53814,35.13563],[-84.53799,35.13466],[-84.53751,35.13414],[-84.53747,35.13376],[-84.5395,35.13244],[-84.54001,35.13252],[-84.54027,35.13225],[-84.54006,35.13154],[-84.53854,35.13093],[-84.53829,35.13062],[-84.53832,35.13033],[-84.53946,35.12907],[-84.54131,35.13002],[-84.54183,35.1299],[-84.54144,35.12927],[-84.54177,35.12727],[-84.5414,35.12643],[-84.54107,35.12615],[-84.54146,35.12554],[-84.54202,35.12535],[-84.54245,35.12494],[-84.54283,35.12482],[-84.54383,35.12489],[-84.54528,35.12515],[-84.54815,35.12651],[-84.54902,35.12654],[-84.54992,35.1271],[-84.5505,35.12716],[-84.55097,35.12678],[-84.55136,35.12617],[-84.55168,35.12501],[-84.55208,35.12494],[-84.55271,35.12522],[-84.55293,35.125],[-84.55282,35.12446],[-84.55203,35.12329],[-84.5524,35.12271],[-84.55316,35.12231],[-84.55431,35.12245],[-84.55528,35.12201],[-84.55701,35.12223],[-84.55824,35.12188],[-84.55967,35.12179],[-84.56009,35.12192],[-84.56095,35.12258],[-84.56149,35.12275],[-84.56207,35.12324],[-84.56259,35.12337],[-84.56297,35.12371],[-84.56372,35.12375],[-84.56422,35.12364],[-84.56456,35.12324],[-84.56306,35.12128],[-84.56252,35.12096],[-84.56269,35.12078],[-84.56325,35.12086],[-84.5642,35.12063],[-84.56399,35.11996],[-84.5635,35.11931],[-84.5636,35.11889],[-84.56435,35.11879],[-84.5657,35.11967],[-84.56643,35.11996],[-84.56818,35.12033],[-84.56834,35.12011],[-84.56798,35.11952],[-84.56802,35.11883],[-84.56895,35.1177],[-84.56995,35.11752],[-84.57194,35.11744],[-84.57278,35.11782],[-84.57373,35.1179],[-84.57387,35.11772],[-84.5735,35.11719],[-84.57232,35.11664],[-84.56937,35.11466],[-84.56943,35.11443],[-84.56987,35.11408],[-84.57144,35.11391],[-84.57245,35.1133],[-84.5713,35.11264],[-84.57041,35.11171],[-84.57188,35.10928]]]}}
