{"type":"Feature","properties":{"id":"salt-lick-creek","name":"Salt Lick Creek","waterbodyType":"creek","throughLakeIds":[],"allowOpenEnds":false,"source":"nhd-hu8-05110002","approximate":false,"labelAnchor":[-85.91858,36.62599],"bounds":[-85.93084,36.48268,-85.84385,36.66327],"crs":"EPSG:4326","coordinateOrder":"longitude,latitude","partCount":1,"vertexCount":283,"lengthKm":34.85,"sourceIds":["56291989","56292038","56292055","56292120","56292128","56292276","56292283","56292370","56292373","56292308","56292378","56292540","56292544","56292572","56292558","56292666","56292736","56292975","56293018","56293019","56293024","56293214","56293352","56293442","56293479","56293484","56293636","56293812","56293821","56293848","56293922","56293982","56294087","56294166","56294199","56294257","56294282","56294361","56294379","56294384","56294433","56294470","56294483","56294579","56294597","56294612","56294664","56294675","56294704","56294749","56294813","56294839","56294856","56294881","56294933","56291939","56291938","56291900","56291834","56291644","56291626","56291585","56291543"],"sourceRetrieved":"2026-09-11","geometrySource":"nhd","hu8":"05110002","simplification":{"toleranceM":10,"verticesBefore":4398,"verticesAfter":283,"budgetBytes":81920},"trace":{"anchor":{"lat":36.626,"lon":-85.9186,"snapDistM":2},"up":{"spec":"headwater","reason":"headwater","terminus":[-85.866997,36.48268],"distKmFromAnchor":27.53},"down":{"spec":"mouth","reason":"name-change","terminus":[-85.930838,36.663006],"enteredNames":["Barren River"],"distKmFromAnchor":7.35},"vaaUsed":false,"toleranceM":12}},"geometry":{"type":"MultiLineString","coordinates":[[[-85.867,36.48268],[-85.86589,36.48365],[-85.86508,36.4851],[-85.8636,36.48643],[-85.86034,36.48694],[-85.85983,36.48729],[-85.85694,36.48734],[-85.85551,36.48812],[-85.85328,36.48869],[-85.8532,36.48935],[-85.8526,36.48998],[-85.85212,36.4902],[-85.85222,36.49075],[-85.85181,36.49174],[-85.8513,36.49169],[-85.85055,36.49242],[-85.84969,36.49364],[-85.84985,36.49503],[-85.8494,36.49535],[-85.84882,36.49618],[-85.84825,36.49786],[-85.84799,36.4982],[-85.84807,36.49854],[-85.84784,36.49874],[-85.8474,36.4987],[-85.84683,36.49915],[-85.84684,36.49958],[-85.84728,36.49984],[-85.84751,36.50062],[-85.84738,36.50121],[-85.8469,36.502],[-85.84689,36.50296],[-85.84706,36.50339],[-85.84638,36.50508],[-85.84552,36.5065],[-85.84579,36.50691],[-85.84608,36.50843],[-85.8466,36.50963],[-85.84656,36.51074],[-85.84685,36.51113],[-85.84727,36.51284],[-85.84689,36.51301],[-85.84673,36.51353],[-85.84543,36.51461],[-85.84423,36.51593],[-85.84401,36.51626],[-85.84385,36.5172],[-85.84436,36.51889],[-85.84438,36.52111],[-85.84498,36.52211],[-85.84502,36.52317],[-85.84522,36.52332],[-85.84674,36.52361],[-85.84727,36.52417],[-85.84713,36.52475],[-85.84605,36.52576],[-85.84606,36.5272],[-85.84737,36.52849],[-85.84777,36.52913],[-85.84908,36.52989],[-85.84934,36.53026],[-85.84929,36.53075],[-85.84895,36.53127],[-85.84929,36.53223],[-85.84917,36.53287],[-85.84937,36.53455],[-85.84962,36.53519],[-85.85012,36.53559],[-85.85083,36.53665],[-85.8513,36.53812],[-85.85084,36.5398],[-85.85018,36.54054],[-85.85053,36.54155],[-85.85043,36.54242],[-85.85102,36.5428],[-85.85143,36.54286],[-85.85373,36.54222],[-85.85572,36.54191],[-85.85636,36.5422],[-85.85842,36.5437],[-85.85856,36.54402],[-85.85823,36.54453],[-85.85797,36.546],[-85.85855,36.54771],[-85.85867,36.54869],[-85.85835,36.54938],[-85.85695,36.55116],[-85.85701,36.55177],[-85.85763,36.55267],[-85.85789,36.55286],[-85.86125,36.55294],[-85.86428,36.55359],[-85.86552,36.55445],[-85.86624,36.55516],[-85.8678,36.55606],[-85.86813,36.5566],[-85.86837,36.5577],[-85.8682,36.55942],[-85.86703,36.56081],[-85.86641,36.56255],[-85.8668,36.56305],[-85.86665,36.56344],[-85.86716,36.56348],[-85.8674,36.5638],[-85.86874,36.56453],[-85.8695,36.56516],[-85.86977,36.56562],[-85.86983,36.56636],[-85.87023,36.56682],[-85.87038,36.56758],[-85.87008,36.56874],[-85.86934,36.5705],[-85.86818,36.57159],[-85.86812,36.57189],[-85.86859,36.57269],[-85.86925,36.5732],[-85.87195,36.57355],[-85.87301,36.57404],[-85.87379,36.57481],[-85.87396,36.57596],[-85.87364,36.57683],[-85.87246,36.57852],[-85.87167,36.57945],[-85.87117,36.57967],[-85.87072,36.58015],[-85.87007,36.58156],[-85.86865,36.58274],[-85.86847,36.58318],[-85.86853,36.5836],[-85.86896,36.58372],[-85.87167,36.58359],[-85.87287,36.58369],[-85.87656,36.58308],[-85.87787,36.58302],[-85.87817,36.58318],[-85.87895,36.58473],[-85.88033,36.58552],[-85.88124,36.58578],[-85.88221,36.58585],[-85.88402,36.58531],[-85.88446,36.58557],[-85.88459,36.58692],[-85.88491,36.58777],[-85.88481,36.58937],[-85.88463,36.58987],[-85.88433,36.59017],[-85.88364,36.59049],[-85.88181,36.5908],[-85.88032,36.59088],[-85.88003,36.59151],[-85.88025,36.59248],[-85.8807,36.59309],[-85.88177,36.59384],[-85.88364,36.59463],[-85.88445,36.59518],[-85.88493,36.59587],[-85.88493,36.59628],[-85.88452,36.59687],[-85.88401,36.59719],[-85.88335,36.59713],[-85.88235,36.59675],[-85.88111,36.59696],[-85.87967,36.59789],[-85.87951,36.59835],[-85.88038,36.59921],[-85.88118,36.59964],[-85.88208,36.59964],[-85.88252,36.5994],[-85.88294,36.59881],[-85.88402,36.59872],[-85.88591,36.59946],[-85.88865,36.60009],[-85.89014,36.60072],[-85.89096,36.60087],[-85.89146,36.60139],[-85.89168,36.60254],[-85.89138,36.60356],[-85.89052,36.60459],[-85.88903,36.60536],[-85.88819,36.60528],[-85.88738,36.6062],[-85.88686,36.60731],[-85.88648,36.60752],[-85.88668,36.60835],[-85.88652,36.60918],[-85.88542,36.61056],[-85.88485,36.61224],[-85.88555,36.61315],[-85.88583,36.61396],[-85.88626,36.61426],[-85.88871,36.61477],[-85.8891,36.61479],[-85.88969,36.61454],[-85.89054,36.61373],[-85.89132,36.61138],[-85.89282,36.6086],[-85.89401,36.60719],[-85.8945,36.60712],[-85.89636,36.60758],[-85.89734,36.60807],[-85.89782,36.6085],[-85.89957,36.61055],[-85.9005,36.61216],[-85.9011,36.61394],[-85.90074,36.61459],[-85.89982,36.61533],[-85.89977,36.61556],[-85.90062,36.61718],[-85.90126,36.61766],[-85.90244,36.61815],[-85.90301,36.62043],[-85.90302,36.62137],[-85.90328,36.6216],[-85.9036,36.62157],[-85.9044,36.62265],[-85.90589,36.62306],[-85.90678,36.62298],[-85.90996,36.6221],[-85.91277,36.62185],[-85.9145,36.62117],[-85.91488,36.62125],[-85.91583,36.62188],[-85.91656,36.62263],[-85.91715,36.62265],[-85.9179,36.62325],[-85.91787,36.62341],[-85.91735,36.6237],[-85.91873,36.62461],[-85.91846,36.62618],[-85.91703,36.62696],[-85.91858,36.62599],[-85.9154,36.62789],[-85.91428,36.62833],[-85.91372,36.62846],[-85.91128,36.62831],[-85.9099,36.62858],[-85.90911,36.62854],[-85.90769,36.62873],[-85.90713,36.62846],[-85.90581,36.62676],[-85.90553,36.62674],[-85.90484,36.6271],[-85.90484,36.62791],[-85.9052,36.62924],[-85.90647,36.63063],[-85.90615,36.63128],[-85.9048,36.63306],[-85.90515,36.63496],[-85.90569,36.636],[-85.90553,36.63682],[-85.9066,36.63749],[-85.90909,36.63731],[-85.91043,36.63791],[-85.91488,36.63852],[-85.91562,36.63871],[-85.91609,36.63904],[-85.9179,36.64214],[-85.91768,36.64281],[-85.91708,36.64363],[-85.91743,36.64508],[-85.91718,36.64585],[-85.91648,36.64627],[-85.91611,36.64685],[-85.91638,36.64865],[-85.91786,36.65098],[-85.91856,36.65258],[-85.92061,36.65473],[-85.9213,36.6558],[-85.9211,36.65684],[-85.91999,36.65797],[-85.92042,36.65937],[-85.92027,36.66006],[-85.92037,36.6604],[-85.92068,36.66065],[-85.92127,36.66081],[-85.92356,36.66076],[-85.92449,36.66148],[-85.92619,36.66224],[-85.92703,36.66283],[-85.928,36.6632],[-85.92894,36.66327],[-85.92979,36.66305],[-85.93084,36.66301]]]}}
