{"type":"Feature","properties":{"id":"big-rock-creek","name":"Big Rock Creek","waterbodyType":"creek","throughLakeIds":[],"allowOpenEnds":false,"source":"nhd-hu8-06040002","approximate":false,"labelAnchor":[-86.76286,35.52661],"bounds":[-86.83419,35.37185,-86.75355,35.57654],"crs":"EPSG:4326","coordinateOrder":"longitude,latitude","partCount":1,"vertexCount":345,"lengthKm":42.97,"sourceIds":["136616494","136616495","136616496","136616740","136616498","136616499","136616500","136616501","136616502","136616811","136616503","136616504","136613938","136613939","136613940","136613941","136613942","136613943","136613944","136613945","136613946","136613947","136613948","136613949","136613950","136613951","136613952","136616183","136616185","136616186","136616187","136615684","136612530","136616493","136616492","136616491"],"sourceRetrieved":"2026-09-11","geometrySource":"nhd","hu8":"06040002","simplification":{"toleranceM":10,"verticesBefore":3176,"verticesAfter":345,"budgetBytes":81920},"trace":{"anchor":{"lat":35.5266,"lon":-86.7629,"snapDistM":3.7},"up":{"spec":"headwater","reason":"headwater","terminus":[-86.834193,35.371855],"distKmFromAnchor":26.42},"down":{"spec":"mouth","reason":"name-change","terminus":[-86.77536300000001,35.576537],"enteredNames":["Duck River"],"distKmFromAnchor":13.54},"vaaUsed":false,"toleranceM":12}},"geometry":{"type":"MultiLineString","coordinates":[[[-86.83419,35.37185],[-86.83339,35.37225],[-86.83298,35.37273],[-86.83257,35.37416],[-86.832,35.37534],[-86.83131,35.37579],[-86.83102,35.37577],[-86.83053,35.37649],[-86.8279,35.37805],[-86.8267,35.37942],[-86.82518,35.38081],[-86.82442,35.38212],[-86.82443,35.38292],[-86.82426,35.38332],[-86.82317,35.38446],[-86.82244,35.38631],[-86.8219,35.38672],[-86.82204,35.38724],[-86.82078,35.38817],[-86.82023,35.38816],[-86.82024,35.38842],[-86.81981,35.38834],[-86.81966,35.38844],[-86.81953,35.38825],[-86.81938,35.38829],[-86.81777,35.38991],[-86.81808,35.39074],[-86.81785,35.39086],[-86.81744,35.3908],[-86.81734,35.39111],[-86.81673,35.39103],[-86.81619,35.39225],[-86.81603,35.3923],[-86.81559,35.39211],[-86.81512,35.39274],[-86.8147,35.393],[-86.81461,35.39325],[-86.8149,35.39361],[-86.81419,35.39381],[-86.81225,35.39553],[-86.81226,35.39612],[-86.81274,35.39665],[-86.8128,35.39698],[-86.81192,35.39764],[-86.81042,35.39938],[-86.81025,35.40035],[-86.80885,35.4014],[-86.80857,35.40179],[-86.80775,35.40372],[-86.80701,35.4066],[-86.80615,35.4073],[-86.80666,35.40826],[-86.80723,35.40869],[-86.80699,35.4092],[-86.80718,35.40942],[-86.80682,35.40955],[-86.80699,35.40973],[-86.80692,35.40992],[-86.80624,35.40994],[-86.80601,35.4101],[-86.80623,35.41053],[-86.80616,35.41091],[-86.80665,35.41117],[-86.80699,35.41214],[-86.80689,35.41246],[-86.80622,35.41251],[-86.80598,35.41311],[-86.80648,35.41414],[-86.80638,35.41556],[-86.8068,35.41632],[-86.80617,35.41676],[-86.80546,35.41698],[-86.80531,35.41721],[-86.80568,35.41772],[-86.80554,35.41844],[-86.80658,35.4194],[-86.80663,35.41963],[-86.80635,35.42028],[-86.8053,35.4213],[-86.80548,35.42181],[-86.8054,35.42202],[-86.80355,35.42208],[-86.80226,35.42419],[-86.80198,35.42612],[-86.8024,35.4265],[-86.80218,35.42682],[-86.8028,35.42786],[-86.803,35.43047],[-86.80285,35.43092],[-86.80216,35.4313],[-86.80185,35.43196],[-86.80133,35.43226],[-86.80143,35.43245],[-86.80203,35.43276],[-86.80202,35.43299],[-86.80091,35.43375],[-86.80018,35.43366],[-86.79997,35.43426],[-86.79967,35.43451],[-86.79926,35.43448],[-86.79892,35.43374],[-86.79872,35.43364],[-86.7982,35.43394],[-86.7973,35.43413],[-86.79651,35.43412],[-86.7956,35.43461],[-86.79488,35.43571],[-86.79376,35.43925],[-86.79334,35.44308],[-86.79282,35.44345],[-86.78791,35.44563],[-86.78669,35.44659],[-86.78592,35.44821],[-86.78582,35.44881],[-86.78667,35.45171],[-86.7868,35.45288],[-86.78676,35.45387],[-86.78617,35.45482],[-86.78518,35.45556],[-86.78397,35.45598],[-86.77912,35.45601],[-86.77727,35.45767],[-86.77637,35.45935],[-86.77486,35.46008],[-86.77464,35.46283],[-86.77526,35.46435],[-86.77545,35.46581],[-86.77591,35.46718],[-86.77616,35.46755],[-86.77692,35.46805],[-86.77661,35.46862],[-86.77712,35.46977],[-86.77607,35.47022],[-86.77541,35.46955],[-86.77476,35.46918],[-86.77424,35.46911],[-86.77256,35.47001],[-86.77178,35.47007],[-86.77084,35.4705],[-86.76989,35.47054],[-86.76918,35.4718],[-86.76922,35.47271],[-86.76871,35.47309],[-86.76864,35.47333],[-86.76879,35.47349],[-86.76934,35.47354],[-86.76983,35.4742],[-86.77055,35.47471],[-86.7718,35.47488],[-86.77228,35.47485],[-86.77282,35.47446],[-86.77505,35.47395],[-86.77571,35.474],[-86.77575,35.47445],[-86.77557,35.47477],[-86.7739,35.47603],[-86.77358,35.47661],[-86.77356,35.47702],[-86.77371,35.47766],[-86.77451,35.47899],[-86.77556,35.47987],[-86.77588,35.48037],[-86.77588,35.48071],[-86.77529,35.48098],[-86.77312,35.48123],[-86.77279,35.48107],[-86.77236,35.48049],[-86.77198,35.48047],[-86.77057,35.48141],[-86.7684,35.48254],[-86.76791,35.48304],[-86.76709,35.48309],[-86.76594,35.48352],[-86.76521,35.48411],[-86.76495,35.48402],[-86.76471,35.48338],[-86.76439,35.48313],[-86.76247,35.48309],[-86.76201,35.48329],[-86.762,35.48388],[-86.76137,35.48433],[-86.75908,35.48522],[-86.75877,35.48564],[-86.75872,35.48631],[-86.75917,35.48762],[-86.75933,35.48885],[-86.7599,35.48942],[-86.76049,35.48962],[-86.76213,35.49066],[-86.76153,35.49248],[-86.76157,35.49286],[-86.76218,35.49307],[-86.76486,35.49262],[-86.76531,35.49312],[-86.7651,35.49443],[-86.76475,35.49486],[-86.76285,35.49589],[-86.76126,35.49637],[-86.75927,35.49818],[-86.75852,35.49868],[-86.75715,35.49827],[-86.75541,35.49798],[-86.75438,35.4975],[-86.75399,35.49753],[-86.75377,35.49782],[-86.75355,35.50003],[-86.75462,35.50143],[-86.75489,35.50154],[-86.75533,35.50138],[-86.75678,35.49997],[-86.75734,35.49987],[-86.75778,35.50004],[-86.75883,35.50093],[-86.76014,35.50246],[-86.7602,35.50285],[-86.75994,35.50326],[-86.75923,35.50359],[-86.75791,35.50379],[-86.75762,35.50413],[-86.75784,35.50441],[-86.7596,35.50465],[-86.76215,35.50444],[-86.76344,35.5046],[-86.76676,35.50437],[-86.76727,35.50446],[-86.76754,35.50468],[-86.76723,35.50679],[-86.76655,35.50754],[-86.76434,35.50823],[-86.76351,35.50816],[-86.76194,35.50773],[-86.76059,35.50804],[-86.76021,35.50833],[-86.7593,35.50996],[-86.75846,35.51061],[-86.75836,35.51116],[-86.75704,35.51145],[-86.75638,35.5119],[-86.76286,35.52661],[-86.75635,35.51193],[-86.75523,35.51335],[-86.75545,35.51366],[-86.75785,35.5151],[-86.75859,35.51474],[-86.76005,35.51352],[-86.7605,35.5136],[-86.76078,35.51391],[-86.76096,35.51452],[-86.75979,35.51656],[-86.75984,35.51684],[-86.76026,35.51709],[-86.76098,35.51703],[-86.76308,35.51609],[-86.76347,35.51609],[-86.76378,35.51633],[-86.76425,35.51766],[-86.76444,35.51895],[-86.76544,35.52007],[-86.76517,35.52042],[-86.76371,35.52089],[-86.76334,35.52118],[-86.76323,35.52369],[-86.76376,35.52512],[-86.76294,35.52631],[-86.76288,35.52669],[-86.76331,35.5269],[-86.76485,35.52697],[-86.76808,35.52675],[-86.76884,35.52703],[-86.76934,35.5276],[-86.7699,35.52922],[-86.76975,35.52946],[-86.76868,35.53017],[-86.76838,35.53285],[-86.76768,35.53352],[-86.76562,35.53441],[-86.76536,35.53484],[-86.7662,35.53563],[-86.76831,35.53657],[-86.76911,35.53766],[-86.76899,35.53812],[-86.76721,35.53904],[-86.76676,35.53956],[-86.76677,35.54033],[-86.7678,35.54315],[-86.76812,35.54339],[-86.77101,35.54407],[-86.77156,35.54431],[-86.77179,35.54458],[-86.77145,35.54515],[-86.77007,35.54658],[-86.76751,35.54816],[-86.76705,35.54867],[-86.76707,35.54927],[-86.76743,35.54987],[-86.76799,35.55027],[-86.76961,35.5509],[-86.76977,35.55118],[-86.76963,35.55152],[-86.76901,35.55178],[-86.76809,35.55179],[-86.76719,35.55161],[-86.76613,35.55119],[-86.76429,35.55244],[-86.76408,35.55286],[-86.76402,35.55382],[-86.76379,35.55403],[-86.76293,35.5541],[-86.76069,35.55378],[-86.75994,35.55504],[-86.75948,35.55673],[-86.76021,35.55991],[-86.76055,35.56034],[-86.76129,35.56033],[-86.76216,35.55999],[-86.76409,35.55845],[-86.76448,35.55845],[-86.76467,35.55867],[-86.76454,35.55933],[-86.7631,35.56141],[-86.76207,35.56333],[-86.76056,35.56449],[-86.7608,35.56497],[-86.76206,35.56529],[-86.76264,35.56584],[-86.76248,35.56649],[-86.76142,35.56818],[-86.76148,35.56876],[-86.76268,35.56948],[-86.7652,35.56982],[-86.76607,35.57008],[-86.76796,35.57111],[-86.77063,35.57162],[-86.77092,35.57148],[-86.77106,35.57111],[-86.7711,35.56898],[-86.77056,35.56731],[-86.77082,35.56712],[-86.77115,35.56713],[-86.77278,35.56797],[-86.77397,35.5692],[-86.7744,35.5699],[-86.77454,35.57359],[-86.7749,35.57549],[-86.77536,35.57654]]]}}
