{"type":"Feature","properties":{"id":"ocoee-river","name":"Ocoee River (upper, Copperhill reach)","waterbodyType":"river","throughLakeIds":["blue-ridge-lake"],"allowOpenEnds":false,"source":"nhd-hu8-06020003","approximate":false,"labelAnchor":[-84.37687,34.99119],"bounds":[-84.38053,34.66149,-84.0671,34.99244],"crs":"EPSG:4326","coordinateOrder":"longitude,latitude","partCount":1,"vertexCount":688,"lengthKm":97.36,"sourceIds":["132764897","132764893","132764894","132764837","132764838","132764839","132764840","132764841","132764842","132764831","132764832","132764833","132764834","132764829","132764830","132764843","132764844","132764845","132764846","132764847","132764848","132764849","132764850","132764851","132764852","132764797","132764853","132764888","132764890","132757388","132764962","132764965","132764966","132764969","132764971","132764973","132764976","132764982","132764984","132764988","132764991","132764994","132765025","132765026","132765027","132765028","132765029","132765030","132765031","132765032","132765033","132765034","132765035","132765037","132765038","132765039","132765041","132765042","132765043","132765044","132765045","132765046","132765047","132765048","132765051","132765049","132765050","132765052","132765053","132765054","132765055","132765056","132765057","132765058","132765059","132765060","132765061","132765062","132751866","132751871","132751876","132751881","132751886","132755081","132755086","132755091","132755100","132755095"],"sourceRetrieved":"2026-09-11","geometrySource":"nhd","hu8":"06020003","simplification":{"toleranceM":10,"verticesBefore":4418,"verticesAfter":688,"budgetBytes":81920},"trace":{"anchor":{"lat":34.9915,"lon":-84.3766,"snapDistM":42.5},"up":{"spec":"headwater","reason":"headwater","terminus":[-84.118702,34.664517],"distKmFromAnchor":94.94},"down":{"spec":"mouth","reason":"name-change","terminus":[-84.380526,34.992444],"enteredNames":["Ocoee River"],"distKmFromAnchor":1.25},"vaaUsed":false,"toleranceM":12}},"geometry":{"type":"MultiLineString","coordinates":[[[-84.1187,34.66452],[-84.11701,34.66466],[-84.11477,34.66441],[-84.11224,34.66465],[-84.10946,34.6635],[-84.10704,34.66336],[-84.10589,34.66263],[-84.10492,34.66248],[-84.10369,34.6619],[-84.10229,34.66149],[-84.10185,34.66152],[-84.10064,34.66202],[-84.09873,34.66197],[-84.09504,34.66305],[-84.09307,34.66333],[-84.09101,34.66295],[-84.09027,34.66308],[-84.08936,34.66352],[-84.08922,34.6639],[-84.08759,34.66456],[-84.08636,34.6657],[-84.08588,34.66581],[-84.08529,34.66658],[-84.08398,34.66657],[-84.08315,34.66735],[-84.08166,34.66717],[-84.08008,34.66751],[-84.07901,34.66742],[-84.07757,34.66921],[-84.07715,34.67057],[-84.07734,34.67101],[-84.07746,34.67239],[-84.07785,34.67272],[-84.07797,34.67348],[-84.07842,34.67381],[-84.07872,34.6743],[-84.07884,34.67555],[-84.07846,34.67614],[-84.07718,34.67663],[-84.07666,34.6771],[-84.07653,34.67778],[-84.077,34.67877],[-84.07694,34.68021],[-84.07609,34.68061],[-84.07589,34.68116],[-84.07589,34.68157],[-84.07688,34.68309],[-84.07684,34.68334],[-84.07637,34.68386],[-84.07625,34.6848],[-84.07762,34.68662],[-84.07792,34.6873],[-84.07717,34.68952],[-84.07753,34.69041],[-84.07763,34.69203],[-84.07699,34.69261],[-84.07656,34.69459],[-84.07668,34.69566],[-84.0778,34.6964],[-84.07774,34.69669],[-84.07729,34.69716],[-84.07737,34.69775],[-84.07787,34.69825],[-84.07834,34.69838],[-84.07884,34.69909],[-84.08041,34.69989],[-84.08053,34.70043],[-84.08022,34.70067],[-84.07917,34.70085],[-84.07895,34.7011],[-84.07876,34.70277],[-84.07802,34.70374],[-84.07785,34.70453],[-84.07757,34.70488],[-84.07628,34.70558],[-84.07525,34.70715],[-84.07324,34.70813],[-84.07198,34.70903],[-84.07174,34.7102],[-84.0724,34.71051],[-84.07232,34.71086],[-84.07123,34.71127],[-84.07048,34.71174],[-84.07023,34.71204],[-84.06999,34.71291],[-84.06872,34.71204],[-84.06851,34.71202],[-84.06817,34.7123],[-84.06731,34.71408],[-84.0671,34.71552],[-84.06735,34.71605],[-84.06829,34.71661],[-84.0685,34.71699],[-84.06902,34.71731],[-84.0695,34.71786],[-84.07043,34.71803],[-84.07044,34.71865],[-84.07096,34.71915],[-84.07137,34.71993],[-84.07162,34.72007],[-84.07196,34.71975],[-84.07227,34.71972],[-84.07328,34.7201],[-84.07396,34.71987],[-84.07509,34.72022],[-84.07589,34.71998],[-84.07725,34.72019],[-84.07812,34.72016],[-84.07869,34.72031],[-84.07961,34.72084],[-84.07965,34.72121],[-84.07922,34.72148],[-84.07984,34.72186],[-84.08073,34.72211],[-84.08084,34.72279],[-84.08226,34.72375],[-84.08256,34.7246],[-84.08374,34.72584],[-84.08379,34.72626],[-84.08348,34.72741],[-84.08393,34.72854],[-84.08426,34.72893],[-84.08406,34.72915],[-84.0835,34.72928],[-84.08362,34.72985],[-84.0835,34.73011],[-84.08271,34.73026],[-84.08165,34.7302],[-84.08126,34.73046],[-84.08115,34.73078],[-84.08135,34.73121],[-84.08242,34.73163],[-84.08232,34.73315],[-84.08296,34.73412],[-84.08295,34.73572],[-84.08256,34.73636],[-84.08215,34.73661],[-84.07985,34.73685],[-84.07964,34.73702],[-84.07967,34.73795],[-84.08016,34.7384],[-84.08064,34.73856],[-84.08212,34.73829],[-84.08519,34.73857],[-84.08653,34.73992],[-84.08746,34.74018],[-84.08824,34.74017],[-84.08867,34.73989],[-84.08881,34.73952],[-84.0887,34.73789],[-84.08892,34.7361],[-84.08995,34.73531],[-84.0909,34.7338],[-84.09122,34.73354],[-84.09279,34.73378],[-84.09598,34.73339],[-84.09897,34.73384],[-84.1006,34.73349],[-84.10105,34.73392],[-84.1018,34.73421],[-84.10261,34.73416],[-84.10397,34.73435],[-84.10447,34.7339],[-84.10565,34.7338],[-84.10658,34.73403],[-84.10761,34.73298],[-84.10838,34.73289],[-84.10921,34.73251],[-84.11027,34.73269],[-84.11116,34.73356],[-84.11319,34.73389],[-84.11426,34.73444],[-84.11484,34.7351],[-84.11546,34.73642],[-84.11616,34.73659],[-84.1165,34.73745],[-84.11667,34.73755],[-84.11724,34.7374],[-84.12023,34.7348],[-84.12091,34.73451],[-84.12119,34.73461],[-84.12151,34.73498],[-84.12111,34.73573],[-84.12168,34.73648],[-84.12206,34.73671],[-84.12323,34.73699],[-84.12481,34.73884],[-84.12573,34.7393],[-84.12745,34.73953],[-84.13212,34.73919],[-84.13365,34.73893],[-84.13481,34.73923],[-84.13787,34.7396],[-84.13971,34.73947],[-84.1405,34.7391],[-84.14118,34.73898],[-84.1414,34.73918],[-84.14194,34.74071],[-84.14263,34.74166],[-84.14304,34.74184],[-84.14334,34.74179],[-84.14367,34.74138],[-84.14458,34.74094],[-84.14618,34.74083],[-84.147,34.7402],[-84.14755,34.74008],[-84.14824,34.74039],[-84.14915,34.74116],[-84.15109,34.74214],[-84.15216,34.7433],[-84.15362,34.74437],[-84.15388,34.74502],[-84.15357,34.74568],[-84.15247,34.74579],[-84.15178,34.74614],[-84.15213,34.74736],[-84.15188,34.74788],[-84.15155,34.74816],[-84.14985,34.74871],[-84.14798,34.74871],[-84.14558,34.74909],[-84.14533,34.74923],[-84.14496,34.75043],[-84.14496,34.75123],[-84.14535,34.75156],[-84.14716,34.7518],[-84.14833,34.75172],[-84.15052,34.75123],[-84.15175,34.75156],[-84.15237,34.75206],[-84.15317,34.75324],[-84.15308,34.75365],[-84.15239,34.75452],[-84.15248,34.75514],[-84.15284,34.75567],[-84.15333,34.7559],[-84.15387,34.75671],[-84.15423,34.75683],[-84.15469,34.75672],[-84.15505,34.75634],[-84.15506,34.75334],[-84.15523,34.75269],[-84.15553,34.75255],[-84.15653,34.75263],[-84.15678,34.75249],[-84.15808,34.75124],[-84.15826,34.75044],[-84.15937,34.74989],[-84.16063,34.74878],[-84.16065,34.74846],[-84.16035,34.74795],[-84.15908,34.74742],[-84.15809,34.74673],[-84.1582,34.74616],[-84.15947,34.74541],[-84.1596,34.74511],[-84.15939,34.7448],[-84.15776,34.74354],[-84.15735,34.74261],[-84.15753,34.74188],[-84.15777,34.74163],[-84.15972,34.74085],[-84.15977,34.74012],[-84.15941,34.73932],[-84.15965,34.73871],[-84.16,34.73852],[-84.16083,34.73849],[-84.16159,34.73918],[-84.16339,34.73992],[-84.16618,34.74001],[-84.16767,34.73962],[-84.16801,34.73931],[-84.16784,34.73838],[-84.16714,34.7371],[-84.16732,34.73652],[-84.16758,34.73628],[-84.16883,34.73619],[-84.17036,34.73679],[-84.1711,34.73689],[-84.17171,34.73683],[-84.17366,34.7362],[-84.1744,34.7362],[-84.17632,34.7367],[-84.17728,34.7372],[-84.17975,34.73765],[-84.18071,34.73805],[-84.18127,34.7385],[-84.18129,34.73895],[-84.18105,34.7392],[-84.1799,34.73985],[-84.1788,34.7402],[-84.17855,34.74044],[-84.17887,34.74167],[-84.17926,34.74242],[-84.17986,34.74282],[-84.18121,34.74332],[-84.18165,34.74413],[-84.1816,34.74487],[-84.18122,34.74607],[-84.18015,34.74669],[-84.17968,34.74745],[-84.17965,34.74784],[-84.18082,34.7495],[-84.18194,34.75058],[-84.18183,34.75122],[-84.18211,34.75341],[-84.18238,34.75435],[-84.18383,34.75617],[-84.18443,34.75725],[-84.18506,34.75778],[-84.1856,34.75793],[-84.18647,34.7579],[-84.18764,34.75727],[-84.18954,34.7546],[-84.19027,34.75424],[-84.19203,34.75486],[-84.19269,34.75539],[-84.19556,34.7566],[-84.19757,34.75698],[-84.19912,34.75762],[-84.20193,34.75763],[-84.20356,34.75821],[-84.2062,34.75739],[-84.20763,34.75755],[-84.21035,34.75735],[-84.21213,34.75752],[-84.21567,34.75933],[-84.21843,34.75972],[-84.21974,34.76011],[-84.2214,34.76084],[-84.223,34.7621],[-84.22413,34.76205],[-84.22563,34.76154],[-84.2293,34.76231],[-84.23144,34.76212],[-84.23255,34.76216],[-84.23493,34.76126],[-84.23758,34.76076],[-84.23814,34.76084],[-84.23929,34.76137],[-84.24235,34.76195],[-84.24414,34.76195],[-84.24574,34.76139],[-84.24643,34.76144],[-84.24682,34.76166],[-84.24934,34.76453],[-84.2496,34.76502],[-84.24967,34.76587],[-84.24946,34.76633],[-84.24813,34.76732],[-84.24699,34.769],[-84.24691,34.76967],[-84.24741,34.77115],[-84.24723,34.77214],[-84.24686,34.77279],[-84.24616,34.7736],[-84.24461,34.77428],[-84.2443,34.77467],[-84.24437,34.77666],[-84.24416,34.77752],[-84.24324,34.77861],[-84.24113,34.77964],[-84.24076,34.78012],[-84.24009,34.78211],[-84.24043,34.78326],[-84.24053,34.78472],[-84.23941,34.78801],[-84.2394,34.78886],[-84.23993,34.78995],[-84.24139,34.79068],[-84.24355,34.79127],[-84.2485,34.79152],[-84.25174,34.79107],[-84.25255,34.79044],[-84.25346,34.78898],[-84.25787,34.78624],[-84.2601,34.78298],[-84.26111,34.78235],[-84.26203,34.78213],[-84.2631,34.78266],[-84.2643,34.78412],[-84.26422,34.78479],[-84.26283,34.78571],[-84.26256,34.78637],[-84.26295,34.78672],[-84.26475,34.78746],[-84.26512,34.78786],[-84.26529,34.78851],[-84.26487,34.79071],[-84.26525,34.79158],[-84.26577,34.79205],[-84.2689,34.79445],[-84.2697,34.79488],[-84.27017,34.79496],[-84.27129,34.79464],[-84.27197,34.79391],[-84.27237,34.79254],[-84.27293,34.79169],[-84.27351,34.79116],[-84.27453,34.79062],[-84.2753,34.79052],[-84.27567,34.79075],[-84.27741,34.79421],[-84.27735,34.79556],[-84.27789,34.79767],[-84.27777,34.79856],[-84.27747,34.79886],[-84.27633,34.79893],[-84.27589,34.79909],[-84.27393,34.80057],[-84.2724,34.80217],[-84.27226,34.80273],[-84.27349,34.80428],[-84.27371,34.80522],[-84.27339,34.8061],[-84.27264,34.80646],[-84.27134,34.80642],[-84.2689,34.80573],[-84.26844,34.80583],[-84.26624,34.80713],[-84.26538,34.80722],[-84.26473,34.80695],[-84.26406,34.80599],[-84.26366,34.80453],[-84.26394,34.80248],[-84.26478,34.80084],[-84.26478,34.80018],[-84.2643,34.79977],[-84.26159,34.79858],[-84.25964,34.79817],[-84.25634,34.79773],[-84.25204,34.79855],[-84.25149,34.79844],[-84.25019,34.79777],[-84.2491,34.79768],[-84.24801,34.79797],[-84.24772,34.79844],[-84.24773,34.7989],[-84.2482,34.79954],[-84.24892,34.79988],[-84.25009,34.80107],[-84.25049,34.80249],[-84.25052,34.80449],[-84.25143,34.80607],[-84.25146,34.80643],[-84.25111,34.80746],[-84.25117,34.80847],[-84.25025,34.8104],[-84.24955,34.81113],[-84.24727,34.81261],[-84.2473,34.81304],[-84.24759,34.81372],[-84.24814,34.81422],[-84.2506,34.81475],[-84.25095,34.81507],[-84.25114,34.81576],[-84.25077,34.81679],[-84.24996,34.81743],[-84.24623,34.81791],[-84.24515,34.81851],[-84.24445,34.81981],[-84.24446,34.8202],[-84.24484,34.82072],[-84.24515,34.82082],[-84.24651,34.82074],[-84.24831,34.82016],[-84.25089,34.82],[-84.25238,34.81956],[-84.25279,34.81899],[-84.25332,34.81737],[-84.25385,34.81678],[-84.25538,34.81667],[-84.25784,34.81676],[-84.25989,34.81652],[-84.26238,34.81672],[-84.26328,34.81716],[-84.26464,34.81813],[-84.26704,34.81839],[-84.26767,34.81897],[-84.26947,34.82004],[-84.27106,34.82174],[-84.27248,34.82295],[-84.27311,34.82409],[-84.2732,34.82494],[-84.27304,34.82557],[-84.27251,34.82626],[-84.27182,34.82768],[-84.27108,34.82844],[-84.27065,34.82956],[-84.27083,34.83062],[-84.27079,34.83245],[-84.27146,34.83403],[-84.27176,34.83532],[-84.27244,34.83619],[-84.273,34.83868],[-84.27271,34.84044],[-84.27085,34.84107],[-84.27005,34.84156],[-84.26835,34.84188],[-84.26723,34.84246],[-84.26532,34.84307],[-84.26467,34.84414],[-84.26655,34.84612],[-84.26722,34.84721],[-84.26711,34.84752],[-84.26763,34.84849],[-84.26937,34.84899],[-84.27033,34.84943],[-84.27081,34.84945],[-84.27246,34.84926],[-84.27391,34.84864],[-84.27856,34.85006],[-84.27905,34.85143],[-84.27801,34.85225],[-84.27421,34.85362],[-84.2719,34.85634],[-84.2702,34.85717],[-84.26933,34.85808],[-84.26803,34.85904],[-84.26556,34.86176],[-84.26482,34.86449],[-84.26409,34.86575],[-84.26364,34.86743],[-84.26496,34.86904],[-84.26666,34.86948],[-84.27266,34.87257],[-84.27365,34.87266],[-84.27405,34.87289],[-84.27502,34.87481],[-84.27723,34.87767],[-84.27743,34.87869],[-84.2789,34.88016],[-84.27894,34.88134],[-84.27995,34.88171],[-84.28036,34.88255],[-84.28152,34.88391],[-84.28144,34.88408],[-84.28185,34.88416],[-84.28219,34.88466],[-84.28703,34.88933],[-84.28873,34.8905],[-84.29171,34.89137],[-84.29287,34.8925],[-84.29351,34.89293],[-84.29676,34.89404],[-84.29774,34.89458],[-84.29821,34.89505],[-84.2987,34.89604],[-84.29919,34.89843],[-84.29905,34.89939],[-84.29855,34.90041],[-84.29739,34.90126],[-84.29393,34.90155],[-84.29033,34.90134],[-84.2895,34.90143],[-84.28911,34.90169],[-84.28828,34.90243],[-84.2871,34.90389],[-84.28677,34.90448],[-84.28659,34.9054],[-84.28667,34.906],[-84.28716,34.90687],[-84.2881,34.90757],[-84.29025,34.90898],[-84.29078,34.90916],[-84.2914,34.90901],[-84.29204,34.90829],[-84.29308,34.90535],[-84.29424,34.90402],[-84.29559,34.90351],[-84.29765,34.90348],[-84.29877,34.90368],[-84.30293,34.90484],[-84.30648,34.9061],[-84.30726,34.90617],[-84.30779,34.90605],[-84.30922,34.90516],[-84.3126,34.90425],[-84.31537,34.90301],[-84.31755,34.90248],[-84.31911,34.90255],[-84.3197,34.90292],[-84.31983,34.90349],[-84.31932,34.90451],[-84.31746,34.90646],[-84.31719,34.90695],[-84.31689,34.90972],[-84.31698,34.91035],[-84.31739,34.91077],[-84.31955,34.91174],[-84.32078,34.91261],[-84.32265,34.91621],[-84.32379,34.91725],[-84.32628,34.9186],[-84.32792,34.91991],[-84.32883,34.92078],[-84.32995,34.92232],[-84.33116,34.92346],[-84.33255,34.92536],[-84.33317,34.92568],[-84.33719,34.92688],[-84.33762,34.92719],[-84.33901,34.92896],[-84.34064,34.93017],[-84.34194,34.93047],[-84.34472,34.92968],[-84.3464,34.92988],[-84.34839,34.93093],[-84.3507,34.9328],[-84.35397,34.9342],[-84.35441,34.93477],[-84.3548,34.9359],[-84.35473,34.9364],[-84.35401,34.937],[-84.35236,34.93738],[-84.34952,34.93697],[-84.347,34.9382],[-84.34634,34.93838],[-84.34348,34.93832],[-84.34253,34.93847],[-84.34183,34.93905],[-84.34058,34.94076],[-84.33749,34.9435],[-84.33712,34.94428],[-84.33764,34.9459],[-84.33771,34.94665],[-84.33882,34.94856],[-84.33817,34.9498],[-84.33813,34.95062],[-84.33831,34.95113],[-84.33879,34.95185],[-84.34018,34.95289],[-84.34102,34.95329],[-84.34343,34.95399],[-84.34417,34.95444],[-84.34648,34.95717],[-84.34694,34.95755],[-84.3481,34.95799],[-84.34957,34.95837],[-84.35247,34.95846],[-84.35329,34.95833],[-84.3547,34.95747],[-84.35579,34.95723],[-84.35756,34.95757],[-84.35946,34.95821],[-84.36141,34.95867],[-84.3623,34.95913],[-84.36304,34.96022],[-84.3631,34.96064],[-84.36264,34.96329],[-84.36231,34.96391],[-84.36093,34.9654],[-84.36057,34.96639],[-84.36055,34.96692],[-84.3609,34.96795],[-84.36263,34.96955],[-84.36287,34.97037],[-84.36254,34.97114],[-84.36209,34.97167],[-84.35999,34.97278],[-84.35903,34.97355],[-84.35878,34.97453],[-84.35887,34.97541],[-84.35914,34.97624],[-84.35997,34.9775],[-84.36018,34.9783],[-84.3597,34.97896],[-84.35612,34.98081],[-84.35574,34.98156],[-84.3558,34.98262],[-84.35762,34.98421],[-84.35874,34.98463],[-84.35935,34.98504],[-84.35995,34.98574],[-84.36068,34.98599],[-84.3612,34.98606],[-84.3621,34.98581],[-84.36306,34.9858],[-84.36432,34.98627],[-84.36577,34.98622],[-84.36913,34.98642],[-84.37687,34.99119],[-84.36926,34.98645],[-84.37065,34.9872],[-84.37413,34.98982],[-84.37602,34.99058],[-84.37752,34.99156],[-84.38053,34.99244]]]}}
