{"type":"Feature","properties":{"id":"cane-creek","name":"Cane Creek","waterbodyType":"creek","throughLakeIds":[],"allowOpenEnds":false,"source":"nhd-hu8-05130108","approximate":false,"labelAnchor":[-85.32461,35.59206],"bounds":[-85.44135,35.53539,-85.30377,35.81549],"crs":"EPSG:4326","coordinateOrder":"longitude,latitude","partCount":1,"vertexCount":494,"lengthKm":56.77,"sourceIds":["136990632","136990631","136990635","136990634","136990636","136990637","136991541","136991542","136991543","136990633","136990630","136990629","136990628","136990627","136990626","136990625","136990624","136990623","136990622","136990621","136994829","136994828","136990620","136990619","136990618","136994822","136990617","136994817","136994816","136990616","136994777","136994776","136994775","136994774","136994772","136994771","136994770","136994769","136994768","136994767","136994766","136990590","136994644","136994643","136994642","136994641","136994640","136994639","136994637","136994636","136994635","136994634","136994652","136991573","136994651","136994632","136994631","136994630","136994629","136994628","136994627","136994626","136994625","136994658","136994622","136994621","136994620","136994564","136994565","136994590"],"sourceRetrieved":"2026-09-11","geometrySource":"nhd","hu8":"05130108","simplification":{"toleranceM":10,"verticesBefore":3331,"verticesAfter":494,"budgetBytes":81920},"trace":{"anchor":{"lat":35.592064,"lon":-85.324608,"snapDistM":0.1},"up":{"spec":"headwater","reason":"headwater","terminus":[-85.373475,35.535388],"distKmFromAnchor":9.57},"down":{"spec":"mouth","reason":"name-change","terminus":[-85.439122,35.81549],"enteredNames":["Caney Fork"],"distKmFromAnchor":45.53},"vaaUsed":false,"toleranceM":12}},"geometry":{"type":"MultiLineString","coordinates":[[[-85.37347,35.53539],[-85.37264,35.53608],[-85.3695,35.53713],[-85.36777,35.53748],[-85.36591,35.53736],[-85.3649,35.53847],[-85.36394,35.53869],[-85.36382,35.53916],[-85.36307,35.54017],[-85.36139,35.5411],[-85.36079,35.54158],[-85.36064,35.5421],[-85.36008,35.54235],[-85.35996,35.54301],[-85.36043,35.54392],[-85.36041,35.54503],[-85.36112,35.54605],[-85.36104,35.54654],[-85.36137,35.54732],[-85.36134,35.54802],[-85.36183,35.54905],[-85.36115,35.55031],[-85.36138,35.55107],[-85.35998,35.55161],[-85.3589,35.55181],[-85.3594,35.55251],[-85.35943,35.55378],[-85.3594,35.55402],[-85.35863,35.55486],[-85.35858,35.55515],[-85.35933,35.55613],[-85.35928,35.55641],[-85.35876,35.55661],[-85.35806,35.55727],[-85.35721,35.55735],[-85.35685,35.55793],[-85.35669,35.55899],[-85.3563,35.55928],[-85.35474,35.55961],[-85.35372,35.56016],[-85.35341,35.56004],[-85.35316,35.55964],[-85.3525,35.55916],[-85.3517,35.55914],[-85.35164,35.55944],[-85.35213,35.56009],[-85.35158,35.56061],[-85.35148,35.56115],[-85.35109,35.56135],[-85.35099,35.56164],[-85.34973,35.56119],[-85.34883,35.56151],[-85.34825,35.5623],[-85.34817,35.56295],[-85.34756,35.56453],[-85.34579,35.56487],[-85.34503,35.56523],[-85.34496,35.56544],[-85.34582,35.56685],[-85.34568,35.5671],[-85.34444,35.56759],[-85.34392,35.56837],[-85.34277,35.56834],[-85.34177,35.56861],[-85.34072,35.56854],[-85.34056,35.56867],[-85.34091,35.57019],[-85.3408,35.57045],[-85.34014,35.57066],[-85.34011,35.57078],[-85.34094,35.57146],[-85.34107,35.57198],[-85.34062,35.57218],[-85.33619,35.57294],[-85.3357,35.57336],[-85.33782,35.57565],[-85.33818,35.57627],[-85.33794,35.5765],[-85.33628,35.57654],[-85.33571,35.5768],[-85.33581,35.57718],[-85.33675,35.57805],[-85.33718,35.57946],[-85.33714,35.57976],[-85.33612,35.58031],[-85.33532,35.58171],[-85.33345,35.58314],[-85.3332,35.58389],[-85.33424,35.58531],[-85.33418,35.58617],[-85.33474,35.58645],[-85.33631,35.58786],[-85.3367,35.58867],[-85.32461,35.59206],[-85.33631,35.5887],[-85.33493,35.58817],[-85.33438,35.58818],[-85.33359,35.58858],[-85.3332,35.58961],[-85.33276,35.58997],[-85.3303,35.58953],[-85.32996,35.58966],[-85.32992,35.59025],[-85.32974,35.59039],[-85.32921,35.59044],[-85.32805,35.59017],[-85.32767,35.59054],[-85.32713,35.59053],[-85.32712,35.59097],[-85.32784,35.59168],[-85.32787,35.59198],[-85.32764,35.59239],[-85.32665,35.59268],[-85.32604,35.59262],[-85.32461,35.59206],[-85.3236,35.59237],[-85.32276,35.59326],[-85.32169,35.59304],[-85.32011,35.59316],[-85.31861,35.5928],[-85.31747,35.59281],[-85.31594,35.59326],[-85.316,35.59385],[-85.3165,35.59424],[-85.31828,35.59387],[-85.31886,35.59432],[-85.31881,35.59459],[-85.31838,35.59482],[-85.31745,35.59479],[-85.31637,35.59513],[-85.31549,35.59492],[-85.31374,35.59497],[-85.31264,35.5954],[-85.30942,35.59514],[-85.30741,35.59523],[-85.30685,35.59539],[-85.30667,35.59588],[-85.30751,35.59681],[-85.30797,35.5969],[-85.30841,35.59649],[-85.30905,35.59668],[-85.30933,35.5976],[-85.31013,35.59798],[-85.31007,35.59829],[-85.30926,35.59831],[-85.3084,35.59754],[-85.30801,35.5975],[-85.30687,35.59789],[-85.30425,35.59794],[-85.30381,35.5984],[-85.30377,35.59878],[-85.30399,35.59905],[-85.30586,35.60009],[-85.30819,35.60083],[-85.30859,35.6013],[-85.30894,35.60256],[-85.30763,35.60321],[-85.30753,35.60369],[-85.30863,35.60441],[-85.30894,35.60484],[-85.30899,35.60571],[-85.30866,35.60644],[-85.30853,35.60745],[-85.30834,35.60764],[-85.30769,35.60757],[-85.30701,35.60694],[-85.30553,35.60634],[-85.3051,35.60641],[-85.30484,35.60661],[-85.30477,35.6073],[-85.30547,35.60815],[-85.30576,35.60936],[-85.30626,35.60934],[-85.30633,35.60805],[-85.30678,35.60767],[-85.30736,35.60774],[-85.30866,35.60913],[-85.30934,35.60888],[-85.30967,35.60848],[-85.30947,35.60674],[-85.31007,35.60649],[-85.31065,35.60654],[-85.31096,35.60671],[-85.3116,35.60792],[-85.31127,35.61019],[-85.31176,35.61074],[-85.31281,35.61097],[-85.31495,35.60981],[-85.31565,35.60997],[-85.31621,35.61033],[-85.31686,35.6101],[-85.31739,35.61025],[-85.31732,35.6106],[-85.31605,35.61102],[-85.31559,35.61138],[-85.31503,35.61214],[-85.31505,35.61254],[-85.31546,35.61307],[-85.31652,35.61324],[-85.31668,35.61344],[-85.31666,35.61388],[-85.31573,35.61473],[-85.31613,35.61534],[-85.31627,35.61615],[-85.31674,35.61631],[-85.31693,35.61595],[-85.3172,35.61589],[-85.31773,35.61602],[-85.3186,35.61662],[-85.31873,35.61888],[-85.31957,35.62004],[-85.31917,35.62105],[-85.31909,35.62163],[-85.31923,35.62209],[-85.31968,35.62264],[-85.3208,35.62334],[-85.32158,35.62553],[-85.32191,35.62576],[-85.32425,35.6258],[-85.3253,35.62597],[-85.32601,35.62545],[-85.32658,35.62529],[-85.32712,35.62624],[-85.32872,35.62655],[-85.33061,35.62787],[-85.3304,35.6282],[-85.32956,35.62869],[-85.32885,35.62998],[-85.32756,35.63072],[-85.32683,35.63155],[-85.32569,35.63212],[-85.32627,35.63461],[-85.32686,35.63505],[-85.32935,35.63488],[-85.3301,35.63541],[-85.33135,35.63672],[-85.33242,35.63867],[-85.33321,35.6397],[-85.33307,35.64059],[-85.33341,35.64097],[-85.33439,35.64115],[-85.33746,35.64093],[-85.3379,35.64098],[-85.33834,35.64123],[-85.33876,35.64165],[-85.33901,35.64251],[-85.33973,35.64371],[-85.34075,35.64501],[-85.34111,35.64529],[-85.34327,35.64597],[-85.34359,35.64653],[-85.34349,35.64737],[-85.34495,35.64883],[-85.34511,35.64936],[-85.34486,35.65049],[-85.34416,35.65142],[-85.34319,35.65212],[-85.34311,35.65241],[-85.34314,35.65282],[-85.34343,35.65331],[-85.34392,35.65348],[-85.34498,35.65354],[-85.34571,35.65379],[-85.34634,35.65467],[-85.34621,35.65559],[-85.34484,35.65634],[-85.34391,35.65703],[-85.34375,35.65732],[-85.34372,35.65818],[-85.34389,35.65849],[-85.34457,35.65879],[-85.34522,35.65886],[-85.34547,35.65922],[-85.34541,35.66174],[-85.34606,35.66197],[-85.3471,35.66146],[-85.34718,35.66105],[-85.34688,35.66019],[-85.34718,35.65991],[-85.34779,35.65996],[-85.34874,35.66052],[-85.34976,35.6608],[-85.35014,35.66107],[-85.35117,35.66257],[-85.35096,35.66289],[-85.34917,35.66364],[-85.3487,35.66423],[-85.34858,35.66481],[-85.34911,35.66516],[-85.34918,35.66536],[-85.34918,35.66672],[-85.34969,35.66712],[-85.35118,35.66738],[-85.35294,35.66718],[-85.35406,35.66781],[-85.35479,35.67118],[-85.35408,35.67376],[-85.35499,35.67499],[-85.35543,35.67529],[-85.35711,35.67574],[-85.35783,35.67707],[-85.35993,35.67733],[-85.36064,35.6776],[-85.36301,35.67965],[-85.36347,35.68033],[-85.3639,35.68145],[-85.36477,35.68478],[-85.36532,35.68567],[-85.36613,35.68599],[-85.36716,35.68593],[-85.36815,35.68618],[-85.37132,35.68864],[-85.37291,35.68933],[-85.37446,35.69035],[-85.37489,35.6908],[-85.37528,35.69271],[-85.37625,35.69439],[-85.37599,35.69948],[-85.37609,35.70017],[-85.37659,35.70138],[-85.37749,35.70263],[-85.3788,35.70254],[-85.37934,35.70314],[-85.38037,35.70384],[-85.3804,35.70544],[-85.37995,35.70726],[-85.38022,35.70811],[-85.38071,35.70864],[-85.38164,35.70897],[-85.38255,35.70953],[-85.38245,35.71016],[-85.38286,35.71097],[-85.3846,35.71193],[-85.38598,35.71248],[-85.38641,35.71288],[-85.38676,35.71357],[-85.38673,35.71567],[-85.38577,35.71722],[-85.38564,35.71777],[-85.38576,35.71844],[-85.38669,35.72001],[-85.38696,35.72105],[-85.38706,35.72266],[-85.38673,35.72404],[-85.38898,35.72513],[-85.39104,35.72577],[-85.3915,35.72605],[-85.3917,35.72641],[-85.39165,35.72725],[-85.39099,35.72782],[-85.39088,35.72829],[-85.39236,35.72986],[-85.39237,35.73134],[-85.39267,35.73285],[-85.39286,35.7332],[-85.39342,35.73353],[-85.39373,35.73463],[-85.39358,35.73532],[-85.39263,35.7354],[-85.39236,35.73557],[-85.39208,35.73637],[-85.39198,35.73756],[-85.39264,35.73886],[-85.39547,35.74088],[-85.39571,35.74231],[-85.39556,35.74274],[-85.39523,35.74298],[-85.39451,35.74323],[-85.39307,35.74342],[-85.39255,35.74394],[-85.39226,35.74461],[-85.39213,35.74624],[-85.39232,35.74718],[-85.39323,35.74767],[-85.3947,35.74925],[-85.39353,35.75204],[-85.39326,35.75386],[-85.39248,35.75436],[-85.3911,35.7546],[-85.3908,35.75497],[-85.39082,35.75609],[-85.39153,35.75702],[-85.39175,35.75788],[-85.39142,35.75859],[-85.39174,35.7599],[-85.39177,35.76086],[-85.39163,35.76127],[-85.39129,35.76158],[-85.39133,35.76204],[-85.39274,35.76373],[-85.39301,35.76426],[-85.39301,35.76493],[-85.39428,35.76646],[-85.39492,35.76676],[-85.39587,35.7662],[-85.39652,35.7662],[-85.39885,35.76874],[-85.39984,35.77035],[-85.40023,35.77033],[-85.40106,35.77086],[-85.4041,35.77224],[-85.40533,35.7734],[-85.40534,35.77436],[-85.40573,35.77482],[-85.40554,35.77543],[-85.40562,35.77619],[-85.40624,35.77709],[-85.40544,35.77894],[-85.40557,35.77925],[-85.40509,35.77947],[-85.40334,35.78092],[-85.40309,35.78156],[-85.40323,35.78172],[-85.40397,35.78178],[-85.40469,35.78232],[-85.40439,35.78271],[-85.40373,35.783],[-85.40256,35.78397],[-85.40187,35.78428],[-85.40148,35.78467],[-85.40132,35.78514],[-85.402,35.78616],[-85.40189,35.78697],[-85.40244,35.78822],[-85.40349,35.78918],[-85.40485,35.79006],[-85.40566,35.79102],[-85.40572,35.79212],[-85.40631,35.79359],[-85.40612,35.79453],[-85.40625,35.79497],[-85.40685,35.79553],[-85.40727,35.79563],[-85.40815,35.79497],[-85.40877,35.79484],[-85.4097,35.79567],[-85.41008,35.79631],[-85.41009,35.79669],[-85.40948,35.79774],[-85.40917,35.79879],[-85.40972,35.79933],[-85.41135,35.80004],[-85.41343,35.80036],[-85.41541,35.80021],[-85.41609,35.80036],[-85.4168,35.8008],[-85.4172,35.80131],[-85.41739,35.80185],[-85.41721,35.80224],[-85.41655,35.80285],[-85.41649,35.80316],[-85.4168,35.80381],[-85.41728,35.80423],[-85.41785,35.8044],[-85.41993,35.80445],[-85.42213,35.80343],[-85.42263,35.80335],[-85.42318,35.80353],[-85.42357,35.80495],[-85.4243,35.80634],[-85.42445,35.807],[-85.4241,35.80735],[-85.42341,35.80756],[-85.42177,35.80722],[-85.42109,35.80729],[-85.42065,35.80786],[-85.42105,35.80848],[-85.4216,35.80856],[-85.42356,35.80837],[-85.42533,35.80793],[-85.42687,35.80646],[-85.42816,35.80441],[-85.42859,35.80402],[-85.42907,35.80386],[-85.42986,35.80411],[-85.43249,35.8059],[-85.43476,35.80667],[-85.4349,35.80767],[-85.43535,35.80813],[-85.43853,35.8068],[-85.43946,35.80684],[-85.43987,35.80758],[-85.4399,35.80845],[-85.4394,35.80911],[-85.43813,35.81008],[-85.43784,35.81078],[-85.43823,35.81115],[-85.43899,35.81129],[-85.44074,35.811],[-85.44135,35.8117],[-85.4397,35.81303],[-85.4392,35.81362],[-85.43894,35.81451],[-85.43912,35.81549]]]}}
