{"type":"Feature","properties":{"id":"clinch-river","name":"Clinch River (Norris tailwater)","waterbodyType":"tailrace","throughLakeIds":["melton-hill-lake","whiteoak-lake","watts-bar-lake"],"allowOpenEnds":false,"source":"nhd-hu8-06010207","approximate":false,"labelAnchor":[-84.08228,36.21479],"bounds":[-84.53385,35.8632,-84.07519,36.22386],"crs":"EPSG:4326","coordinateOrder":"longitude,latitude","partCount":1,"vertexCount":595,"lengthKm":125.02,"sourceIds":["139448534","139448533","139448535","139448536","139448537","139448542","139449029","139449028","139449027","139449026","139448610","139448609","139448608","139448550","139448551","139448552","139448553","139448555","139448554","139448597","139448598","139448599","139448600","139448601","139448604","139448603","139448602","139448605","139448606","139448607","139448591","139448592","139448593","139448594","139448595","139448596","139448743","139448738","139448732","139448733","139448727","139448635","139448634","139448633","139448637","139448646","139448645","139448642","139448639","139448640","139448641","139448643","139448644","139448648","139448653","139448654","139448655","139448663","139448664","139448658","139448659","139448660","139448661","139448662","139448666","139448667","139448668","139448673","139448764","139448780","139448833","139448838","139448810","139448808","139448786","139448776","139448773","139448772","139448771","139448770","139448787","139448796","139448795","139448804","139448811","139448835","139448844","139448886","139448902","139448893","139448878","139448847","139448825","139448824","139448859","139448890","139448892","139448910","139448924","139448928","139448911","139448899","139448879","139448866","139448862","139448863","139448873","139448897","139448914","139448954","139448967","139448966","139448968","139449001","139448984","139448978","139448979","139448985","139448999","139449008","139449017","139449015","139449011","{A7CD58CC-1AB2-4C49-B8E2-18FDE4B3B517}","139449003","139448582","139448581","139448580","139448579","139448585","139448584","139448583","139448571","139448569","139448570","139448568","139448611","139448613","139448612","139448614","139448615","139448616","139448547","139448546","139448577","139448576","139448575","139448574","139448573","139448572","139448578","139448589","139448588","139448587","139448586","139448590","139448545","139448758","139448761","139448763","139448617","139448783","139448817","139448820","139448857","139448860","139448864","139448877","139448619","139448624","139448623","139448622","139448627","139448628","139448626","139448625","139448921","139448915","139448912","139448629","139448630","139448631","139448632","147535005"],"sourceRetrieved":"2026-09-11","geometrySource":"nhd","hu8":"06010207","simplification":{"toleranceM":10,"verticesBefore":5231,"verticesAfter":595,"budgetBytes":81920},"trace":{"anchor":{"lat":36.2156,"lon":-84.0821,"snapDistM":91.3},"up":{"spec":"dam:Norris Lake","reason":"dam","terminus":[-84.092473,36.223859],"distKmFromAnchor":0.61},"down":{"spec":"mouth","reason":"terminal-node","terminus":[-84.533851,35.863534],"enteredNames":null,"distKmFromAnchor":123.1},"vaaUsed":false,"toleranceM":12}},"geometry":{"type":"MultiLineString","coordinates":[[[-84.09247,36.22386],[-84.09084,36.22097],[-84.08979,36.21953],[-84.08228,36.21479],[-84.08969,36.21937],[-84.08869,36.2179],[-84.08718,36.21663],[-84.08343,36.21504],[-84.07917,36.21434],[-84.07761,36.2139],[-84.07678,36.21347],[-84.07557,36.21242],[-84.07519,36.2119],[-84.07544,36.21116],[-84.07532,36.20992],[-84.0755,36.20904],[-84.07589,36.20779],[-84.07696,36.2069],[-84.07854,36.20601],[-84.07964,36.20572],[-84.08786,36.20512],[-84.08978,36.20457],[-84.09232,36.20503],[-84.09281,36.205],[-84.09963,36.20366],[-84.10037,36.20336],[-84.10117,36.20339],[-84.10342,36.20373],[-84.10563,36.20458],[-84.1067,36.20533],[-84.10875,36.20741],[-84.10983,36.20804],[-84.11159,36.20867],[-84.11322,36.20892],[-84.11452,36.20888],[-84.11634,36.20848],[-84.11964,36.20712],[-84.12238,36.20638],[-84.12535,36.20524],[-84.12595,36.20471],[-84.12808,36.20101],[-84.12838,36.20008],[-84.12842,36.19884],[-84.12812,36.19761],[-84.1275,36.19639],[-84.12644,36.19503],[-84.12461,36.19322],[-84.12223,36.19171],[-84.11985,36.19044],[-84.11818,36.18888],[-84.11448,36.18359],[-84.11422,36.18302],[-84.11402,36.18135],[-84.11462,36.17986],[-84.11575,36.17796],[-84.11847,36.17458],[-84.12102,36.17101],[-84.12313,36.16936],[-84.12763,36.16643],[-84.12816,36.16582],[-84.12884,36.16431],[-84.12866,36.16362],[-84.12792,36.16252],[-84.12587,36.16089],[-84.12394,36.16033],[-84.12112,36.16037],[-84.11934,36.16018],[-84.11755,36.15939],[-84.11644,36.15811],[-84.1159,36.15656],[-84.1158,36.15563],[-84.11592,36.15497],[-84.11849,36.15104],[-84.11912,36.149],[-84.11915,36.14836],[-84.11869,36.14584],[-84.11656,36.14234],[-84.11625,36.1413],[-84.11629,36.14038],[-84.11703,36.13945],[-84.11776,36.13893],[-84.11905,36.13847],[-84.11981,36.1384],[-84.12068,36.13857],[-84.12573,36.14032],[-84.12736,36.14054],[-84.12874,36.14047],[-84.12946,36.14027],[-84.13021,36.13971],[-84.1306,36.13915],[-84.13087,36.13803],[-84.13066,36.13644],[-84.12991,36.13463],[-84.12753,36.13247],[-84.12632,36.1309],[-84.12457,36.12943],[-84.12372,36.12851],[-84.11882,36.1253],[-84.11408,36.12309],[-84.11132,36.12157],[-84.11023,36.12078],[-84.10938,36.1199],[-84.1085,36.11866],[-84.10845,36.11776],[-84.10796,36.11635],[-84.10537,36.1116],[-84.10445,36.10851],[-84.10388,36.10728],[-84.10206,36.10447],[-84.10043,36.10143],[-84.09973,36.10055],[-84.09624,36.09793],[-84.0944,36.09613],[-84.0938,36.09472],[-84.0938,36.0938],[-84.09399,36.09317],[-84.09492,36.09213],[-84.09614,36.09146],[-84.1088,36.08614],[-84.11227,36.08452],[-84.11459,36.08368],[-84.11588,36.08355],[-84.11635,36.08364],[-84.1181,36.08435],[-84.12225,36.08542],[-84.12409,36.08604],[-84.12431,36.087],[-84.12356,36.08837],[-84.12212,36.08944],[-84.11921,36.09203],[-84.11524,36.09464],[-84.11371,36.09594],[-84.11254,36.09759],[-84.11217,36.09889],[-84.11226,36.09974],[-84.11678,36.10505],[-84.11833,36.10583],[-84.12039,36.10583],[-84.12205,36.10553],[-84.12506,36.10473],[-84.12662,36.10396],[-84.12805,36.10287],[-84.12887,36.10186],[-84.12991,36.09997],[-84.13148,36.09599],[-84.13228,36.09438],[-84.13474,36.08654],[-84.13588,36.08505],[-84.13735,36.08376],[-84.13819,36.08335],[-84.13934,36.08312],[-84.14349,36.08285],[-84.14478,36.08291],[-84.14635,36.0832],[-84.14793,36.0837],[-84.15488,36.08667],[-84.15663,36.08698],[-84.15784,36.08678],[-84.15861,36.08642],[-84.15997,36.08549],[-84.16048,36.08494],[-84.16076,36.08405],[-84.1607,36.0832],[-84.16029,36.08184],[-84.15931,36.07971],[-84.15771,36.07753],[-84.15517,36.07491],[-84.15376,36.07321],[-84.15318,36.07281],[-84.15304,36.07225],[-84.15239,36.07115],[-84.15198,36.0694],[-84.15239,36.0685],[-84.1532,36.06774],[-84.15476,36.0672],[-84.15645,36.06717],[-84.15989,36.06804],[-84.164,36.06844],[-84.16637,36.06845],[-84.16867,36.06779],[-84.17178,36.06605],[-84.17347,36.06559],[-84.17481,36.06553],[-84.17766,36.06583],[-84.18026,36.06678],[-84.18207,36.06762],[-84.1836,36.06801],[-84.18799,36.0687],[-84.1896,36.06872],[-84.19091,36.06851],[-84.1922,36.06802],[-84.1935,36.06699],[-84.19539,36.06414],[-84.19688,36.0608],[-84.19791,36.0544],[-84.19814,36.05377],[-84.19812,36.05044],[-84.19848,36.04944],[-84.20015,36.047],[-84.20044,36.0463],[-84.20056,36.04494],[-84.20045,36.04348],[-84.1997,36.04218],[-84.19901,36.04143],[-84.19665,36.03985],[-84.19551,36.0389],[-84.19518,36.03833],[-84.19392,36.037],[-84.1934,36.03609],[-84.18949,36.03172],[-84.18501,36.02807],[-84.18238,36.02647],[-84.18102,36.0262],[-84.17995,36.02622],[-84.17678,36.02721],[-84.17589,36.02775],[-84.17321,36.02791],[-84.17229,36.02778],[-84.17034,36.02711],[-84.16867,36.02563],[-84.16846,36.02393],[-84.16484,36.01888],[-84.16413,36.01746],[-84.16362,36.01699],[-84.16314,36.01513],[-84.16249,36.01429],[-84.16209,36.01328],[-84.16163,36.01281],[-84.16132,36.01214],[-84.16129,36.01125],[-84.15977,36.00911],[-84.15881,36.00734],[-84.15819,36.00435],[-84.15674,36.00072],[-84.15657,35.99906],[-84.15603,35.99657],[-84.15632,35.99585],[-84.15662,35.99368],[-84.15769,35.99207],[-84.15854,35.99129],[-84.15993,35.99059],[-84.16119,35.99035],[-84.16633,35.99076],[-84.17178,35.99049],[-84.17324,35.99085],[-84.17453,35.99055],[-84.17507,35.99055],[-84.1775,35.99201],[-84.1791,35.99359],[-84.18083,35.99376],[-84.18171,35.99366],[-84.18414,35.99391],[-84.18537,35.99426],[-84.18813,35.99475],[-84.1901,35.99483],[-84.19307,35.99392],[-84.19377,35.99353],[-84.1943,35.99305],[-84.19468,35.9924],[-84.19494,35.99078],[-84.19456,35.98988],[-84.1937,35.98906],[-84.1933,35.98811],[-84.19368,35.98576],[-84.19506,35.98254],[-84.19536,35.98128],[-84.19649,35.97947],[-84.19688,35.97903],[-84.19797,35.97838],[-84.19901,35.97796],[-84.2008,35.97759],[-84.20292,35.9774],[-84.20555,35.97693],[-84.20626,35.97704],[-84.20798,35.97666],[-84.21047,35.97606],[-84.21252,35.97496],[-84.21389,35.97379],[-84.21412,35.97277],[-84.21363,35.97127],[-84.21555,35.96947],[-84.21584,35.96776],[-84.21682,35.96698],[-84.21985,35.9636],[-84.22002,35.96215],[-84.21951,35.96069],[-84.21712,35.95811],[-84.21617,35.95752],[-84.21463,35.95577],[-84.21441,35.95502],[-84.21431,35.95331],[-84.2136,35.95012],[-84.2141,35.94855],[-84.21445,35.9481],[-84.21528,35.94717],[-84.21644,35.94644],[-84.21833,35.94582],[-84.22101,35.94573],[-84.22326,35.94619],[-84.22458,35.94662],[-84.22856,35.94879],[-84.22982,35.94969],[-84.23139,35.95114],[-84.23253,35.95188],[-84.23598,35.95361],[-84.23712,35.9544],[-84.23854,35.95434],[-84.23989,35.9552],[-84.24263,35.955],[-84.2439,35.95416],[-84.24453,35.95299],[-84.24435,35.95173],[-84.24457,35.95053],[-84.24443,35.94998],[-84.24286,35.94917],[-84.24004,35.94848],[-84.23937,35.94807],[-84.23898,35.94764],[-84.23798,35.94528],[-84.2379,35.94453],[-84.23863,35.94176],[-84.23828,35.93971],[-84.2369,35.93639],[-84.23584,35.93489],[-84.23529,35.93357],[-84.23567,35.93207],[-84.23626,35.9308],[-84.23668,35.93035],[-84.23774,35.92974],[-84.23927,35.92925],[-84.24121,35.92906],[-84.24308,35.92941],[-84.24539,35.93035],[-84.24661,35.93113],[-84.2475,35.93194],[-84.24825,35.933],[-84.24876,35.93344],[-84.25061,35.93634],[-84.2521,35.93803],[-84.25462,35.9398],[-84.25859,35.94038],[-84.26091,35.94095],[-84.26238,35.94162],[-84.26515,35.94234],[-84.26699,35.94211],[-84.2682,35.94152],[-84.26922,35.94062],[-84.26986,35.93955],[-84.26996,35.93861],[-84.26984,35.93823],[-84.26833,35.93693],[-84.26591,35.93547],[-84.26567,35.93297],[-84.26461,35.93182],[-84.25968,35.93068],[-84.25882,35.93032],[-84.25671,35.9283],[-84.2564,35.92775],[-84.25615,35.92668],[-84.25259,35.92101],[-84.25244,35.91948],[-84.25267,35.91872],[-84.2533,35.91786],[-84.25391,35.9173],[-84.25524,35.91651],[-84.25596,35.91632],[-84.25784,35.91543],[-84.25869,35.91532],[-84.26022,35.91481],[-84.26151,35.91472],[-84.26265,35.91423],[-84.26674,35.91334],[-84.26938,35.91182],[-84.27036,35.91053],[-84.27063,35.90956],[-84.2705,35.90868],[-84.27009,35.90744],[-84.26937,35.90629],[-84.26829,35.90388],[-84.26737,35.90242],[-84.26444,35.89946],[-84.26377,35.89682],[-84.26462,35.89573],[-84.26534,35.89514],[-84.26631,35.89488],[-84.26737,35.89488],[-84.26966,35.89566],[-84.27115,35.89684],[-84.27212,35.89824],[-84.2736,35.89967],[-84.27507,35.90076],[-84.27714,35.90196],[-84.27824,35.90226],[-84.28037,35.90231],[-84.28233,35.90173],[-84.2838,35.90058],[-84.2852,35.89852],[-84.28544,35.89572],[-84.28539,35.89443],[-84.285,35.89303],[-84.28373,35.8904],[-84.28309,35.88958],[-84.28049,35.88489],[-84.27902,35.88142],[-84.27901,35.87921],[-84.27983,35.87736],[-84.28075,35.87649],[-84.28229,35.87573],[-84.28338,35.87541],[-84.28535,35.87571],[-84.28656,35.87649],[-84.28918,35.87902],[-84.29015,35.87973],[-84.29078,35.88063],[-84.29404,35.88285],[-84.29774,35.88452],[-84.29858,35.88464],[-84.29935,35.88555],[-84.29985,35.88586],[-84.30224,35.88624],[-84.30375,35.88693],[-84.30727,35.88796],[-84.30884,35.88824],[-84.3109,35.88829],[-84.31295,35.88788],[-84.31699,35.88671],[-84.31893,35.88647],[-84.3219,35.88666],[-84.32445,35.88725],[-84.32563,35.8879],[-84.32695,35.889],[-84.33038,35.8935],[-84.33231,35.89535],[-84.33348,35.89604],[-84.33408,35.89622],[-84.33588,35.89762],[-84.34193,35.90111],[-84.34445,35.90222],[-84.34592,35.90211],[-84.34721,35.90173],[-84.34976,35.9007],[-84.35043,35.90008],[-84.3533,35.89985],[-84.35689,35.89914],[-84.3606,35.89892],[-84.36512,35.89941],[-84.36586,35.89962],[-84.36746,35.89968],[-84.36802,35.89932],[-84.36982,35.89921],[-84.37214,35.89867],[-84.37384,35.89802],[-84.37439,35.89701],[-84.37476,35.89471],[-84.37472,35.89378],[-84.37424,35.89138],[-84.37168,35.88624],[-84.37135,35.88459],[-84.37165,35.88362],[-84.37203,35.88302],[-84.37365,35.88162],[-84.3748,35.88124],[-84.37551,35.88128],[-84.37759,35.88193],[-84.3809,35.88343],[-84.38416,35.88467],[-84.38665,35.88593],[-84.38761,35.88677],[-84.38927,35.88871],[-84.38994,35.88988],[-84.3902,35.89133],[-84.39,35.89261],[-84.38774,35.89654],[-84.38743,35.89748],[-84.3873,35.89922],[-84.38835,35.90245],[-84.38887,35.90324],[-84.38977,35.90386],[-84.39065,35.90489],[-84.39099,35.90586],[-84.39217,35.90641],[-84.39327,35.90749],[-84.39349,35.90818],[-84.39404,35.90857],[-84.39733,35.91009],[-84.39899,35.91071],[-84.40234,35.9118],[-84.40362,35.91209],[-84.40692,35.91207],[-84.40776,35.91185],[-84.41136,35.91285],[-84.41405,35.9149],[-84.41516,35.91593],[-84.41608,35.91711],[-84.41675,35.91851],[-84.41703,35.91963],[-84.417,35.92091],[-84.41652,35.92191],[-84.41542,35.92262],[-84.41409,35.92294],[-84.41218,35.92429],[-84.41049,35.92622],[-84.40976,35.92776],[-84.40978,35.9289],[-84.40999,35.92978],[-84.41091,35.93133],[-84.41343,35.93347],[-84.41443,35.9336],[-84.41589,35.93328],[-84.41636,35.93291],[-84.4183,35.93211],[-84.4202,35.93112],[-84.42136,35.93023],[-84.42375,35.92603],[-84.42518,35.92439],[-84.42692,35.92296],[-84.43085,35.92059],[-84.43303,35.92005],[-84.43419,35.91994],[-84.43488,35.91938],[-84.43644,35.91773],[-84.43702,35.91669],[-84.43727,35.91486],[-84.43728,35.91222],[-84.43794,35.9104],[-84.43891,35.90922],[-84.44028,35.90836],[-84.44141,35.90796],[-84.44518,35.90734],[-84.44625,35.90731],[-84.44976,35.90666],[-84.45278,35.90581],[-84.45414,35.90521],[-84.45723,35.90456],[-84.45911,35.90374],[-84.46111,35.90249],[-84.46239,35.89971],[-84.46295,35.89792],[-84.46331,35.8962],[-84.46338,35.89303],[-84.46474,35.89063],[-84.4663,35.8893],[-84.46692,35.88903],[-84.46884,35.88892],[-84.47095,35.88936],[-84.47183,35.88978],[-84.47391,35.8915],[-84.47656,35.89314],[-84.47768,35.89356],[-84.47856,35.8937],[-84.47979,35.89356],[-84.48078,35.89308],[-84.48156,35.89192],[-84.48222,35.8889],[-84.48245,35.88679],[-84.48306,35.88478],[-84.48395,35.88399],[-84.48512,35.88354],[-84.48771,35.88437],[-84.4901,35.88576],[-84.49325,35.88796],[-84.4959,35.88875],[-84.49818,35.88979],[-84.49909,35.88995],[-84.50441,35.88928],[-84.50722,35.88984],[-84.51293,35.89064],[-84.51675,35.89207],[-84.51843,35.89243],[-84.52065,35.89232],[-84.52304,35.89185],[-84.5249,35.88968],[-84.52558,35.88849],[-84.52661,35.88725],[-84.52789,35.88625],[-84.52848,35.88517],[-84.52928,35.88445],[-84.53081,35.88252],[-84.53116,35.88153],[-84.53083,35.87967],[-84.53021,35.87872],[-84.52948,35.87799],[-84.52444,35.87565],[-84.52362,35.8745],[-84.52259,35.87211],[-84.52218,35.87105],[-84.52229,35.87017],[-84.52325,35.86893],[-84.52437,35.86792],[-84.52452,35.8668],[-84.52598,35.86539],[-84.52771,35.86409],[-84.53008,35.86328],[-84.53138,35.8632],[-84.53385,35.86353]]]}}
