{"type":"Feature","properties":{"id":"duck-river-mouth","name":"Duck River (Columbia to the mouth)","waterbodyType":"river","throughLakeIds":["kentucky-lake"],"allowOpenEnds":false,"source":"nhd-hu8-06040003","approximate":false,"labelAnchor":[-87.45997,35.78401],"bounds":[-87.93812,35.59532,-86.99775,36.04518],"crs":"EPSG:4326","coordinateOrder":"longitude,latitude","partCount":1,"vertexCount":199,"lengthKm":212.57,"sourceIds":["136553837","136553842","136553843","136553844","136553845","136553796","136553965","136553560","136553559","136553825","136553826","136553822","136553821","136553823","136553824","136553963","136553960","136553962","136553961","136553832","136553831","136553555","136553829","136553828","136553827","136553830","136553814","136553811","136553812","136553813","136553807","136553808","136553809","136553810","136553806","136553801","136553802","136553803","136553804","136553805","136553815","136553906","136553905","136553907","136553908","136553915","136553916","136553909","136553910","136553912","136553913","136553914","136553911","136553550","136553546","136553548","136553306","136553549","136553848","136553265","136553266","136553267","136554020","136553526","136553271","136553272","136553273","136553274","136553275","136553276","136553277","136553278","136553279","136553280","136553281","136553282","136553283","136553521","136553519","136553285","136553286","136553287","136553288","136553290","136553291","136553294","136553293","136553292","136553289","136553295","136553300","136553299","136553298","136553297","136553296","136553301","136553302","136553303","136553304","136554653","136554654","136554655","136554656","136554657","136554658","136554659","136554660","136554661","136554662","136554663","136554664","136554665","136554688","136554740","136554743","136554742","136554741","136554744","136554745","136554746","136555015","136555013","136554747","136554748","136554752","136554751","136554749","136554750","136554753","136554754","136554755","136554756","136554757","136554758","136554759","136554760","136554761","136554762","136554763","136554999","136555000","136555001","136554769","136554770","136554771","136554772","136554773","136554774","136554775","136554776","136554777","136554778","136554779","136554781","136554780","136554782","136554783","136554784","136554785","136554786","136554787","136554788","136554789","136554790","136554791","136554792","136554793","136554796","136554794","136554795","136554797","136554798","136554799","136554800","136554801","136554832","136554833","136554836","136554834","136554835","136554837","136554838","136554839","136554840","136554841","136554842","136554843","136554844","136554845","136555012","136555019","136555016","136555020","136555384","136555386","136555387","136555388","136555389","136555390","136555391","136555436","{5AC70F27-2C64-44AA-A42B-BDD1AE217988}","136553836","136554185","136553834","136553835","136553838","136553839","136553904","136553966","136553967","136553968","136554022","136553566","136553955","136553567","136553945","136553944","136553942","136553943","136553946","136553952","136553951","136553950","136553949","136553948","136553947","136553958","136553571","136553570","136553569","136553568","136553572","136553573","136553847","136553846","136553576","136553799","136553800","136553798","136553797","136553894","136553893","136553895","136553891","136553888","136554023","136553584","136553885","136553884","136553586","136553587","136553818","136553820","136553819","136553900","136553899","136553903","136553902","136553901","136554005","136554004","136554003","136553986","136553985","136553984","136553983","136553745","136553746","136553859","136553858","136553860","136553861","136553862","136553863","136553892","136553898","136553897","136553896","136553749","136553751","136553870","136553869","136553871","136553856","136553857","136553850","136553852","136553851","136553849","136553855","136553854","136553853","136553883","136553882","136553866","136553760","136553873","136553872","136554017","136553762","136554010","136554011","136553880","136553881","136553879","136553876","136553877","136553878","136554006","136554002","136554001","136553990","136553989","136553987","136553769","136553768","136554000","136553999","136553998","136553997","136553992","136553991","136553994","136553993","136553996","136553995","136554053","136554051","136554049","136554047","136554046","136554007","136554009","136554008","136554014","136554013","136554012","136554016","136554015","136553980","136553979","136553775","136554026","136554025","136553969","136553972","136553971","136553973","136553977","136553976","136553974","136553975","136553940","136553941","136553938","136553937","136553939","136553782","136553933","136553934","136553930","136553785","136553786","136553929","136553928","136553921","136553920","136553919","136553918","136553917","136553927","136553926","136553922","136553925","136553924","136553923","136553193","136553192","136553191","136553190","136553189","136553185","136553187","136553238","136553197","136553196","136553226","136553230","136553202","136553201","136553204","136553203","136553205","136553232","136553235","136553207","136553209","136553214","136553215","136553216","136553217","136553218","136553219","136553220","136553222","136553221","136553223","136553224","136553225","147299771"],"sourceRetrieved":"2026-09-11","geometrySource":"nhd","hu8":"06040003","simplification":{"toleranceM":150,"verticesBefore":10187,"verticesAfter":199,"budgetBytes":10616},"trace":{"anchor":{"lat":35.784,"lon":-87.46,"snapDistM":2.7},"up":{"spec":"headwater","reason":"headwater","terminus":[-87.001645,35.595324],"distKmFromAnchor":104.36},"down":{"spec":"mouth","reason":"terminal-node","terminus":[-87.938121,35.940875],"enteredNames":null,"distKmFromAnchor":113.17},"vaaUsed":false,"toleranceM":12}},"geometry":{"type":"MultiLineString","coordinates":[[[-87.00164,35.59532],[-87.00477,35.59977],[-87.00154,35.60659],[-87.00263,35.61453],[-86.99775,35.62008],[-87.00579,35.63159],[-87.0127,35.63269],[-87.01962,35.62814],[-87.02134,35.61984],[-87.0301,35.61682],[-87.03283,35.61807],[-87.0367,35.63082],[-87.03428,35.64235],[-87.0378,35.64487],[-87.05721,35.64588],[-87.05961,35.63515],[-87.06302,35.63296],[-87.09089,35.64256],[-87.09562,35.64762],[-87.08939,35.65203],[-87.08864,35.65613],[-87.09383,35.66269],[-87.09605,35.67359],[-87.10928,35.67099],[-87.12461,35.67351],[-87.13453,35.67207],[-87.13885,35.67485],[-87.14009,35.68203],[-87.12744,35.69378],[-87.13309,35.70022],[-87.14062,35.69773],[-87.14867,35.69133],[-87.16198,35.69491],[-87.18325,35.68608],[-87.19563,35.68636],[-87.22151,35.69471],[-87.22624,35.69234],[-87.23279,35.68228],[-87.2515,35.68413],[-87.25232,35.67816],[-87.24524,35.66734],[-87.24687,35.65185],[-87.25145,35.65333],[-87.25687,35.65951],[-87.26344,35.67297],[-87.27458,35.67326],[-87.28107,35.66954],[-87.28543,35.66363],[-87.29281,35.66434],[-87.29314,35.67117],[-87.28334,35.68238],[-87.28625,35.68514],[-87.29748,35.68818],[-87.29611,35.69437],[-87.28768,35.69706],[-87.26067,35.69654],[-87.25068,35.7066],[-87.25129,35.71258],[-87.2653,35.71882],[-87.26772,35.72551],[-87.26572,35.73816],[-87.27205,35.75058],[-87.28619,35.75462],[-87.29255,35.75231],[-87.29477,35.74605],[-87.30157,35.74759],[-87.30197,35.7573],[-87.28781,35.76923],[-87.28971,35.77608],[-87.2937,35.77958],[-87.30716,35.785],[-87.31391,35.78545],[-87.32097,35.76891],[-87.32467,35.76732],[-87.33746,35.7685],[-87.34122,35.75379],[-87.34822,35.75509],[-87.35317,35.7665],[-87.35347,35.77929],[-87.34297,35.79703],[-87.3461,35.80208],[-87.35406,35.80624],[-87.36223,35.80539],[-87.37629,35.79725],[-87.38643,35.79415],[-87.38545,35.77738],[-87.38938,35.77498],[-87.39005,35.76924],[-87.3932,35.76798],[-87.41111,35.7703],[-87.42599,35.77841],[-87.44192,35.77337],[-87.45316,35.77396],[-87.46129,35.78627],[-87.45997,35.78401],[-87.46276,35.78692],[-87.47213,35.78865],[-87.47612,35.78357],[-87.47161,35.77385],[-87.47625,35.76307],[-87.48203,35.76008],[-87.48881,35.76224],[-87.50882,35.76081],[-87.5058,35.74961],[-87.51082,35.74681],[-87.51597,35.74931],[-87.52008,35.76194],[-87.51774,35.77244],[-87.5225,35.78457],[-87.52179,35.78848],[-87.51209,35.79031],[-87.51961,35.80545],[-87.51065,35.81736],[-87.5155,35.8211],[-87.52519,35.8224],[-87.53049,35.81848],[-87.53261,35.80735],[-87.52591,35.79769],[-87.52763,35.79515],[-87.53288,35.79404],[-87.54663,35.79984],[-87.5509,35.81095],[-87.54772,35.81871],[-87.54952,35.82023],[-87.56418,35.81861],[-87.58634,35.82685],[-87.59488,35.82684],[-87.59637,35.824],[-87.59289,35.81641],[-87.59363,35.8115],[-87.59822,35.8062],[-87.60721,35.80328],[-87.62405,35.80879],[-87.62724,35.82074],[-87.63075,35.82263],[-87.63453,35.82174],[-87.64041,35.81367],[-87.64991,35.81117],[-87.64948,35.81615],[-87.64072,35.82824],[-87.65637,35.83016],[-87.67201,35.82562],[-87.67507,35.8301],[-87.67527,35.84236],[-87.68139,35.84638],[-87.68561,35.84038],[-87.67901,35.83413],[-87.6794,35.82918],[-87.6843,35.82213],[-87.6889,35.81984],[-87.69397,35.82054],[-87.6983,35.82464],[-87.70331,35.83759],[-87.71914,35.83456],[-87.72475,35.83551],[-87.73228,35.8449],[-87.7117,35.86105],[-87.70462,35.87199],[-87.69525,35.87864],[-87.69433,35.8855],[-87.68795,35.89076],[-87.68903,35.89596],[-87.69482,35.90134],[-87.70964,35.90649],[-87.72651,35.92116],[-87.747,35.93206],[-87.7879,35.93752],[-87.79116,35.93659],[-87.78906,35.9321],[-87.79808,35.92798],[-87.81364,35.93044],[-87.81872,35.93757],[-87.81965,35.95913],[-87.82465,35.97474],[-87.82248,35.98205],[-87.81712,35.98626],[-87.82197,35.99043],[-87.83918,35.99649],[-87.84196,36.00073],[-87.84424,36.01353],[-87.83632,36.02455],[-87.84632,36.03395],[-87.84859,36.04285],[-87.86553,36.04518],[-87.86603,36.03544],[-87.88273,36.0252],[-87.88628,36.02027],[-87.88626,36.01451],[-87.87929,36.00849],[-87.88093,35.99682],[-87.88836,35.99124],[-87.8931,35.99169],[-87.90366,35.98691],[-87.90799,35.97719],[-87.91566,35.97297],[-87.92026,35.96362],[-87.92395,35.96153],[-87.92582,35.94741],[-87.93812,35.94088]]]}}
