{"type":"Feature","properties":{"id":"tennessee-river","name":"Tennessee River","waterbodyType":"river","throughLakeIds":["watts-bar-lake","fort-loudoun-lake","dallas-lake"],"allowOpenEnds":false,"source":"nhd-hu8-06010201","approximate":false,"labelAnchor":[-84.72121,35.71592],"bounds":[-84.78884,35.62132,-83.84363,35.96752],"crs":"EPSG:4326","coordinateOrder":"longitude,latitude","partCount":1,"vertexCount":893,"lengthKm":196.66,"sourceIds":["132363401","132363319","132363256","132363249","132363248","132363265","132363292","132363325","132363329","132363327","132363306","132363255","132363186","132363172","132363163","132363141","132363120","132363118","132363112","132363111","132363113","132363114","132363151","132363190","132363216","132363222","132363290","132363308","132363314","132363310","132363293","132363286","132363279","132363240","132363239","132363206","132363198","132363188","132363178","132363171","132363160","132363161","132363169","132363176","132363180","132363201","132363224","132363244","132363263","132363282","132363300","132363271","132363266","132363245","132363233","132363232","132363242","132363261","132363297","132363303","132363323","132363339","132363381","132363405","132363469","132363489","132363491","132363507","132363528","132363540","132363550","132363576","132363583","132363590","132363612","132363613","132363621","132363635","132363642","132363644","132363649","132363652","132363660","132363669","132363679","132363685","132363681","132363673","132363665","132363658","132363657","132363661","132363672","132363676","132363683","132363690","132363694","132363701","132363703","132363707","132363709","132363711","132363715","132363717","132363726","132363732","132363734","132363744","132363738","132363737","132363729","132363724","132363723","132363730","132363740","132363742","132363747","132363748","132363754","132363756","132363758","132363760","132363762","132363769","132363779","132363791","132363806","132363808","132363804","132363799","132363788","132363780","132363766","132363750","132363751","132363764","132363771","132363796","132363809","132363790","132363784","132363782","132363781","132363793","132363797","147535027","147535028","147535023","132363829","132363834","132363837","132363850","132363859","132363871","132363884","132363901","132363933","132363940","132363937","132363928","132363916","132363914","132363894","132363890","132363887","132363888","132363892","132363910","132363943","132363957","132363959","132363955","132363945","132363930","132363925","132363924","132363912","132363873","132363869","132363870","132363889","132363898","132363935","132363948","132363952","132363961","132363966","132363976","132363979","132363980","132363984","132364000","132364013","132364016","132364025","132364034","132364026","132364027","132364073","132364085","132364075","132364057","132364053","132364036","132364031","132364032","132364035","132364039","132364052","132364056","132364064","132364065","132364089","132364100","132364108","132364149","132364154","132364145","132364137","132364134","132364117","132364097","132364093","132364076","132364069","132364071","132364132","132364111","132364105","132364104","132364160","132364170","132364176","132364177","132364186","132364200","132364218","132364220","132364227","132364235","132364237","132364239","132364241","147535007","{E5BFA40F-B612-4427-97FF-AFAFDD8F2D05}","{15CF4F94-4581-49E5-83BD-A6F69C510C70}","132363426","132363503","132363531","132363551","132363559","132363555","132363494","132363447","132363431","132363430","132363433","132363470","132363479","132363523","132363558","132363566","132363591","132363620","132363633","132363645","{3B55802F-FD70-4537-9FA5-EDF89E764EDA}","139284151"],"sourceRetrieved":"2026-09-11","geometrySource":"nhd","hu8":"06010201","simplification":{"toleranceM":10,"verticesBefore":6957,"verticesAfter":893,"budgetBytes":81920},"trace":{"anchor":{"lat":35.71592,"lon":-84.72121,"snapDistM":0.5},"up":{"spec":"headwater","reason":"headwater","terminus":[-83.843629,35.956788],"distKmFromAnchor":176.16},"down":{"spec":"mouth","reason":"terminal-node","terminus":[-84.779237,35.621317],"enteredNames":null,"distKmFromAnchor":20.91},"vaaUsed":false,"toleranceM":12}},"geometry":{"type":"MultiLineString","coordinates":[[[-83.84363,35.95679],[-83.8445,35.95803],[-83.84598,35.95865],[-83.84707,35.95904],[-83.84946,35.95908],[-83.85072,35.95863],[-83.85372,35.95638],[-83.85582,35.95546],[-83.85702,35.95514],[-83.85839,35.95499],[-83.85959,35.95507],[-83.86111,35.95539],[-83.86211,35.95598],[-83.86263,35.95669],[-83.8634,35.95829],[-83.8639,35.95884],[-83.86432,35.96035],[-83.86417,35.96177],[-83.86435,35.96315],[-83.86462,35.96383],[-83.86591,35.96551],[-83.86699,35.9663],[-83.86825,35.96677],[-83.8707,35.96734],[-83.87242,35.96752],[-83.87393,35.9671],[-83.87806,35.96466],[-83.88222,35.96317],[-83.88306,35.96267],[-83.89122,35.96137],[-83.89328,35.96128],[-83.89554,35.96152],[-83.90151,35.96287],[-83.90346,35.96303],[-83.90525,35.96292],[-83.90831,35.96183],[-83.91367,35.95881],[-83.9155,35.95837],[-83.91769,35.95742],[-83.91891,35.95734],[-83.92012,35.95646],[-83.92223,35.95367],[-83.92249,35.95262],[-83.92229,35.95189],[-83.92335,35.94935],[-83.92407,35.94694],[-83.92527,35.94535],[-83.92654,35.9442],[-83.92745,35.94362],[-83.93119,35.94244],[-83.93683,35.94208],[-83.93834,35.94218],[-83.93919,35.94241],[-83.94057,35.94312],[-83.94306,35.94537],[-83.9457,35.94724],[-83.94831,35.94861],[-83.94944,35.94901],[-83.95102,35.94926],[-83.95253,35.94914],[-83.95319,35.94892],[-83.95403,35.94839],[-83.95538,35.94715],[-83.95626,35.94555],[-83.95662,35.94398],[-83.95646,35.94254],[-83.95436,35.93623],[-83.95339,35.93401],[-83.95266,35.93288],[-83.95232,35.93084],[-83.95241,35.92952],[-83.95263,35.92886],[-83.95367,35.92766],[-83.95516,35.92655],[-83.95627,35.92648],[-83.95748,35.92682],[-83.96139,35.92571],[-83.96523,35.92501],[-83.96964,35.92475],[-83.97073,35.92494],[-83.97246,35.92542],[-83.97358,35.926],[-83.97416,35.9265],[-83.97558,35.9288],[-83.97697,35.93033],[-83.97843,35.93159],[-83.98,35.93249],[-83.98174,35.93293],[-83.98323,35.93274],[-83.98428,35.93235],[-83.98526,35.93175],[-83.9863,35.93069],[-83.98702,35.92919],[-83.98685,35.92759],[-83.98233,35.91867],[-83.98216,35.91815],[-83.98239,35.91755],[-83.98234,35.9167],[-83.98186,35.91564],[-83.97981,35.91385],[-83.97907,35.91353],[-83.97801,35.91338],[-83.97697,35.91222],[-83.97474,35.9104],[-83.97365,35.90918],[-83.97285,35.90856],[-83.97033,35.9075],[-83.96843,35.90574],[-83.96728,35.90422],[-83.96685,35.9029],[-83.9667,35.90141],[-83.96602,35.90058],[-83.96535,35.89738],[-83.9627,35.89181],[-83.96209,35.88904],[-83.96172,35.88813],[-83.96178,35.88715],[-83.96134,35.8857],[-83.96077,35.88453],[-83.96093,35.88318],[-83.96169,35.88092],[-83.96294,35.87953],[-83.96428,35.87827],[-83.96581,35.87728],[-83.9676,35.87696],[-83.96973,35.87615],[-83.97269,35.87549],[-83.97631,35.87595],[-83.97882,35.87688],[-83.98247,35.87886],[-83.98356,35.87919],[-83.98497,35.87939],[-83.9865,35.87937],[-83.98807,35.88079],[-83.98895,35.88138],[-83.99186,35.88426],[-83.99322,35.8846],[-83.99557,35.88482],[-83.99789,35.88432],[-83.99982,35.88337],[-84.00119,35.88148],[-84.00196,35.88004],[-84.00334,35.87873],[-84.00543,35.87731],[-84.00793,35.87644],[-84.00994,35.87613],[-84.01402,35.87637],[-84.01512,35.87628],[-84.01704,35.87672],[-84.02029,35.87809],[-84.02182,35.87849],[-84.02364,35.87863],[-84.02499,35.87856],[-84.02665,35.87814],[-84.02766,35.87756],[-84.02853,35.87632],[-84.02882,35.87546],[-84.0289,35.8735],[-84.02828,35.8719],[-84.02478,35.86838],[-84.02397,35.86782],[-84.01926,35.8655],[-84.01672,35.86347],[-84.01556,35.86227],[-84.01351,35.85951],[-84.0116,35.85762],[-84.01091,35.85651],[-84.00933,35.85144],[-84.00924,35.84881],[-84.0112,35.84441],[-84.01389,35.84232],[-84.01648,35.84107],[-84.01814,35.84067],[-84.0197,35.84065],[-84.02044,35.84078],[-84.02167,35.84116],[-84.0229,35.84178],[-84.02358,35.84239],[-84.02385,35.84292],[-84.02407,35.84448],[-84.02524,35.84659],[-84.02594,35.84844],[-84.02665,35.84955],[-84.02751,35.85041],[-84.02847,35.8517],[-84.03006,35.85294],[-84.03084,35.85341],[-84.03247,35.8539],[-84.03312,35.85401],[-84.03574,35.85383],[-84.03685,35.85393],[-84.04097,35.85358],[-84.04415,35.85259],[-84.04847,35.85155],[-84.04938,35.85124],[-84.05154,35.84897],[-84.05175,35.848],[-84.05236,35.84659],[-84.05207,35.84454],[-84.05152,35.84368],[-84.05062,35.83966],[-84.04996,35.83834],[-84.04959,35.83576],[-84.05019,35.83301],[-84.05134,35.83081],[-84.05244,35.82973],[-84.05368,35.82903],[-84.05483,35.82888],[-84.05584,35.82856],[-84.05846,35.82929],[-84.06236,35.83005],[-84.06289,35.83042],[-84.06473,35.8311],[-84.06572,35.83201],[-84.06635,35.83334],[-84.06652,35.8344],[-84.06645,35.83546],[-84.0669,35.83665],[-84.06706,35.83775],[-84.06695,35.83846],[-84.06616,35.83974],[-84.06755,35.84251],[-84.06751,35.84301],[-84.06841,35.84464],[-84.06952,35.84598],[-84.07106,35.84859],[-84.07215,35.8499],[-84.07355,35.85109],[-84.07398,35.85128],[-84.07688,35.85136],[-84.07924,35.85125],[-84.08145,35.8514],[-84.08272,35.85119],[-84.08386,35.85053],[-84.08843,35.84943],[-84.09295,35.84775],[-84.096,35.84692],[-84.09762,35.84696],[-84.09982,35.84668],[-84.10047,35.84648],[-84.10286,35.84455],[-84.10731,35.8418],[-84.10788,35.8416],[-84.11025,35.83977],[-84.11109,35.83871],[-84.11277,35.83728],[-84.11353,35.83584],[-84.11607,35.83316],[-84.11885,35.8318],[-84.12039,35.83133],[-84.12273,35.83211],[-84.12439,35.83361],[-84.12448,35.83531],[-84.12345,35.83721],[-84.12289,35.83761],[-84.12254,35.83838],[-84.12164,35.83936],[-84.1212,35.84078],[-84.12112,35.84262],[-84.12184,35.8447],[-84.1242,35.84698],[-84.12619,35.84958],[-84.12794,35.85101],[-84.12998,35.85228],[-84.13159,35.85409],[-84.13241,35.85529],[-84.13382,35.85537],[-84.13695,35.85506],[-84.14141,35.85361],[-84.14473,35.85179],[-84.14561,35.85089],[-84.14693,35.84887],[-84.14796,35.84614],[-84.14673,35.84398],[-84.14606,35.8434],[-84.14334,35.84161],[-84.14217,35.84118],[-84.13995,35.84006],[-84.13797,35.83836],[-84.13673,35.836],[-84.13677,35.8354],[-84.13648,35.83431],[-84.13642,35.83296],[-84.13686,35.8318],[-84.13888,35.8294],[-84.14,35.82892],[-84.14099,35.82713],[-84.1421,35.82597],[-84.14266,35.82502],[-84.14284,35.8233],[-84.14253,35.82093],[-84.14196,35.81966],[-84.14178,35.81882],[-84.14095,35.8172],[-84.14102,35.81535],[-84.14016,35.81332],[-84.13959,35.81097],[-84.13995,35.80946],[-84.13957,35.80769],[-84.14132,35.80424],[-84.14177,35.80071],[-84.14432,35.79704],[-84.14552,35.79674],[-84.14806,35.79567],[-84.15143,35.79501],[-84.15342,35.79496],[-84.15579,35.79528],[-84.15874,35.7966],[-84.15979,35.79833],[-84.16036,35.80042],[-84.16105,35.80174],[-84.1613,35.8026],[-84.16302,35.8044],[-84.16495,35.80505],[-84.16798,35.80513],[-84.17034,35.80505],[-84.17105,35.80488],[-84.17162,35.80447],[-84.17232,35.8036],[-84.17406,35.8006],[-84.17394,35.79831],[-84.17423,35.79742],[-84.17402,35.79421],[-84.17287,35.79058],[-84.1727,35.78916],[-84.17294,35.78521],[-84.17353,35.78208],[-84.17451,35.78057],[-84.17546,35.77846],[-84.17651,35.77745],[-84.17824,35.77649],[-84.17917,35.77418],[-84.17938,35.77316],[-84.17931,35.77191],[-84.179,35.77102],[-84.179,35.76918],[-84.1793,35.76856],[-84.17972,35.76666],[-84.17987,35.76628],[-84.18076,35.7653],[-84.18103,35.76422],[-84.18148,35.76344],[-84.18212,35.76262],[-84.18313,35.76176],[-84.18346,35.76119],[-84.18451,35.76081],[-84.187,35.76024],[-84.18833,35.76019],[-84.19164,35.76086],[-84.19328,35.76104],[-84.195,35.76161],[-84.19681,35.76182],[-84.19911,35.76267],[-84.20102,35.76372],[-84.20305,35.76551],[-84.20382,35.76641],[-84.20574,35.76756],[-84.20713,35.76814],[-84.20781,35.76865],[-84.20889,35.77069],[-84.20974,35.7716],[-84.20997,35.77207],[-84.21129,35.77318],[-84.21215,35.77431],[-84.21318,35.77525],[-84.21431,35.77662],[-84.21484,35.77758],[-84.21661,35.77848],[-84.21802,35.77909],[-84.21888,35.77928],[-84.21938,35.77969],[-84.22139,35.7805],[-84.22367,35.78198],[-84.22403,35.78256],[-84.23129,35.78507],[-84.23648,35.78618],[-84.23681,35.78873],[-84.23659,35.79069],[-84.23997,35.7916],[-84.24041,35.7916],[-84.24357,35.79052],[-84.24553,35.78959],[-84.24795,35.78905],[-84.25363,35.78664],[-84.25679,35.7855],[-84.25743,35.78511],[-84.25864,35.7848],[-84.26059,35.78363],[-84.27161,35.77882],[-84.27326,35.77784],[-84.27435,35.7769],[-84.27517,35.77581],[-84.27552,35.77504],[-84.27579,35.77288],[-84.27563,35.77181],[-84.27424,35.76809],[-84.27368,35.76592],[-84.27356,35.76485],[-84.27366,35.76268],[-84.27422,35.76011],[-84.27482,35.75884],[-84.27601,35.75725],[-84.27736,35.75633],[-84.27926,35.75597],[-84.28219,35.75624],[-84.28542,35.75693],[-84.28682,35.75768],[-84.28749,35.75864],[-84.28778,35.76187],[-84.28827,35.76376],[-84.28884,35.76505],[-84.29156,35.76861],[-84.29232,35.7693],[-84.29379,35.77022],[-84.29633,35.77077],[-84.29727,35.77081],[-84.30321,35.76968],[-84.30551,35.76911],[-84.30779,35.76836],[-84.30955,35.76759],[-84.31094,35.76659],[-84.3122,35.76534],[-84.31264,35.76456],[-84.31286,35.76365],[-84.31296,35.76172],[-84.31242,35.7582],[-84.31039,35.75224],[-84.30918,35.75067],[-84.30748,35.74917],[-84.30602,35.74669],[-84.30567,35.74562],[-84.30422,35.74427],[-84.30326,35.74295],[-84.30241,35.73973],[-84.30239,35.73765],[-84.30289,35.73603],[-84.30397,35.73469],[-84.30628,35.73298],[-84.3091,35.73138],[-84.31492,35.73004],[-84.31757,35.72963],[-84.31916,35.72943],[-84.32116,35.72949],[-84.32377,35.72998],[-84.32535,35.73068],[-84.32652,35.73139],[-84.32796,35.7327],[-84.3295,35.73609],[-84.33005,35.7392],[-84.33174,35.74482],[-84.33109,35.74547],[-84.33067,35.74626],[-84.33061,35.74805],[-84.33082,35.74874],[-84.3305,35.74968],[-84.33056,35.7547],[-84.33094,35.75774],[-84.33155,35.76001],[-84.33203,35.76081],[-84.33303,35.76145],[-84.33345,35.76276],[-84.33479,35.76576],[-84.33614,35.7682],[-84.33695,35.76919],[-84.33859,35.77069],[-84.34005,35.77161],[-84.34139,35.77219],[-84.34361,35.77282],[-84.34535,35.77287],[-84.34653,35.77269],[-84.34915,35.77155],[-84.35052,35.77042],[-84.3519,35.76871],[-84.35248,35.76775],[-84.35306,35.76614],[-84.35336,35.76422],[-84.35364,35.76347],[-84.35361,35.76176],[-84.35324,35.76059],[-84.35274,35.75993],[-84.35193,35.75808],[-84.35061,35.75582],[-84.34807,35.75193],[-84.34694,35.74949],[-84.34646,35.7476],[-84.34661,35.74568],[-84.34707,35.74467],[-84.34838,35.74323],[-84.34934,35.74274],[-84.35188,35.7422],[-84.35552,35.74218],[-84.35815,35.74269],[-84.36123,35.74413],[-84.36377,35.74585],[-84.36619,35.74778],[-84.37068,35.75182],[-84.37266,35.75442],[-84.37302,35.75529],[-84.37393,35.75664],[-84.37553,35.75834],[-84.37736,35.75939],[-84.37816,35.76038],[-84.37826,35.76141],[-84.3786,35.76233],[-84.38015,35.76391],[-84.38106,35.76432],[-84.38258,35.76439],[-84.3857,35.76687],[-84.38706,35.7677],[-84.38801,35.76809],[-84.38873,35.76929],[-84.3897,35.76991],[-84.39272,35.77169],[-84.39567,35.77317],[-84.39615,35.77336],[-84.39781,35.77349],[-84.39866,35.77402],[-84.39879,35.77432],[-84.39993,35.77534],[-84.4013,35.77586],[-84.40302,35.77604],[-84.40514,35.77675],[-84.40892,35.77727],[-84.41352,35.77701],[-84.41441,35.77711],[-84.41527,35.77694],[-84.41601,35.77664],[-84.41806,35.77525],[-84.42002,35.77366],[-84.42117,35.77296],[-84.42173,35.77137],[-84.42306,35.76987],[-84.42364,35.76865],[-84.42448,35.76386],[-84.42421,35.76123],[-84.42438,35.75873],[-84.42519,35.7555],[-84.42609,35.75377],[-84.4264,35.75277],[-84.4274,35.75174],[-84.42838,35.74994],[-84.42975,35.74914],[-84.43266,35.74826],[-84.43471,35.74808],[-84.43564,35.74818],[-84.43768,35.74897],[-84.43836,35.74948],[-84.43891,35.75024],[-84.44052,35.75113],[-84.44421,35.7538],[-84.44574,35.75455],[-84.44665,35.75556],[-84.44696,35.75645],[-84.4467,35.75761],[-84.44669,35.75881],[-84.44617,35.7604],[-84.44348,35.76389],[-84.4429,35.76481],[-84.44252,35.76588],[-84.44142,35.76747],[-84.441,35.77021],[-84.44122,35.77202],[-84.44159,35.77309],[-84.44116,35.77366],[-84.44096,35.77544],[-84.4416,35.77886],[-84.44224,35.78034],[-84.44434,35.78219],[-84.44553,35.78287],[-84.44668,35.78316],[-84.4479,35.78322],[-84.44943,35.78425],[-84.45193,35.78518],[-84.45481,35.7857],[-84.45668,35.7858],[-84.4585,35.78614],[-84.46037,35.78712],[-84.46496,35.78897],[-84.47005,35.79167],[-84.47196,35.79154],[-84.47328,35.79174],[-84.47567,35.79268],[-84.47718,35.79298],[-84.47859,35.79367],[-84.47953,35.79362],[-84.48045,35.79377],[-84.48357,35.79475],[-84.48419,35.79641],[-84.48496,35.79666],[-84.48571,35.79722],[-84.48725,35.79795],[-84.4881,35.79863],[-84.49043,35.80102],[-84.49162,35.80299],[-84.49214,35.80545],[-84.49247,35.81071],[-84.49295,35.8119],[-84.49425,35.81343],[-84.49445,35.81408],[-84.49426,35.81596],[-84.49253,35.8191],[-84.49219,35.8205],[-84.49215,35.8215],[-84.49255,35.82282],[-84.49302,35.82355],[-84.49396,35.82426],[-84.49499,35.82467],[-84.49589,35.82569],[-84.49648,35.82673],[-84.49821,35.82872],[-84.50154,35.82935],[-84.50329,35.83081],[-84.50543,35.83143],[-84.50685,35.83224],[-84.50871,35.83274],[-84.51123,35.83294],[-84.51242,35.83279],[-84.51507,35.83213],[-84.51678,35.83323],[-84.51761,35.83406],[-84.51762,35.83584],[-84.51918,35.83784],[-84.52047,35.83854],[-84.52248,35.839],[-84.52489,35.83901],[-84.52651,35.83989],[-84.52966,35.84045],[-84.5336,35.84178],[-84.53548,35.84209],[-84.53676,35.84355],[-84.53745,35.84495],[-84.53753,35.84651],[-84.53725,35.84832],[-84.53653,35.84926],[-84.53508,35.85031],[-84.5346,35.85093],[-84.53281,35.8521],[-84.53243,35.85278],[-84.53135,35.854],[-84.53096,35.85495],[-84.53097,35.85709],[-84.53203,35.85904],[-84.53229,35.86027],[-84.53309,35.86155],[-84.53385,35.86353],[-84.53818,35.86365],[-84.54045,35.86313],[-84.54215,35.86309],[-84.54561,35.86215],[-84.54691,35.8616],[-84.54878,35.86013],[-84.55044,35.85574],[-84.55103,35.85365],[-84.55124,35.8522],[-84.55133,35.84769],[-84.55157,35.84673],[-84.55135,35.84422],[-84.55147,35.84363],[-84.55123,35.84272],[-84.55112,35.8409],[-84.55158,35.83967],[-84.5517,35.83846],[-84.55265,35.83638],[-84.55368,35.83559],[-84.55606,35.83421],[-84.55792,35.83355],[-84.56023,35.83334],[-84.5642,35.83337],[-84.56535,35.83311],[-84.56882,35.83417],[-84.57053,35.83422],[-84.57401,35.83614],[-84.57701,35.83878],[-84.57791,35.8393],[-84.57963,35.84001],[-84.58158,35.84052],[-84.58412,35.84189],[-84.58668,35.84262],[-84.58945,35.8432],[-84.59522,35.84377],[-84.59751,35.84343],[-84.6009,35.84208],[-84.60436,35.84011],[-84.60682,35.8371],[-84.60808,35.83503],[-84.60862,35.83145],[-84.60987,35.82943],[-84.61061,35.82734],[-84.61119,35.82426],[-84.61118,35.8225],[-84.61154,35.82022],[-84.61239,35.81752],[-84.61233,35.81365],[-84.61201,35.80996],[-84.6118,35.80931],[-84.61249,35.806],[-84.61292,35.80513],[-84.61316,35.8039],[-84.61317,35.80269],[-84.61378,35.80142],[-84.61379,35.79943],[-84.61428,35.79758],[-84.61643,35.79542],[-84.61735,35.79344],[-84.6185,35.79173],[-84.62299,35.78947],[-84.62514,35.7874],[-84.62607,35.78705],[-84.62805,35.78577],[-84.62886,35.78484],[-84.63109,35.78292],[-84.63209,35.78252],[-84.6346,35.78168],[-84.63919,35.78106],[-84.64281,35.7817],[-84.64394,35.78175],[-84.6472,35.78484],[-84.6481,35.78657],[-84.64895,35.7873],[-84.64965,35.78846],[-84.65051,35.79064],[-84.65018,35.79287],[-84.65062,35.79459],[-84.64968,35.7979],[-84.64967,35.799],[-84.64846,35.8018],[-84.64902,35.80477],[-84.65032,35.80659],[-84.6519,35.8103],[-84.65352,35.81231],[-84.65601,35.81492],[-84.65841,35.81602],[-84.65995,35.81624],[-84.66267,35.81629],[-84.66579,35.81582],[-84.67047,35.81354],[-84.67275,35.81082],[-84.67354,35.80912],[-84.67524,35.8069],[-84.67797,35.80243],[-84.67862,35.80099],[-84.6791,35.79852],[-84.6797,35.79665],[-84.67932,35.79495],[-84.67764,35.79296],[-84.67657,35.79156],[-84.67583,35.79027],[-84.67442,35.78862],[-84.67358,35.78673],[-84.67202,35.78441],[-84.67046,35.78299],[-84.66934,35.7788],[-84.66878,35.77775],[-84.66863,35.77701],[-84.66936,35.77298],[-84.66974,35.7681],[-84.6702,35.76709],[-84.67168,35.7661],[-84.67276,35.76462],[-84.67349,35.76263],[-84.67399,35.76031],[-84.67449,35.75947],[-84.67551,35.7564],[-84.67775,35.75401],[-84.67952,35.75299],[-84.68159,35.75146],[-84.68704,35.7503],[-84.68863,35.75009],[-84.69179,35.75007],[-84.69351,35.75014],[-84.69457,35.75041],[-84.69561,35.75046],[-84.69907,35.75129],[-84.70068,35.75132],[-84.70339,35.75197],[-84.70484,35.75401],[-84.70858,35.75736],[-84.70947,35.75795],[-84.71209,35.75908],[-84.71367,35.75931],[-84.71545,35.7592],[-84.7217,35.75772],[-84.72298,35.75621],[-84.72194,35.75373],[-84.72148,35.75176],[-84.72115,35.75106],[-84.71991,35.74976],[-84.71827,35.74703],[-84.71709,35.74602],[-84.7165,35.74423],[-84.71556,35.74265],[-84.71376,35.74161],[-84.71331,35.74015],[-84.71241,35.73856],[-84.71151,35.73737],[-84.71155,35.7368],[-84.7106,35.73295],[-84.71093,35.73018],[-84.71151,35.72881],[-84.71171,35.72757],[-84.71251,35.72591],[-84.71328,35.72509],[-84.71366,35.7244],[-84.71531,35.72314],[-84.71638,35.72094],[-84.71827,35.7196],[-84.71932,35.71794],[-84.72121,35.71592],[-84.72189,35.71566],[-84.72456,35.71327],[-84.72651,35.7092],[-84.72646,35.7085],[-84.72493,35.70466],[-84.72614,35.70068],[-84.72574,35.69691],[-84.72526,35.69568],[-84.72535,35.69326],[-84.72506,35.68998],[-84.72537,35.68745],[-84.72629,35.68493],[-84.72776,35.68309],[-84.73039,35.68076],[-84.73183,35.67913],[-84.73489,35.67684],[-84.73747,35.67543],[-84.74127,35.67388],[-84.74249,35.67318],[-84.74425,35.67283],[-84.74527,35.67334],[-84.7464,35.67415],[-84.74884,35.67637],[-84.75004,35.67925],[-84.75034,35.68066],[-84.75034,35.68145],[-84.75003,35.68234],[-84.7474,35.68561],[-84.74731,35.68611],[-84.74682,35.68687],[-84.74676,35.68821],[-84.7472,35.69089],[-84.74674,35.69285],[-84.74727,35.69447],[-84.7508,35.69734],[-84.75161,35.69896],[-84.75259,35.70201],[-84.75777,35.70389],[-84.76183,35.70322],[-84.76407,35.70227],[-84.76508,35.70156],[-84.76555,35.70072],[-84.7663,35.69837],[-84.76611,35.6967],[-84.76752,35.69281],[-84.76754,35.69165],[-84.76931,35.69069],[-84.77098,35.68953],[-84.77378,35.68864],[-84.77697,35.68585],[-84.77812,35.68365],[-84.77855,35.68132],[-84.77826,35.67963],[-84.77753,35.67837],[-84.77711,35.67799],[-84.77686,35.67475],[-84.77643,35.67385],[-84.77613,35.67188],[-84.77657,35.66641],[-84.7772,35.66426],[-84.77599,35.661],[-84.77637,35.65809],[-84.77686,35.65631],[-84.77838,35.65409],[-84.77954,35.65289],[-84.77952,35.65214],[-84.78001,35.65004],[-84.78089,35.64824],[-84.78162,35.64735],[-84.78292,35.64442],[-84.78436,35.64262],[-84.78466,35.64187],[-84.78576,35.64057],[-84.78744,35.63913],[-84.78884,35.63632],[-84.78864,35.63559],[-84.78835,35.63235],[-84.78753,35.62924],[-84.78593,35.62785],[-84.78503,35.62661],[-84.783,35.62453],[-84.78197,35.62448],[-84.7804,35.6227],[-84.77979,35.62237],[-84.77924,35.62132]]]}}
