{"type":"Feature","properties":{"id":"north-fork-holston-river","name":"North Fork Holston River","waterbodyType":"river","throughLakeIds":[],"allowOpenEnds":false,"source":"nhd-hu8-06010101","approximate":false,"labelAnchor":[-82.58016,36.60975],"bounds":[-82.61792,36.5483,-81.99994,36.79856],"crs":"EPSG:4326","coordinateOrder":"longitude,latitude","partCount":1,"vertexCount":653,"lengthKm":106.88,"sourceIds":["43561983","43561977","43561961","43561959","43561975","43561971","43561953","43561947","43561945","43561931","43561921","43561917","43561913","43561889","43561901","43561903","43561895","43561893","43561885","43561861","43561873","43561865","43561803","43561813","43561831","43561851","43561847","43561839","43561795","43561791","43561781","43561771","43561775","43561757","43561735","43561721","43561703","43561741","43561733","43561731","43561717","43561707","43561679","43561687","43561691","43561673","43561647","43561665","43561663","43561659","43561655","43561645","43561633","43561641","43561637","43561627","43561571","43561603","43561591","43561601","43561599","43561531","43561573","43561543","43561501","43561495","43561491","43561481","43561475","43561469","43561461","43561457","43561399","43561379","43561357","43561337","43561329","43561317","43561313","43561309","43561293","43561327","43561343","43561351","43561349","43561305","43561301","43561275","43561269","43561265","43561213","43561197","43561259","43561247","43561187","43561147","43561135","43561145","43561141","43561163","43561171","43561245","43561185","43561175","43561157","43561155","43562129","43562127","43562125","43561097","43561079","43561071","43561067","43561065","43561003","43560975","43560969","43560961","43560965","43560981","43560983","43560989","43560993","43561045","43561043","43561029","43561013","43560999","43560967","43560941","43560935","43560927","43560911","43560925","43560943","43560939","43560931","43560901","43560897","43560885","43560873","43560869","43560857","43560821","43560817","43560777","43560773","43560763","43560759","43560755","43560727","43560733","43560737","43560743","43560741","43560715","43560731","43560751","43560723","43560691","43560687","43560681","43560677","43560675","43560667","43560663","43560657","43560649","43560645","43560641","43560637","43560633","43560629","43560627","43560623","43560617","43560613","c95da098-e0d7-4356-bf20-773779b7f878","43560607","43560591","43560587","43560579","43560565","43560573","43560577","43560599","43560601","43560605","43560555","43560541","43560559","43560545","43560547","43560549","43560531","43560529","43560525","43560519","43560515","43560501","43560507","43560509","43560497","43560489","43560485","43560479","43560473","43560451","43560461","43560467","43560465","43560455","43560453","43560437","43560421","43560433","43560435","43560425","43560417","43560411","43560403","43560401","43560395","43560393","43560383","43560377","43560373","43560369","43561967","43561985","43562003","43562011","43562027","43562029","43562043","43562049","43562057","43562071","43562083","43562069","43562063","43562077","43562087","43562089","43562099","43562109","147535011"],"sourceRetrieved":"2026-09-11","geometrySource":"nhd","hu8":"06010101","simplification":{"toleranceM":10,"verticesBefore":1369,"verticesAfter":653,"budgetBytes":81920},"trace":{"anchor":{"lat":36.60975,"lon":-82.58016,"snapDistM":0.3},"up":{"spec":"point:36.7981,-81.9999","reason":"point","terminus":[-81.999945,36.79814],"distKmFromAnchor":94.65},"down":{"spec":"point:36.5479,-82.6119","reason":"point","terminus":[-82.612538,36.5483],"enteredNames":null,"distKmFromAnchor":12.59},"vaaUsed":false,"toleranceM":12}},"geometry":{"type":"MultiLineString","coordinates":[[[-81.99994,36.79814],[-82.00272,36.79856],[-82.00394,36.79832],[-82.01028,36.79544],[-82.01222,36.79479],[-82.01259,36.79425],[-82.01432,36.79383],[-82.01564,36.79294],[-82.01628,36.79218],[-82.0162,36.79172],[-82.01537,36.79021],[-82.01543,36.78951],[-82.01591,36.78895],[-82.01739,36.78809],[-82.01964,36.78762],[-82.02068,36.78759],[-82.0225,36.78782],[-82.02499,36.78845],[-82.02708,36.78978],[-82.02757,36.78988],[-82.02819,36.78974],[-82.0301,36.78911],[-82.03125,36.78828],[-82.03169,36.78775],[-82.03196,36.7866],[-82.03179,36.78465],[-82.03247,36.78401],[-82.03432,36.78337],[-82.03938,36.7825],[-82.04001,36.78267],[-82.04063,36.78314],[-82.0424,36.78522],[-82.04309,36.78527],[-82.0475,36.78366],[-82.04908,36.78248],[-82.05008,36.78194],[-82.05313,36.78111],[-82.05346,36.78073],[-82.0538,36.7789],[-82.05448,36.77856],[-82.05684,36.77845],[-82.05911,36.77978],[-82.05975,36.78],[-82.06034,36.78],[-82.06188,36.7794],[-82.06533,36.77751],[-82.06777,36.77637],[-82.07206,36.77523],[-82.07458,36.77438],[-82.07838,36.7738],[-82.07942,36.77405],[-82.08008,36.77468],[-82.08091,36.77511],[-82.08148,36.77517],[-82.08563,36.7736],[-82.08738,36.77348],[-82.08891,36.77351],[-82.08992,36.77382],[-82.0933,36.77617],[-82.09472,36.77755],[-82.09505,36.77775],[-82.09558,36.77774],[-82.09603,36.77757],[-82.09703,36.77666],[-82.09756,36.77567],[-82.09766,36.77507],[-82.09739,36.77461],[-82.09632,36.77407],[-82.09544,36.77337],[-82.09514,36.77223],[-82.09519,36.77179],[-82.09549,36.77135],[-82.09647,36.77085],[-82.09768,36.77083],[-82.09855,36.77102],[-82.10125,36.77223],[-82.10248,36.77245],[-82.10364,36.77219],[-82.10425,36.77196],[-82.10532,36.77115],[-82.10602,36.77032],[-82.10706,36.76835],[-82.1077,36.76748],[-82.10845,36.76711],[-82.11007,36.76734],[-82.1118,36.76811],[-82.11286,36.7688],[-82.11362,36.7698],[-82.11671,36.77238],[-82.11729,36.77317],[-82.11732,36.77362],[-82.11831,36.77448],[-82.12052,36.77514],[-82.12307,36.77565],[-82.12393,36.77562],[-82.12562,36.77469],[-82.12749,36.7728],[-82.12839,36.77165],[-82.12903,36.77036],[-82.12965,36.76953],[-82.13189,36.76814],[-82.13291,36.76769],[-82.13389,36.7674],[-82.13527,36.76727],[-82.13935,36.76767],[-82.14202,36.76693],[-82.14567,36.7664],[-82.14891,36.76622],[-82.15258,36.76625],[-82.15305,36.76608],[-82.15825,36.76378],[-82.15946,36.7631],[-82.16076,36.76183],[-82.1621,36.75982],[-82.16331,36.75858],[-82.16608,36.7576],[-82.16689,36.75715],[-82.16879,36.75561],[-82.16976,36.75386],[-82.17058,36.75343],[-82.17123,36.75328],[-82.17454,36.75331],[-82.17566,36.75319],[-82.17772,36.75258],[-82.18022,36.7524],[-82.18119,36.75196],[-82.18299,36.75056],[-82.18446,36.75009],[-82.18582,36.7488],[-82.18622,36.74823],[-82.18647,36.74692],[-82.18672,36.74344],[-82.18623,36.74091],[-82.18631,36.73913],[-82.18609,36.73844],[-82.18631,36.73762],[-82.18662,36.73747],[-82.18778,36.73747],[-82.18844,36.73776],[-82.18873,36.73808],[-82.18925,36.74138],[-82.18927,36.74419],[-82.18988,36.74552],[-82.19056,36.74607],[-82.19213,36.74605],[-82.19313,36.74586],[-82.1947,36.74508],[-82.19694,36.74328],[-82.19756,36.74252],[-82.19847,36.74086],[-82.19922,36.7402],[-82.20089,36.7395],[-82.20169,36.73941],[-82.20357,36.7395],[-82.2057,36.73985],[-82.20908,36.74115],[-82.21113,36.74104],[-82.21186,36.7407],[-82.21223,36.74027],[-82.21678,36.73746],[-82.21938,36.73625],[-82.22312,36.73533],[-82.2254,36.73536],[-82.22661,36.73508],[-82.23105,36.7332],[-82.23538,36.73085],[-82.2373,36.73037],[-82.23932,36.73023],[-82.23999,36.73002],[-82.24095,36.72949],[-82.24213,36.72842],[-82.24309,36.72647],[-82.24424,36.72489],[-82.24493,36.72444],[-82.24682,36.7236],[-82.24869,36.72314],[-82.25048,36.7229],[-82.25228,36.72193],[-82.25414,36.72033],[-82.25681,36.71712],[-82.25783,36.7163],[-82.25854,36.71645],[-82.25947,36.71758],[-82.26002,36.718],[-82.26268,36.71881],[-82.26388,36.71895],[-82.26654,36.71876],[-82.26796,36.7189],[-82.26867,36.7187],[-82.2689,36.71822],[-82.26846,36.71711],[-82.26806,36.71672],[-82.26516,36.71515],[-82.26464,36.71467],[-82.26456,36.71394],[-82.26506,36.71239],[-82.26528,36.71203],[-82.26579,36.71168],[-82.26956,36.71028],[-82.27082,36.70959],[-82.27159,36.7087],[-82.27228,36.70723],[-82.27273,36.70693],[-82.27374,36.70701],[-82.27507,36.70745],[-82.2756,36.70777],[-82.27592,36.7082],[-82.2761,36.70911],[-82.27704,36.71099],[-82.27834,36.71233],[-82.27937,36.71305],[-82.28076,36.71371],[-82.283,36.71438],[-82.28435,36.71445],[-82.28488,36.71423],[-82.28556,36.71376],[-82.28979,36.70861],[-82.2904,36.70809],[-82.29223,36.70707],[-82.29369,36.70707],[-82.29424,36.70666],[-82.29519,36.70489],[-82.29567,36.70351],[-82.29559,36.70306],[-82.29527,36.70276],[-82.29394,36.70226],[-82.29315,36.70238],[-82.2915,36.70324],[-82.29028,36.70359],[-82.28903,36.70375],[-82.28756,36.70365],[-82.28669,36.70305],[-82.28637,36.70242],[-82.28626,36.70172],[-82.28639,36.70091],[-82.28824,36.69932],[-82.29044,36.69824],[-82.29148,36.69827],[-82.29539,36.69906],[-82.29625,36.69891],[-82.29702,36.69854],[-82.2977,36.69747],[-82.29775,36.69654],[-82.29694,36.69531],[-82.29607,36.69289],[-82.2963,36.69229],[-82.29686,36.69194],[-82.29801,36.6919],[-82.29878,36.69218],[-82.29911,36.69247],[-82.29979,36.69448],[-82.30147,36.69778],[-82.30283,36.69948],[-82.30645,36.70082],[-82.3077,36.70152],[-82.30938,36.70281],[-82.31079,36.70313],[-82.31254,36.70243],[-82.31342,36.70245],[-82.31542,36.70364],[-82.31675,36.70392],[-82.31751,36.70342],[-82.31831,36.70239],[-82.31956,36.70006],[-82.32145,36.69716],[-82.32332,36.69478],[-82.32341,36.69416],[-82.32305,36.69381],[-82.31929,36.69315],[-82.31734,36.69389],[-82.31358,36.6961],[-82.31009,36.69784],[-82.30958,36.69794],[-82.30915,36.69785],[-82.30881,36.69752],[-82.30828,36.69579],[-82.30776,36.69542],[-82.30739,36.69459],[-82.30773,36.69369],[-82.30839,36.69301],[-82.30913,36.69245],[-82.30995,36.69207],[-82.31445,36.69103],[-82.31863,36.69052],[-82.31974,36.69011],[-82.3212,36.6893],[-82.3274,36.68533],[-82.32823,36.68496],[-82.33296,36.68393],[-82.33528,36.68325],[-82.33822,36.68273],[-82.33938,36.68294],[-82.34159,36.68536],[-82.34303,36.68654],[-82.34506,36.68782],[-82.34607,36.68883],[-82.34727,36.68955],[-82.3499,36.68939],[-82.35206,36.68944],[-82.35266,36.68932],[-82.35656,36.68776],[-82.35841,36.68673],[-82.35992,36.68519],[-82.36118,36.6832],[-82.36153,36.68221],[-82.36151,36.68122],[-82.36128,36.68061],[-82.36099,36.68034],[-82.35723,36.67943],[-82.35487,36.6784],[-82.35389,36.67777],[-82.35257,36.67647],[-82.35244,36.67602],[-82.35265,36.67555],[-82.35428,36.67518],[-82.3571,36.67502],[-82.36005,36.67552],[-82.36228,36.67568],[-82.36449,36.67486],[-82.36861,36.67231],[-82.37047,36.67138],[-82.37485,36.66993],[-82.37958,36.6693],[-82.3809,36.66873],[-82.38196,36.66638],[-82.38245,36.66397],[-82.38072,36.6614],[-82.37922,36.6585],[-82.37748,36.65674],[-82.3774,36.65572],[-82.37775,36.65515],[-82.3784,36.65481],[-82.37892,36.65469],[-82.38048,36.65477],[-82.38149,36.65508],[-82.38219,36.65552],[-82.38279,36.65635],[-82.38325,36.65986],[-82.38361,36.66066],[-82.38476,36.66134],[-82.38631,36.66133],[-82.38729,36.66066],[-82.38785,36.65948],[-82.38789,36.65849],[-82.38729,36.65609],[-82.38798,36.65421],[-82.38834,36.65368],[-82.38899,36.65329],[-82.38989,36.65315],[-82.39075,36.65358],[-82.39197,36.65578],[-82.39249,36.65615],[-82.39293,36.6562],[-82.39472,36.65577],[-82.39552,36.65531],[-82.39714,36.65383],[-82.3977,36.65361],[-82.39819,36.65362],[-82.39938,36.65431],[-82.40205,36.65755],[-82.40259,36.65785],[-82.40321,36.65786],[-82.40377,36.65751],[-82.40422,36.65681],[-82.40456,36.65509],[-82.40413,36.65294],[-82.40343,36.65088],[-82.40342,36.65035],[-82.40381,36.64986],[-82.40511,36.64949],[-82.40573,36.64957],[-82.40627,36.64981],[-82.40687,36.65061],[-82.40859,36.65386],[-82.4095,36.65468],[-82.41052,36.65491],[-82.41141,36.65446],[-82.41239,36.65318],[-82.41319,36.65107],[-82.41298,36.65043],[-82.41306,36.64906],[-82.41406,36.64827],[-82.41555,36.6481],[-82.41691,36.64828],[-82.41839,36.64941],[-82.42035,36.65176],[-82.42115,36.65201],[-82.4218,36.6517],[-82.4232,36.65032],[-82.42487,36.64737],[-82.42569,36.64678],[-82.42623,36.6466],[-82.42685,36.64655],[-82.4281,36.64683],[-82.43049,36.64801],[-82.43159,36.6484],[-82.43279,36.64842],[-82.43353,36.64816],[-82.43397,36.64786],[-82.43487,36.64663],[-82.43595,36.64355],[-82.43646,36.6431],[-82.43739,36.64285],[-82.4395,36.64291],[-82.44025,36.64316],[-82.44094,36.64365],[-82.44242,36.64793],[-82.44287,36.64858],[-82.4438,36.64903],[-82.44494,36.64882],[-82.44694,36.64789],[-82.44839,36.64635],[-82.45037,36.64332],[-82.45117,36.64275],[-82.45251,36.64256],[-82.45329,36.64308],[-82.45386,36.64577],[-82.45532,36.64785],[-82.45625,36.64848],[-82.4575,36.64875],[-82.45866,36.64876],[-82.45924,36.64857],[-82.46019,36.64778],[-82.46074,36.64618],[-82.46081,36.64527],[-82.46053,36.64464],[-82.46022,36.64438],[-82.45688,36.64284],[-82.45603,36.64198],[-82.45561,36.6412],[-82.45528,36.63968],[-82.45575,36.63873],[-82.45626,36.63844],[-82.45749,36.63828],[-82.45872,36.63869],[-82.45939,36.63921],[-82.46046,36.64049],[-82.46107,36.64231],[-82.46196,36.6435],[-82.46271,36.64388],[-82.4638,36.64411],[-82.46464,36.64412],[-82.46503,36.64394],[-82.46543,36.64344],[-82.46509,36.64213],[-82.46535,36.64157],[-82.46807,36.6386],[-82.46839,36.63638],[-82.46886,36.63586],[-82.47084,36.63475],[-82.47206,36.63445],[-82.47349,36.63459],[-82.475,36.63513],[-82.47863,36.63692],[-82.47972,36.63707],[-82.48032,36.6367],[-82.48087,36.63548],[-82.48022,36.63429],[-82.47924,36.63162],[-82.47901,36.62981],[-82.47941,36.62896],[-82.48053,36.62855],[-82.48132,36.62865],[-82.48209,36.62908],[-82.48251,36.62954],[-82.4828,36.63029],[-82.48299,36.63131],[-82.48287,36.63218],[-82.48303,36.63262],[-82.48276,36.63364],[-82.4828,36.63531],[-82.48341,36.63675],[-82.48441,36.63771],[-82.48512,36.63806],[-82.48646,36.63837],[-82.48725,36.63829],[-82.48782,36.63801],[-82.4893,36.63681],[-82.48977,36.63551],[-82.4897,36.63515],[-82.48917,36.6345],[-82.4865,36.6327],[-82.48587,36.63189],[-82.48589,36.63107],[-82.48638,36.62952],[-82.48691,36.62865],[-82.4877,36.62785],[-82.48964,36.6267],[-82.49107,36.62671],[-82.49216,36.62714],[-82.49301,36.62776],[-82.49338,36.62834],[-82.4951,36.63254],[-82.49546,36.63295],[-82.49606,36.63323],[-82.49744,36.6332],[-82.49804,36.63303],[-82.49869,36.6326],[-82.49918,36.63157],[-82.49919,36.63072],[-82.49867,36.62841],[-82.49869,36.62586],[-82.49943,36.62266],[-82.50004,36.62103],[-82.50067,36.6204],[-82.5017,36.62035],[-82.50252,36.62083],[-82.5031,36.62183],[-82.50344,36.62455],[-82.50384,36.6253],[-82.50455,36.62599],[-82.50516,36.62621],[-82.50587,36.62625],[-82.50708,36.62589],[-82.50808,36.62503],[-82.5083,36.62423],[-82.50806,36.62214],[-82.50818,36.62033],[-82.50866,36.61926],[-82.50935,36.6187],[-82.50984,36.61852],[-82.51116,36.61851],[-82.51228,36.61922],[-82.51404,36.62118],[-82.51487,36.62287],[-82.5157,36.62348],[-82.51744,36.62331],[-82.5183,36.62275],[-82.51864,36.62229],[-82.51887,36.62139],[-82.51859,36.61969],[-82.51862,36.61773],[-82.51918,36.61689],[-82.51992,36.61643],[-82.52048,36.61631],[-82.52133,36.61635],[-82.52299,36.61688],[-82.52557,36.61948],[-82.52653,36.62001],[-82.52751,36.62006],[-82.52919,36.61894],[-82.53111,36.6167],[-82.53233,36.61492],[-82.53356,36.61433],[-82.53506,36.61397],[-82.53611,36.61309],[-82.53623,36.61264],[-82.53607,36.61209],[-82.53554,36.61166],[-82.53263,36.61018],[-82.53194,36.60966],[-82.53158,36.60902],[-82.53177,36.60831],[-82.53233,36.6078],[-82.53313,36.60741],[-82.53429,36.60713],[-82.53507,36.60715],[-82.53628,36.60753],[-82.53714,36.60792],[-82.53928,36.60959],[-82.54011,36.61003],[-82.54128,36.61023],[-82.54224,36.61002],[-82.54348,36.60945],[-82.5455,36.60761],[-82.54714,36.60653],[-82.54816,36.60616],[-82.55026,36.60598],[-82.55179,36.60602],[-82.55305,36.60629],[-82.55688,36.60762],[-82.55763,36.60775],[-82.56683,36.60884],[-82.56849,36.60889],[-82.57109,36.60821],[-82.57342,36.60727],[-82.57454,36.60661],[-82.57716,36.60459],[-82.5779,36.60425],[-82.57904,36.6041],[-82.58054,36.60447],[-82.58129,36.60529],[-82.58135,36.60696],[-82.5811,36.60786],[-82.58016,36.60975],[-82.58005,36.61039],[-82.5801,36.6111],[-82.58035,36.61159],[-82.58086,36.61194],[-82.58173,36.61223],[-82.58328,36.61212],[-82.58392,36.61173],[-82.58418,36.6112],[-82.58452,36.60977],[-82.58461,36.6077],[-82.58494,36.60674],[-82.58738,36.60491],[-82.58979,36.60368],[-82.59176,36.60188],[-82.59224,36.60086],[-82.59201,36.60054],[-82.59214,36.59948],[-82.59264,36.59826],[-82.593,36.598],[-82.59351,36.59641],[-82.59393,36.59578],[-82.59623,36.59467],[-82.59732,36.59455],[-82.60202,36.59667],[-82.60508,36.59704],[-82.6068,36.59678],[-82.60802,36.59632],[-82.60925,36.59545],[-82.60949,36.59489],[-82.60945,36.59444],[-82.60608,36.5897],[-82.60502,36.58727],[-82.60415,36.5844],[-82.60329,36.58319],[-82.60228,36.5809],[-82.60076,36.57893],[-82.60005,36.57717],[-82.60035,36.57625],[-82.6014,36.57537],[-82.60299,36.57465],[-82.60444,36.57443],[-82.60515,36.57413],[-82.60728,36.57205],[-82.60829,36.57153],[-82.60865,36.57149],[-82.60931,36.57168],[-82.61007,36.57246],[-82.61173,36.57549],[-82.61204,36.57711],[-82.61287,36.57868],[-82.61387,36.5794],[-82.61486,36.57972],[-82.61602,36.57966],[-82.61627,36.57956],[-82.61667,36.57901],[-82.61776,36.5732],[-82.61792,36.57106],[-82.6178,36.57014],[-82.61719,36.56875],[-82.61295,36.56417],[-82.61259,36.56333],[-82.61245,36.5618],[-82.61252,36.56127],[-82.61289,36.56062],[-82.61493,36.55935],[-82.61606,36.55839],[-82.61631,36.55742],[-82.61254,36.5483]]]}}
