{"type":"Feature","properties":{"id":"watauga-river-wilbur-reach","name":"Watauga River (Watauga Dam to Wilbur Lake)","waterbodyType":"river","throughLakeIds":["wilbur-lake"],"allowOpenEnds":false,"source":"nhd-hu8-06010103","approximate":false,"labelAnchor":[-82.12291,36.33702],"bounds":[-82.12707,36.32994,-82.11487,36.34116],"crs":"EPSG:4326","coordinateOrder":"longitude,latitude","partCount":1,"vertexCount":24,"lengthKm":3.84,"sourceIds":["89948515","{E3B4BE58-F30B-4E00-8295-3B1667E16A1C}","89947879","89947733","89947769"],"sourceRetrieved":"2026-09-11","geometrySource":"nhd","hu8":"06010103","simplification":{"toleranceM":10,"verticesBefore":50,"verticesAfter":24,"budgetBytes":81920},"trace":{"anchor":{"lat":36.33702,"lon":-82.12291,"snapDistM":0.1},"up":{"spec":"headwater","reason":"headwater","terminus":[-82.126345,36.329939],"distKmFromAnchor":1.55},"down":{"spec":"point:36.341158,-82.126357","reason":"point","terminus":[-82.126357,36.341158],"enteredNames":null,"distKmFromAnchor":1.42},"vaaUsed":false,"toleranceM":12}},"geometry":{"type":"MultiLineString","coordinates":[[[-82.12634,36.32994],[-82.12633,36.33032],[-82.12707,36.33274],[-82.12678,36.33386],[-82.12374,36.33546],[-82.12325,36.33663],[-82.12291,36.33702],[-82.12179,36.33768],[-82.1212,36.3379],[-82.11956,36.33815],[-82.11806,36.33815],[-82.12291,36.33702],[-82.11594,36.33808],[-82.11505,36.3387],[-82.11487,36.33944],[-82.11498,36.34007],[-82.1154,36.34051],[-82.11623,36.34093],[-82.11781,36.34101],[-82.11893,36.34085],[-82.11977,36.34099],[-82.12354,36.34074],[-82.12544,36.34085],[-82.12636,36.34116]]]}}
