{"type":"Feature","properties":{"id":"obed-river","name":"Obed River","waterbodyType":"river","throughLakeIds":["lake-holiday"],"allowOpenEnds":false,"source":"nhd-hu8-06010208","approximate":false,"labelAnchor":[-84.67067,36.08147],"bounds":[-85.11469,35.91622,-84.64917,36.09886],"crs":"EPSG:4326","coordinateOrder":"longitude,latitude","partCount":1,"vertexCount":548,"lengthKm":75.36,"sourceIds":["123939463","123939461","123939459","123939457","123939455","123939453","123939452","123939450","123939448","123939446","123939444","123939442","123939440","123939438","123939436","123937903","123937901","123937899","123937898","123937896","123937894","123937892","123937890","123937888","123937886","123937884","123937882","123937880","123937878","123937876","123937874","123937872","123937870","123937868","123937866","123937864","123937862","123937860","123937858","123936541","123936539","123936537","123936535","123936533","123936531","123936529","123936527","123936525","123936523","123936521","123936519","123936517","123936515","123936513","123936511","123936509","123936507","123936505","123936503","123936502","123936500","123936498","123936496","123936494","123936492","123936490","123936488","123936486","123936484","123936482","123936480","123936479","123936476","123936474","123936472","123936470","123936468","123936466","123936464","123938654","123938652","123938650","123938648","123938646","123938644","123938642","123938640","123938638","123938636","123938634","123934717","123934715","123934713","123934711","123934709","123934707","123934705","123934028","123934035","123934097","123934120","123934141","123934142","123934135","123934675","123934673","123934672","123934670","123934185","123934223","123934235","123934229","123934233","123934236","123934247","123934264","123934269","123934631","123934282","123934629","123939465","123939467","123939469","123939471"],"sourceRetrieved":"2026-09-11","geometrySource":"nhd","hu8":"06010208","simplification":{"toleranceM":10,"verticesBefore":1849,"verticesAfter":548,"budgetBytes":81920},"trace":{"anchor":{"lat":36.0815,"lon":-84.6703,"snapDistM":33.2},"up":{"spec":"headwater","reason":"headwater","terminus":[-85.114695,35.916225],"distKmFromAnchor":73.25},"down":{"spec":"mouth","reason":"name-change","terminus":[-84.649174,36.075259],"enteredNames":["Emory River"],"distKmFromAnchor":1.86},"vaaUsed":false,"toleranceM":12}},"geometry":{"type":"MultiLineString","coordinates":[[[-85.11469,35.91622],[-85.11451,35.91749],[-85.1142,35.91805],[-85.11364,35.91848],[-85.1098,35.91953],[-85.10628,35.91984],[-85.10511,35.92042],[-85.10395,35.92193],[-85.10353,35.9232],[-85.10237,35.92451],[-85.10196,35.92545],[-85.10052,35.92672],[-85.10041,35.92698],[-85.09926,35.92739],[-85.09875,35.9279],[-85.09699,35.92782],[-85.09583,35.92741],[-85.09403,35.92729],[-85.09274,35.92813],[-85.09146,35.92817],[-85.09073,35.9286],[-85.08937,35.92853],[-85.08885,35.92828],[-85.08841,35.9271],[-85.08822,35.92695],[-85.08782,35.92695],[-85.08714,35.92769],[-85.08612,35.92825],[-85.08606,35.92946],[-85.08527,35.93057],[-85.0858,35.93148],[-85.08579,35.9318],[-85.08508,35.93249],[-85.08427,35.93274],[-85.08393,35.93254],[-85.08325,35.9316],[-85.08263,35.93155],[-85.08144,35.93186],[-85.08104,35.93169],[-85.08053,35.93111],[-85.0801,35.9312],[-85.0793,35.93168],[-85.07809,35.93179],[-85.07706,35.93393],[-85.07691,35.93513],[-85.07627,35.93563],[-85.07619,35.93615],[-85.07639,35.93644],[-85.0771,35.93678],[-85.07927,35.93722],[-85.07948,35.93738],[-85.07956,35.93774],[-85.07903,35.9384],[-85.07828,35.9388],[-85.07748,35.939],[-85.07721,35.93975],[-85.07608,35.93989],[-85.07526,35.94041],[-85.0749,35.94085],[-85.07424,35.94075],[-85.07339,35.94097],[-85.07295,35.94121],[-85.07253,35.94177],[-85.07151,35.94189],[-85.07112,35.94173],[-85.07009,35.94058],[-85.06966,35.94065],[-85.06923,35.94131],[-85.06838,35.941],[-85.06776,35.94046],[-85.06754,35.93915],[-85.06735,35.93898],[-85.06699,35.93902],[-85.06556,35.94039],[-85.06534,35.94202],[-85.06548,35.94274],[-85.06616,35.94391],[-85.06641,35.94401],[-85.06684,35.944],[-85.06804,35.94316],[-85.06852,35.94327],[-85.0691,35.94386],[-85.06909,35.94498],[-85.06875,35.94542],[-85.06738,35.94595],[-85.06683,35.9463],[-85.06649,35.94687],[-85.06678,35.94736],[-85.06725,35.94762],[-85.06805,35.9492],[-85.0684,35.9507],[-85.0682,35.95193],[-85.06723,35.95307],[-85.06469,35.95297],[-85.0602,35.95348],[-85.05848,35.95561],[-85.05845,35.95663],[-85.0574,35.95679],[-85.05667,35.95652],[-85.05615,35.95554],[-85.05561,35.95527],[-85.05505,35.95528],[-85.05393,35.95594],[-85.05354,35.95602],[-85.05227,35.95477],[-85.05229,35.95447],[-85.05272,35.954],[-85.05239,35.95341],[-85.05013,35.95286],[-85.04913,35.95231],[-85.04865,35.95237],[-85.04859,35.95285],[-85.04911,35.95328],[-85.04942,35.95383],[-85.05028,35.95433],[-85.05035,35.95494],[-85.04979,35.95569],[-85.04978,35.95665],[-85.05142,35.95915],[-85.05115,35.96036],[-85.05056,35.96108],[-85.05052,35.96134],[-85.05094,35.96146],[-85.05258,35.96053],[-85.05363,35.96078],[-85.05478,35.96149],[-85.05611,35.964],[-85.05654,35.96457],[-85.05728,35.96499],[-85.05694,35.96556],[-85.05608,35.96568],[-85.05588,35.9659],[-85.05613,35.96624],[-85.05596,35.96691],[-85.05656,35.96883],[-85.05633,35.96952],[-85.05525,35.97081],[-85.05511,35.97282],[-85.05403,35.97301],[-85.05247,35.97368],[-85.05219,35.97393],[-85.05203,35.97454],[-85.05162,35.97476],[-85.0511,35.97466],[-85.05037,35.97413],[-85.04913,35.97415],[-85.04691,35.97516],[-85.04622,35.9761],[-85.04682,35.97755],[-85.04644,35.97845],[-85.04568,35.97909],[-85.04392,35.97994],[-85.04203,35.98211],[-85.04209,35.98344],[-85.04259,35.98417],[-85.04314,35.98445],[-85.04413,35.98459],[-85.04574,35.9843],[-85.04791,35.98622],[-85.04777,35.98691],[-85.04586,35.9876],[-85.04469,35.98769],[-85.04438,35.98792],[-85.0443,35.98834],[-85.04445,35.98876],[-85.04488,35.98921],[-85.04691,35.98949],[-85.04775,35.98985],[-85.04791,35.99013],[-85.04783,35.99073],[-85.04749,35.99136],[-85.04691,35.99179],[-85.04583,35.99213],[-85.04508,35.99303],[-85.04506,35.9935],[-85.04551,35.99423],[-85.04645,35.99441],[-85.04669,35.99467],[-85.04683,35.99502],[-85.04676,35.99564],[-85.04385,35.99721],[-85.04065,35.9982],[-85.0403,35.99865],[-85.04015,35.99937],[-85.04055,36.00093],[-85.04006,36.0035],[-85.03939,36.0041],[-85.03819,36.00431],[-85.03514,36.00534],[-85.03486,36.00594],[-85.03477,36.00708],[-85.03378,36.00961],[-85.03399,36.01066],[-85.03379,36.01255],[-85.03247,36.01484],[-85.03177,36.01498],[-85.03115,36.01548],[-85.02995,36.01594],[-85.02796,36.01634],[-85.02555,36.01706],[-85.02458,36.0171],[-85.02355,36.0168],[-85.02247,36.01707],[-85.02094,36.01711],[-85.0191,36.01763],[-85.01836,36.018],[-85.01607,36.02008],[-85.01499,36.02247],[-85.01529,36.02372],[-85.01578,36.0243],[-85.01585,36.02474],[-85.01569,36.02514],[-85.01486,36.02551],[-85.01422,36.02558],[-85.01282,36.02567],[-85.01119,36.02546],[-85.01054,36.02587],[-85.01032,36.02638],[-85.01052,36.02662],[-85.01039,36.02706],[-85.01117,36.02881],[-85.01296,36.02951],[-85.01517,36.03145],[-85.01508,36.03236],[-85.01473,36.03329],[-85.01356,36.03342],[-85.01212,36.03306],[-85.01055,36.03289],[-85.00879,36.03239],[-85.00835,36.03177],[-85.00655,36.03092],[-85.00599,36.02976],[-85.00438,36.02859],[-85.00301,36.02878],[-85.00216,36.0285],[-84.9974,36.0279],[-84.99493,36.02788],[-84.99333,36.02826],[-84.99227,36.02902],[-84.99117,36.03078],[-84.98747,36.03217],[-84.98744,36.03232],[-84.98854,36.03342],[-84.98998,36.03439],[-84.99047,36.03536],[-84.99014,36.03809],[-84.9893,36.03953],[-84.98852,36.04048],[-84.98823,36.04131],[-84.98914,36.0428],[-84.98933,36.04508],[-84.99108,36.04632],[-84.99199,36.04717],[-84.99211,36.04801],[-84.99188,36.04866],[-84.99212,36.04968],[-84.99229,36.05211],[-84.99209,36.05294],[-84.99177,36.05338],[-84.99189,36.05429],[-84.99153,36.05488],[-84.99036,36.0561],[-84.98777,36.05759],[-84.98536,36.05747],[-84.9836,36.05755],[-84.98334,36.05741],[-84.98299,36.05648],[-84.98163,36.0558],[-84.97943,36.05522],[-84.9771,36.05525],[-84.9741,36.05387],[-84.97367,36.05376],[-84.97267,36.05386],[-84.97221,36.05396],[-84.97145,36.05478],[-84.96431,36.05939],[-84.9634,36.06097],[-84.96285,36.06137],[-84.96199,36.06162],[-84.96035,36.06178],[-84.95835,36.06238],[-84.95699,36.0619],[-84.95466,36.06249],[-84.95343,36.06303],[-84.9521,36.06336],[-84.94687,36.0643],[-84.94426,36.06506],[-84.94296,36.06612],[-84.94126,36.06703],[-84.93978,36.06725],[-84.93844,36.06723],[-84.93737,36.06662],[-84.93601,36.06623],[-84.93481,36.06514],[-84.93407,36.06481],[-84.93212,36.06481],[-84.93053,36.06463],[-84.92933,36.06499],[-84.92826,36.06558],[-84.92598,36.06539],[-84.92391,36.06322],[-84.92272,36.0629],[-84.92158,36.06201],[-84.92023,36.06128],[-84.91757,36.06056],[-84.91613,36.06049],[-84.91532,36.06065],[-84.91364,36.06155],[-84.91195,36.06179],[-84.90926,36.0627],[-84.90859,36.06331],[-84.90733,36.06387],[-84.90559,36.06513],[-84.90351,36.06866],[-84.90338,36.06913],[-84.90372,36.06985],[-84.9037,36.07133],[-84.90267,36.07337],[-84.90234,36.07359],[-84.90028,36.07423],[-84.89832,36.0742],[-84.89754,36.07397],[-84.89577,36.07292],[-84.89424,36.07271],[-84.892,36.07432],[-84.89166,36.07541],[-84.89205,36.07573],[-84.89105,36.07634],[-84.89061,36.07641],[-84.88644,36.07584],[-84.8841,36.07501],[-84.88258,36.07485],[-84.88227,36.07494],[-84.88048,36.07672],[-84.88003,36.07841],[-84.87958,36.0791],[-84.87605,36.08091],[-84.87518,36.0808],[-84.87296,36.08009],[-84.87209,36.08013],[-84.87166,36.08044],[-84.87184,36.08171],[-84.87153,36.08264],[-84.8709,36.0831],[-84.87031,36.08391],[-84.86989,36.08415],[-84.8681,36.08451],[-84.86634,36.08443],[-84.86481,36.08471],[-84.86242,36.0845],[-84.86203,36.084],[-84.86215,36.08212],[-84.86163,36.08176],[-84.86113,36.08166],[-84.85821,36.0817],[-84.85744,36.08261],[-84.85626,36.08363],[-84.8546,36.08391],[-84.85294,36.0839],[-84.85249,36.08431],[-84.85161,36.08575],[-84.8506,36.08633],[-84.84984,36.08608],[-84.84906,36.08543],[-84.84767,36.08462],[-84.84729,36.08422],[-84.84669,36.08397],[-84.84563,36.08439],[-84.84475,36.08491],[-84.84422,36.08546],[-84.84314,36.08605],[-84.84099,36.08632],[-84.83997,36.08626],[-84.83923,36.08599],[-84.83793,36.08495],[-84.83673,36.08427],[-84.83437,36.08396],[-84.83227,36.08402],[-84.83019,36.08548],[-84.82814,36.08626],[-84.82756,36.08664],[-84.82711,36.0872],[-84.82706,36.08752],[-84.8275,36.08861],[-84.82742,36.08986],[-84.82682,36.09098],[-84.82611,36.09289],[-84.82512,36.0943],[-84.82431,36.09472],[-84.82375,36.09452],[-84.82343,36.09407],[-84.82336,36.09324],[-84.82319,36.09302],[-84.82242,36.09257],[-84.82157,36.09241],[-84.8211,36.09253],[-84.82067,36.09296],[-84.82036,36.09416],[-84.8198,36.09499],[-84.81919,36.09535],[-84.8185,36.09552],[-84.81814,36.0955],[-84.81676,36.09488],[-84.81547,36.0947],[-84.81467,36.09413],[-84.81405,36.09299],[-84.81409,36.09237],[-84.81483,36.09044],[-84.81483,36.08985],[-84.81332,36.0883],[-84.81154,36.08719],[-84.81085,36.08695],[-84.81019,36.08696],[-84.80954,36.08721],[-84.8079,36.08936],[-84.80627,36.09037],[-84.80315,36.09102],[-84.79964,36.09218],[-84.79906,36.09221],[-84.79852,36.09204],[-84.79834,36.0917],[-84.79847,36.09115],[-84.7998,36.08979],[-84.79999,36.08933],[-84.79999,36.08815],[-84.79945,36.08742],[-84.79663,36.08555],[-84.79556,36.08438],[-84.79481,36.08418],[-84.79418,36.08436],[-84.79319,36.0848],[-84.79313,36.08518],[-84.79286,36.08543],[-84.79108,36.08605],[-84.79016,36.08605],[-84.78943,36.08582],[-84.78904,36.08512],[-84.7883,36.08441],[-84.78822,36.08359],[-84.78888,36.08306],[-84.7897,36.08096],[-84.79008,36.07925],[-84.78998,36.07881],[-84.78948,36.07837],[-84.78879,36.07667],[-84.78844,36.07616],[-84.78779,36.07564],[-84.78736,36.07557],[-84.78702,36.07584],[-84.78667,36.07658],[-84.78559,36.07785],[-84.78547,36.07865],[-84.78526,36.07895],[-84.78468,36.07966],[-84.7838,36.08009],[-84.78001,36.07952],[-84.77868,36.07912],[-84.77773,36.07859],[-84.77536,36.07799],[-84.77289,36.07952],[-84.77147,36.08013],[-84.77076,36.08018],[-84.76998,36.08043],[-84.76857,36.08044],[-84.76558,36.07958],[-84.76298,36.07924],[-84.76143,36.07843],[-84.76076,36.0784],[-84.75937,36.07796],[-84.75595,36.07828],[-84.7554,36.07813],[-84.75467,36.07759],[-84.75419,36.07583],[-84.75415,36.07391],[-84.75387,36.07323],[-84.74994,36.07258],[-84.74734,36.07262],[-84.74521,36.07215],[-84.74348,36.07227],[-84.74175,36.07261],[-84.74094,36.07256],[-84.73864,36.07305],[-84.73736,36.07346],[-84.7357,36.07447],[-84.73468,36.07468],[-84.73359,36.07525],[-84.73311,36.07576],[-84.7315,36.07677],[-84.7298,36.07739],[-84.72794,36.07838],[-84.72759,36.07887],[-84.72633,36.07977],[-84.72564,36.08105],[-84.72571,36.08168],[-84.7253,36.08238],[-84.72395,36.08359],[-84.72039,36.08388],[-84.71938,36.08378],[-84.71681,36.08481],[-84.71656,36.08544],[-84.71651,36.08663],[-84.71621,36.08716],[-84.7159,36.08754],[-84.7141,36.0887],[-84.71073,36.08888],[-84.70578,36.08953],[-84.70321,36.08925],[-84.70017,36.08956],[-84.69698,36.09209],[-84.69658,36.09289],[-84.69383,36.09455],[-84.69122,36.09811],[-84.69057,36.09865],[-84.68937,36.09886],[-84.68885,36.09872],[-84.68785,36.09794],[-84.6863,36.09754],[-84.68357,36.09617],[-84.68258,36.09545],[-84.68247,36.0947],[-84.6851,36.09041],[-84.68554,36.08894],[-84.68522,36.08833],[-84.68509,36.08744],[-84.68416,36.08585],[-84.68199,36.084],[-84.6814,36.0838],[-84.68083,36.08387],[-84.67872,36.08548],[-84.67841,36.08561],[-84.67753,36.08559],[-84.67318,36.08443],[-84.67176,36.08378],[-84.67132,36.08336],[-84.67077,36.08223],[-84.67051,36.08096],[-84.66955,36.08036],[-84.66893,36.08017],[-84.66704,36.0799],[-84.67067,36.08147],[-84.66624,36.07993],[-84.66452,36.08069],[-84.66314,36.08104],[-84.66007,36.08085],[-84.65721,36.0803],[-84.65419,36.07943],[-84.65104,36.07715],[-84.64917,36.07526]]]}}
