{"type":"Feature","properties":{"id":"red-river-clarksville","name":"Red River (Montgomery County)","waterbodyType":"river","throughLakeIds":[],"allowOpenEnds":false,"source":"nhd-hu8-05130206","approximate":false,"labelAnchor":[-87.14192,36.55474],"bounds":[-87.372,36.52429,-87.04086,36.60893],"crs":"EPSG:4326","coordinateOrder":"longitude,latitude","partCount":1,"vertexCount":372,"lengthKm":68.76,"sourceIds":["54400116","54400010","54399875","54399818","54399653","54399524","54399389","54399359","54399350","54399316","54399311","54400015","54400285","54400290","54400388","54400640","54400643","54400567","54400507","54400734","54400610","54400600","54400592","54400580","54400738","54400796","54400805","54400806","54400772","54400562","54400491","54400513","54400602","{AB52E835-EB98-4DED-92F4-A77CDBFD0636}","{6E7E4248-E23A-4E62-A66C-758F1519A91B}"],"sourceRetrieved":"2026-09-11","geometrySource":"nhd","hu8":"05130206","simplification":{"toleranceM":10,"verticesBefore":784,"verticesAfter":372,"budgetBytes":81920},"trace":{"anchor":{"lat":36.5547,"lon":-87.1419,"snapDistM":4.9},"up":{"spec":"point:36.6037,-87.0409","reason":"point","terminus":[-87.040865,36.603702],"distKmFromAnchor":29.7},"down":{"spec":"mouth","reason":"terminal-node","terminus":[-87.372005,36.538248],"enteredNames":null,"distKmFromAnchor":32.53},"vaaUsed":false,"toleranceM":12}},"geometry":{"type":"MultiLineString","coordinates":[[[-87.04086,36.6037],[-87.04166,36.60378],[-87.04194,36.60398],[-87.04334,36.60423],[-87.04486,36.60416],[-87.04642,36.60367],[-87.04661,36.60343],[-87.0487,36.60249],[-87.04968,36.60244],[-87.05006,36.60274],[-87.0503,36.60323],[-87.05046,36.60405],[-87.05029,36.60503],[-87.04937,36.60718],[-87.04927,36.60778],[-87.04944,36.60861],[-87.05002,36.60893],[-87.05098,36.6089],[-87.05353,36.60741],[-87.05469,36.60641],[-87.05582,36.60513],[-87.05609,36.60446],[-87.05707,36.60324],[-87.05733,36.60217],[-87.057,36.60074],[-87.05661,36.59991],[-87.0552,36.59785],[-87.05412,36.5954],[-87.05315,36.59419],[-87.05305,36.59363],[-87.05351,36.59272],[-87.0553,36.59201],[-87.05615,36.59197],[-87.0567,36.59212],[-87.05917,36.59365],[-87.06152,36.59554],[-87.06285,36.59688],[-87.06828,36.60065],[-87.07073,36.60177],[-87.07192,36.60162],[-87.07253,36.60093],[-87.07309,36.5987],[-87.07313,36.59753],[-87.07283,36.59662],[-87.07286,36.59567],[-87.07332,36.59411],[-87.07376,36.59327],[-87.07481,36.59206],[-87.0757,36.59118],[-87.0774,36.58996],[-87.07807,36.58978],[-87.07856,36.5898],[-87.08236,36.59105],[-87.08552,36.59176],[-87.08663,36.59177],[-87.08707,36.59159],[-87.08809,36.59075],[-87.08971,36.58672],[-87.09022,36.58632],[-87.09232,36.58554],[-87.09274,36.58522],[-87.09299,36.58473],[-87.09268,36.58408],[-87.09139,36.5829],[-87.09085,36.58196],[-87.09078,36.58109],[-87.09098,36.58085],[-87.09176,36.58062],[-87.095,36.58035],[-87.09554,36.58046],[-87.0958,36.58033],[-87.09697,36.58041],[-87.09821,36.5809],[-87.10071,36.58246],[-87.10338,36.58487],[-87.10416,36.58523],[-87.10492,36.58516],[-87.10554,36.58444],[-87.10575,36.58299],[-87.10518,36.57991],[-87.10521,36.57843],[-87.10553,36.57773],[-87.10953,36.57565],[-87.11052,36.57545],[-87.11267,36.5755],[-87.1142,36.5753],[-87.1157,36.57552],[-87.11634,36.57528],[-87.11747,36.57533],[-87.11908,36.57482],[-87.11984,36.57388],[-87.11995,36.57306],[-87.1192,36.56943],[-87.11941,36.56901],[-87.11995,36.56877],[-87.12158,36.56877],[-87.12402,36.56947],[-87.12699,36.57065],[-87.12978,36.57229],[-87.13089,36.57276],[-87.13185,36.57314],[-87.1331,36.57327],[-87.13363,36.57279],[-87.13399,36.5721],[-87.13433,36.57056],[-87.13408,36.56901],[-87.13273,36.56652],[-87.13252,36.56372],[-87.13274,36.56318],[-87.13335,36.56276],[-87.13458,36.56264],[-87.13683,36.56312],[-87.13918,36.5643],[-87.14158,36.56518],[-87.14313,36.56656],[-87.14405,36.56712],[-87.14864,36.56873],[-87.14913,36.56875],[-87.14962,36.56859],[-87.15023,36.5677],[-87.15034,36.56526],[-87.15,36.56402],[-87.14916,36.56344],[-87.14779,36.56311],[-87.14631,36.56305],[-87.14506,36.56315],[-87.14332,36.56361],[-87.14195,36.56363],[-87.14109,36.56333],[-87.14035,36.56278],[-87.13848,36.56239],[-87.13781,36.5618],[-87.13709,36.55965],[-87.13737,36.55855],[-87.13858,36.55724],[-87.13975,36.55658],[-87.14032,36.55608],[-87.14127,36.55491],[-87.14208,36.5547],[-87.14319,36.55457],[-87.14503,36.55488],[-87.14684,36.55584],[-87.14848,36.5573],[-87.14996,36.55751],[-87.15175,36.55704],[-87.15236,36.55674],[-87.15953,36.55071],[-87.16199,36.55034],[-87.16356,36.55077],[-87.16507,36.55154],[-87.16662,36.5525],[-87.16716,36.55302],[-87.1672,36.55358],[-87.16688,36.55424],[-87.16605,36.55508],[-87.16438,36.5559],[-87.16044,36.55688],[-87.15756,36.55697],[-87.15634,36.55748],[-87.1559,36.55805],[-87.15436,36.55829],[-87.15324,36.55867],[-87.15288,36.55898],[-87.15243,36.56002],[-87.15235,36.5608],[-87.15258,36.56156],[-87.15308,36.56247],[-87.1548,36.56465],[-87.15558,36.56524],[-87.15685,36.56584],[-87.15782,36.566],[-87.16194,36.5662],[-87.16404,36.56598],[-87.16699,36.56534],[-87.1681,36.56538],[-87.16878,36.56557],[-87.1692,36.56615],[-87.1697,36.5674],[-87.16999,36.56951],[-87.1706,36.57114],[-87.17082,36.57144],[-87.1715,36.57184],[-87.17244,36.57207],[-87.17336,36.57196],[-87.17451,36.57136],[-87.17549,36.57021],[-87.17609,36.56902],[-87.17676,36.56652],[-87.17739,36.56607],[-87.17764,36.56571],[-87.17833,36.56345],[-87.14192,36.55474],[-87.1783,36.56327],[-87.181,36.56116],[-87.18237,36.56042],[-87.18292,36.55978],[-87.18315,36.55867],[-87.18276,36.55535],[-87.18284,36.55449],[-87.18305,36.55422],[-87.18441,36.55341],[-87.18592,36.55307],[-87.187,36.55308],[-87.1887,36.55353],[-87.18972,36.55411],[-87.19048,36.55475],[-87.19258,36.5572],[-87.19306,36.55843],[-87.19339,36.55855],[-87.19374,36.55897],[-87.19452,36.5592],[-87.19595,36.56052],[-87.19744,36.56119],[-87.19922,36.56122],[-87.20104,36.56054],[-87.20389,36.55898],[-87.20504,36.55865],[-87.20641,36.55765],[-87.20784,36.55732],[-87.20923,36.55633],[-87.20944,36.55591],[-87.20895,36.55512],[-87.2082,36.55447],[-87.20197,36.5502],[-87.20106,36.54919],[-87.20068,36.54844],[-87.20078,36.5475],[-87.20177,36.54603],[-87.20265,36.54532],[-87.20357,36.54477],[-87.20433,36.54454],[-87.20618,36.54463],[-87.21071,36.54653],[-87.21211,36.54786],[-87.21345,36.55116],[-87.21507,36.55411],[-87.21566,36.55454],[-87.21616,36.5547],[-87.2175,36.55442],[-87.21828,36.55389],[-87.21884,36.55325],[-87.21906,36.5526],[-87.21877,36.55038],[-87.21825,36.54956],[-87.21802,36.54866],[-87.21792,36.54615],[-87.21804,36.54496],[-87.21901,36.54248],[-87.22069,36.54167],[-87.22344,36.54109],[-87.22843,36.54151],[-87.2285,36.54176],[-87.22876,36.54188],[-87.23165,36.54196],[-87.23368,36.54182],[-87.23517,36.54153],[-87.23541,36.54135],[-87.23865,36.5416],[-87.24062,36.54131],[-87.24167,36.54151],[-87.24285,36.54142],[-87.24365,36.54112],[-87.24414,36.54076],[-87.24441,36.54031],[-87.24466,36.53948],[-87.2446,36.53885],[-87.24373,36.53592],[-87.24221,36.53296],[-87.24235,36.5326],[-87.24223,36.53154],[-87.24275,36.53081],[-87.24342,36.5304],[-87.24692,36.52888],[-87.24763,36.52876],[-87.24849,36.52896],[-87.24995,36.52965],[-87.25142,36.52997],[-87.25323,36.53103],[-87.2552,36.53164],[-87.26078,36.53246],[-87.26236,36.5334],[-87.26561,36.53482],[-87.26637,36.53484],[-87.26797,36.53429],[-87.26905,36.53366],[-87.27006,36.5336],[-87.27095,36.53424],[-87.27164,36.53503],[-87.27243,36.53662],[-87.27307,36.5385],[-87.27432,36.54062],[-87.27529,36.54171],[-87.27607,36.54204],[-87.27723,36.54196],[-87.27842,36.54165],[-87.27953,36.54094],[-87.28133,36.53907],[-87.28243,36.5372],[-87.28246,36.53678],[-87.28211,36.53613],[-87.27687,36.53139],[-87.27661,36.53097],[-87.27642,36.53002],[-87.27684,36.52891],[-87.27813,36.52765],[-87.28003,36.52676],[-87.28106,36.52652],[-87.2821,36.52674],[-87.28349,36.52745],[-87.28453,36.52838],[-87.2862,36.53045],[-87.28735,36.53231],[-87.28939,36.5387],[-87.28986,36.53985],[-87.29062,36.54089],[-87.29135,36.54099],[-87.29258,36.54041],[-87.29513,36.53754],[-87.29646,36.53634],[-87.29746,36.5341],[-87.298,36.53376],[-87.29863,36.5338],[-87.30184,36.53477],[-87.305,36.53588],[-87.30616,36.53601],[-87.30962,36.536],[-87.31154,36.53618],[-87.31341,36.53661],[-87.31541,36.53743],[-87.31923,36.53977],[-87.31995,36.53998],[-87.32051,36.53987],[-87.32111,36.53939],[-87.32198,36.53783],[-87.32242,36.53667],[-87.32249,36.53561],[-87.32189,36.53328],[-87.32065,36.53061],[-87.31949,36.52869],[-87.31944,36.52798],[-87.31978,36.52745],[-87.3207,36.52657],[-87.32299,36.52479],[-87.32404,36.52429],[-87.32863,36.52565],[-87.33175,36.52692],[-87.3337,36.52749],[-87.33414,36.52779],[-87.33451,36.52918],[-87.33433,36.53116],[-87.33332,36.53564],[-87.33255,36.53798],[-87.33178,36.53961],[-87.33165,36.5408],[-87.33193,36.54151],[-87.33354,36.54314],[-87.33503,36.54399],[-87.33635,36.54451],[-87.33768,36.54458],[-87.33962,36.54428],[-87.3413,36.54398],[-87.34368,36.54317],[-87.34517,36.5429],[-87.34885,36.54306],[-87.35007,36.54334],[-87.35116,36.54333],[-87.35298,36.54357],[-87.35703,36.54349],[-87.36534,36.54381],[-87.36706,36.54294],[-87.36958,36.54],[-87.372,36.53825]]]}}
