{"type":"Feature","properties":{"id":"doe-creek-johnson","name":"Doe Creek (Johnson County)","waterbodyType":"creek","throughLakeIds":["watauga-lake"],"allowOpenEnds":false,"source":"nhd-hu8-06010103","approximate":false,"labelAnchor":[-81.96319,36.40239],"bounds":[-81.96897,36.37527,-81.84416,36.46557],"crs":"EPSG:4326","coordinateOrder":"longitude,latitude","partCount":1,"vertexCount":182,"lengthKm":21.69,"sourceIds":["89942611","89942363","89942263","89942071","89941871","89941829","89941729","89941617","89941573","89941459","89941293","89941125","89941225","89941235","89941231","89941083","89940877","89940785","89940625","89940553","89940551","89940503","89940369","89940357","89940313","89940307","89940269","89940237","89940103","89940013","89939857","89939597","89939553","89939493","89939395","89939125","89939119","89939153","89939161","89939139","89938885","89938819","89938759","89938739","89938673","89938541","89938521","89938497","89938481","89942639","89942755","89942929","89943027","89943139","89943185","89943283","89943531","89943555","89943739","89943757","89943751","89943693","89943649","89943621","89943671","89943879","89944051","89944181"],"sourceRetrieved":"2026-09-11","geometrySource":"nhd","hu8":"06010103","simplification":{"toleranceM":10,"verticesBefore":865,"verticesAfter":182,"budgetBytes":81920},"trace":{"anchor":{"lat":36.402389,"lon":-81.96319,"snapDistM":0},"up":{"spec":"headwater","reason":"headwater","terminus":[-81.844161,36.464585],"distKmFromAnchor":16.13},"down":{"spec":"mouth","reason":"name-change","terminus":[-81.938755,36.375274],"enteredNames":["Roan Creek"],"distKmFromAnchor":5.34},"vaaUsed":false,"toleranceM":12}},"geometry":{"type":"MultiLineString","coordinates":[[[-81.84416,36.46459],[-81.84458,36.46456],[-81.84576,36.46491],[-81.8466,36.46497],[-81.84771,36.46557],[-81.85063,36.46467],[-81.85206,36.46404],[-81.85551,36.46336],[-81.85779,36.46368],[-81.85895,36.46341],[-81.85994,36.46337],[-81.8607,36.46318],[-81.86086,36.46258],[-81.86334,36.45999],[-81.8641,36.45997],[-81.86459,36.45972],[-81.86507,36.45974],[-81.86627,36.45932],[-81.86707,36.45939],[-81.86822,36.45914],[-81.87093,36.45953],[-81.87207,36.45953],[-81.87281,36.45902],[-81.87429,36.45853],[-81.87502,36.45703],[-81.87561,36.45673],[-81.87592,36.45628],[-81.87668,36.45609],[-81.87704,36.45583],[-81.87719,36.45517],[-81.87783,36.45498],[-81.87848,36.45445],[-81.87907,36.45368],[-81.8793,36.45301],[-81.87962,36.45277],[-81.88011,36.45284],[-81.8812,36.45338],[-81.88264,36.45353],[-81.88438,36.45439],[-81.8855,36.45429],[-81.88582,36.45475],[-81.88601,36.45478],[-81.88702,36.45453],[-81.88789,36.45465],[-81.89015,36.45425],[-81.89066,36.4534],[-81.89214,36.45266],[-81.89285,36.45211],[-81.89426,36.45189],[-81.89531,36.45142],[-81.89568,36.4514],[-81.8961,36.45111],[-81.89678,36.44987],[-81.89797,36.44916],[-81.89993,36.44886],[-81.90344,36.44748],[-81.90472,36.44673],[-81.90557,36.44659],[-81.90717,36.4449],[-81.90766,36.44469],[-81.90839,36.44482],[-81.90877,36.44453],[-81.90906,36.44391],[-81.90898,36.4429],[-81.90775,36.44186],[-81.90698,36.44073],[-81.90615,36.44023],[-81.90589,36.43893],[-81.90696,36.43687],[-81.9093,36.43507],[-81.9099,36.4349],[-81.91129,36.43502],[-81.91264,36.43446],[-81.91478,36.43468],[-81.9161,36.43463],[-81.91733,36.43431],[-81.91844,36.43388],[-81.91885,36.43353],[-81.91902,36.43314],[-81.91948,36.43303],[-81.92023,36.43245],[-81.92086,36.43184],[-81.92116,36.43102],[-81.92147,36.43087],[-81.92309,36.43099],[-81.92492,36.43207],[-81.92574,36.43195],[-81.92668,36.43138],[-81.92695,36.43089],[-81.92828,36.4305],[-81.929,36.43011],[-81.93138,36.42751],[-81.93194,36.42712],[-81.93311,36.4269],[-81.93434,36.4263],[-81.93604,36.42736],[-81.93676,36.42727],[-81.93753,36.42694],[-81.93798,36.42657],[-81.93832,36.42585],[-81.93939,36.42556],[-81.94002,36.42515],[-81.94021,36.42466],[-81.94068,36.42421],[-81.94063,36.42356],[-81.94136,36.42191],[-81.94198,36.42193],[-81.9429,36.42223],[-81.94348,36.42266],[-81.94431,36.42367],[-81.94473,36.42372],[-81.94599,36.42317],[-81.94833,36.42165],[-81.94995,36.42033],[-81.95193,36.41829],[-81.95277,36.41771],[-81.95557,36.41714],[-81.95622,36.41677],[-81.95629,36.4165],[-81.95595,36.41598],[-81.95569,36.41512],[-81.9559,36.41426],[-81.9581,36.4126],[-81.95962,36.41299],[-81.96047,36.4124],[-81.96143,36.40897],[-81.96231,36.40779],[-81.9624,36.40717],[-81.96218,36.4067],[-81.96238,36.40604],[-81.96324,36.40579],[-81.96337,36.40341],[-81.96319,36.40239],[-81.96355,36.40151],[-81.96424,36.40082],[-81.96319,36.40239],[-81.96424,36.40082],[-81.9646,36.40051],[-81.9654,36.40023],[-81.96696,36.40017],[-81.96765,36.40001],[-81.96807,36.39973],[-81.9684,36.39899],[-81.96855,36.39782],[-81.96845,36.39695],[-81.96897,36.39625],[-81.96891,36.39566],[-81.96701,36.39384],[-81.96635,36.39212],[-81.96678,36.39119],[-81.96791,36.38982],[-81.96825,36.38868],[-81.96833,36.38731],[-81.96819,36.38684],[-81.96781,36.38628],[-81.9674,36.38606],[-81.96601,36.38611],[-81.96485,36.38565],[-81.96432,36.38483],[-81.96313,36.38408],[-81.96277,36.38356],[-81.96169,36.38331],[-81.95863,36.38316],[-81.95738,36.38288],[-81.95625,36.38306],[-81.95429,36.38363],[-81.95295,36.38374],[-81.95186,36.38365],[-81.94848,36.38409],[-81.94762,36.3841],[-81.94691,36.38391],[-81.94645,36.38365],[-81.94598,36.38304],[-81.94515,36.38271],[-81.94255,36.37989],[-81.94158,36.37924],[-81.94074,36.37816],[-81.94053,36.37731],[-81.9402,36.37691],[-81.94028,36.3767],[-81.93939,36.37566],[-81.93875,36.37527]]]}}
