{"type":"Feature","properties":{"id":"sulfur-fork-creek","name":"Sulfur Fork Creek","waterbodyType":"creek","throughLakeIds":[],"allowOpenEnds":false,"source":"nhd-hu8-05130206","approximate":false,"labelAnchor":[-86.99704,36.5125],"bounds":[-87.14127,36.42808,-86.69459,36.55491],"crs":"EPSG:4326","coordinateOrder":"longitude,latitude","partCount":1,"vertexCount":503,"lengthKm":74.71,"sourceIds":["54400719","54400731","54400733","54400831","54400828","54400621","54400557","54400676","54400678","54400665","54400536","54400508","54400613","54400487","54400385","54400411","54400410","54400359","54400260","54400276","54400309","54400307","54400287","54400282","54400293","54400391","54400395","54400156","54400148","54400326","54400357","54400356","54400423","54400438","54400471","54400515","54400603","54400616","54400753","54400855","54400862","54400913","54400916","54400924","54400953","54400960","54400993","54400994","54401024","54401025","54401027","54401031","54401047","54401127","54401201","54401250","54401269","54401312","54401333","54401332","54400757","54400771","54400585","54400582","54400416","54400620","54400630","54400550","54400401","54400399","54400263","54400063","54400053","54400035","54400011"],"sourceRetrieved":"2026-09-11","geometrySource":"nhd","hu8":"05130206","simplification":{"toleranceM":10,"verticesBefore":1110,"verticesAfter":503,"budgetBytes":81920},"trace":{"anchor":{"lat":36.5125,"lon":-86.997,"snapDistM":3.5},"up":{"spec":"headwater","reason":"headwater","terminus":[-86.694589,36.428077],"distKmFromAnchor":44.68},"down":{"spec":"mouth","reason":"name-change","terminus":[-87.14124159999999,36.5548902],"enteredNames":["Red River"],"distKmFromAnchor":29.24},"vaaUsed":false,"toleranceM":12}},"geometry":{"type":"MultiLineString","coordinates":[[[-86.69459,36.42808],[-86.69833,36.43041],[-86.69918,36.4305],[-86.69955,36.43077],[-86.70037,36.43077],[-86.7012,36.43112],[-86.70268,36.43135],[-86.70542,36.43023],[-86.70634,36.43016],[-86.70686,36.43032],[-86.70791,36.42997],[-86.70921,36.42999],[-86.71096,36.42888],[-86.71365,36.43001],[-86.71556,36.42951],[-86.71665,36.42972],[-86.71711,36.43001],[-86.71934,36.4317],[-86.72053,36.43285],[-86.72126,36.43327],[-86.72232,36.43355],[-86.72514,36.43673],[-86.72567,36.43693],[-86.72641,36.43683],[-86.72696,36.43705],[-86.72793,36.43795],[-86.72824,36.43873],[-86.72859,36.43906],[-86.73001,36.44015],[-86.73238,36.44134],[-86.73408,36.44277],[-86.73457,36.44368],[-86.73448,36.44407],[-86.7347,36.44448],[-86.73459,36.44475],[-86.73472,36.44493],[-86.736,36.44552],[-86.73691,36.44714],[-86.73715,36.44792],[-86.73846,36.44886],[-86.73952,36.45002],[-86.73974,36.45035],[-86.73986,36.45157],[-86.74042,36.45267],[-86.74136,36.45393],[-86.7422,36.45431],[-86.74406,36.45581],[-86.74548,36.45672],[-86.74563,36.45764],[-86.74722,36.45901],[-86.75078,36.45995],[-86.75121,36.4612],[-86.75171,36.46164],[-86.75278,36.46178],[-86.75419,36.46233],[-86.75498,36.46316],[-86.7552,36.46362],[-86.75534,36.46492],[-86.756,36.46613],[-86.75673,36.46687],[-86.75762,36.46727],[-86.75907,36.4673],[-86.76047,36.46806],[-86.76251,36.46855],[-86.76355,36.46839],[-86.76397,36.46824],[-86.76495,36.46743],[-86.76643,36.46709],[-86.76885,36.46679],[-86.77056,36.46696],[-86.77093,36.46743],[-86.77163,36.46918],[-86.7719,36.46951],[-86.77322,36.46948],[-86.77402,36.47002],[-86.77469,36.47018],[-86.77524,36.47085],[-86.77911,36.47326],[-86.7797,36.47392],[-86.78071,36.47609],[-86.78188,36.47679],[-86.7837,36.47701],[-86.78546,36.47764],[-86.78666,36.47776],[-86.78849,36.47746],[-86.78986,36.47893],[-86.79079,36.47941],[-86.79119,36.47992],[-86.7914,36.48134],[-86.79138,36.4818],[-86.79082,36.48253],[-86.79084,36.48277],[-86.79258,36.48455],[-86.79254,36.4855],[-86.79295,36.48654],[-86.79269,36.48868],[-86.79228,36.4898],[-86.79279,36.49067],[-86.79278,36.49095],[-86.79262,36.49119],[-86.79188,36.49164],[-86.79176,36.49197],[-86.79173,36.49362],[-86.79189,36.4947],[-86.79178,36.49571],[-86.79206,36.49611],[-86.79289,36.49659],[-86.79515,36.49742],[-86.79644,36.4974],[-86.79897,36.49682],[-86.8017,36.49731],[-86.80207,36.49756],[-86.80237,36.49804],[-86.8028,36.49941],[-86.80394,36.50168],[-86.80493,36.50283],[-86.80471,36.50442],[-86.80686,36.50507],[-86.808,36.50579],[-86.81005,36.50642],[-86.81124,36.50708],[-86.81318,36.50759],[-86.8143,36.50755],[-86.81577,36.50726],[-86.8162,36.50733],[-86.81791,36.50837],[-86.8193,36.50832],[-86.82021,36.50987],[-86.82084,36.51058],[-86.8211,36.51151],[-86.82231,36.51369],[-86.82357,36.51356],[-86.82537,36.51262],[-86.82917,36.51189],[-86.82944,36.51276],[-86.82902,36.51363],[-86.82937,36.51546],[-86.82915,36.51687],[-86.82939,36.51743],[-86.82982,36.51781],[-86.83035,36.51777],[-86.83311,36.5169],[-86.83434,36.51633],[-86.83457,36.51577],[-86.83564,36.51535],[-86.84312,36.51456],[-86.84649,36.51488],[-86.84728,36.51526],[-86.84758,36.5156],[-86.84764,36.51612],[-86.84724,36.51727],[-86.84599,36.51973],[-86.84483,36.52086],[-86.84463,36.52164],[-86.84484,36.52258],[-86.84555,36.52351],[-86.84759,36.52397],[-86.84842,36.52441],[-86.84904,36.52415],[-86.84941,36.52139],[-86.8518,36.51957],[-86.85327,36.51889],[-86.85386,36.51786],[-86.85549,36.5169],[-86.85667,36.51583],[-86.85908,36.51494],[-86.8603,36.51472],[-86.86198,36.51332],[-86.86431,36.51304],[-86.86636,36.51339],[-86.86689,36.51417],[-86.86876,36.51451],[-86.86958,36.51492],[-86.87202,36.51738],[-86.8733,36.5182],[-86.87373,36.51918],[-86.87458,36.51952],[-86.87572,36.52031],[-86.878,36.52035],[-86.87903,36.51986],[-86.87987,36.51991],[-86.8805,36.51965],[-86.88206,36.5186],[-86.88249,36.5184],[-86.88289,36.51842],[-86.88439,36.51901],[-86.88598,36.52082],[-86.88721,36.5213],[-86.88781,36.52086],[-86.88782,36.5197],[-86.88826,36.51877],[-86.88851,36.51728],[-86.88891,36.51678],[-86.88984,36.51652],[-86.89089,36.51732],[-86.89218,36.51768],[-86.89764,36.51699],[-86.8985,36.51734],[-86.89957,36.51642],[-86.90155,36.51514],[-86.90191,36.51514],[-86.90242,36.51527],[-86.90306,36.5157],[-86.90491,36.51829],[-86.90529,36.51924],[-86.90507,36.52129],[-86.90517,36.52167],[-86.90558,36.52197],[-86.90629,36.5219],[-86.90754,36.52156],[-86.90893,36.52091],[-86.91039,36.52066],[-86.9128,36.51902],[-86.91302,36.51785],[-86.914,36.5151],[-86.91366,36.51265],[-86.91377,36.51204],[-86.91409,36.51166],[-86.91506,36.51155],[-86.91605,36.51176],[-86.91861,36.51278],[-86.92056,36.514],[-86.92274,36.51459],[-86.92314,36.51459],[-86.92332,36.51407],[-86.9228,36.51306],[-86.9224,36.51115],[-86.92145,36.50976],[-86.92149,36.50885],[-86.92183,36.50783],[-86.92266,36.50693],[-86.92419,36.50622],[-86.92504,36.506],[-86.92591,36.50607],[-86.92723,36.50701],[-86.9285,36.50864],[-86.93063,36.51095],[-86.93114,36.51251],[-86.93193,36.51308],[-86.93342,36.51342],[-86.93586,36.51272],[-86.93902,36.51213],[-86.94171,36.51108],[-86.94236,36.51067],[-86.94279,36.51015],[-86.94331,36.50885],[-86.9442,36.50481],[-86.94498,36.5041],[-86.94561,36.50393],[-86.94639,36.50404],[-86.94676,36.5043],[-86.9481,36.50608],[-86.94806,36.50883],[-86.94779,36.51072],[-86.9482,36.51154],[-86.94876,36.51181],[-86.94976,36.51196],[-86.95212,36.51196],[-86.95353,36.5117],[-86.95413,36.51089],[-86.95534,36.50746],[-86.95569,36.50629],[-86.95572,36.50517],[-86.95646,36.50476],[-86.95708,36.50509],[-86.95821,36.50623],[-86.95852,36.50809],[-86.95912,36.50917],[-86.96008,36.50963],[-86.96025,36.50999],[-86.9602,36.5107],[-86.96205,36.51221],[-86.96342,36.51257],[-86.96432,36.51238],[-86.96569,36.51168],[-86.96713,36.51176],[-86.96833,36.51146],[-86.96916,36.51156],[-86.97207,36.51057],[-86.97275,36.51011],[-86.97493,36.5091],[-86.97624,36.50799],[-86.97659,36.50708],[-86.97635,36.50663],[-86.97646,36.50565],[-86.97767,36.50305],[-86.97778,36.50138],[-86.9776,36.49874],[-86.97821,36.49813],[-86.97956,36.4977],[-86.98,36.49771],[-86.98096,36.49789],[-86.98294,36.49874],[-86.98428,36.4995],[-86.98513,36.50018],[-86.98562,36.50086],[-86.98664,36.5034],[-86.98742,36.50482],[-86.98793,36.50661],[-86.98832,36.50698],[-86.98931,36.5072],[-86.99228,36.50739],[-86.99498,36.50656],[-86.99681,36.50561],[-86.99716,36.50561],[-86.99759,36.506],[-86.99782,36.50653],[-86.99704,36.5125],[-86.99811,36.50743],[-86.99815,36.50792],[-86.9977,36.50892],[-86.99704,36.51271],[-86.99765,36.51375],[-86.99823,36.51438],[-86.99896,36.51673],[-86.99941,36.51729],[-86.99988,36.51755],[-87.00162,36.51765],[-87.00267,36.51748],[-87.00314,36.51736],[-87.0054,36.5161],[-87.0067,36.51353],[-87.00696,36.51227],[-87.00714,36.5095],[-87.00742,36.50895],[-87.00785,36.5086],[-87.00906,36.50835],[-87.01012,36.50836],[-87.01113,36.50863],[-87.01183,36.509],[-87.01281,36.51004],[-87.0133,36.5111],[-87.01327,36.51142],[-87.01281,36.51203],[-87.01215,36.5126],[-87.00999,36.51386],[-87.00938,36.51407],[-87.00938,36.51458],[-87.00979,36.51507],[-87.01041,36.51546],[-87.0119,36.51582],[-87.01311,36.51589],[-87.01477,36.51627],[-87.01572,36.51614],[-87.01783,36.51402],[-87.01814,36.51352],[-87.01828,36.51284],[-87.01823,36.51153],[-87.01765,36.50966],[-87.01757,36.50775],[-87.01796,36.50598],[-87.01757,36.50459],[-87.01798,36.50427],[-87.01845,36.50416],[-87.01965,36.50419],[-87.02197,36.50517],[-87.02269,36.50578],[-87.02425,36.50621],[-87.02542,36.50681],[-87.02694,36.50805],[-87.0302,36.50983],[-87.03064,36.5105],[-87.03109,36.51257],[-87.03216,36.51419],[-87.03228,36.51513],[-87.03246,36.51541],[-87.03333,36.51591],[-87.0342,36.51598],[-87.03558,36.5157],[-87.03664,36.5158],[-87.03794,36.51645],[-87.04089,36.51621],[-87.04153,36.51642],[-87.04256,36.51774],[-87.0434,36.51947],[-87.0442,36.52031],[-87.04463,36.52135],[-87.04533,36.52194],[-87.04983,36.52094],[-87.05143,36.52073],[-87.05195,36.5208],[-87.05226,36.52109],[-87.05253,36.52173],[-87.05317,36.52494],[-87.05519,36.5268],[-87.05597,36.5272],[-87.05639,36.52716],[-87.05702,36.52659],[-87.0575,36.52678],[-87.05783,36.52661],[-87.05802,36.52598],[-87.05484,36.52089],[-87.05517,36.51939],[-87.05485,36.51829],[-87.05482,36.51688],[-87.05531,36.51634],[-87.05629,36.51593],[-87.05855,36.51536],[-87.05891,36.51535],[-87.05945,36.51558],[-87.05976,36.51623],[-87.05971,36.51672],[-87.0589,36.51851],[-87.05816,36.52086],[-87.05825,36.52177],[-87.06004,36.52416],[-87.06122,36.52606],[-87.06196,36.52691],[-87.06282,36.52731],[-87.06451,36.52718],[-87.06509,36.527],[-87.06828,36.52535],[-87.06929,36.52432],[-87.0698,36.52289],[-87.07134,36.52085],[-87.07251,36.52045],[-87.07367,36.52047],[-87.07452,36.52077],[-87.07567,36.52155],[-87.07667,36.52297],[-87.07683,36.52416],[-87.07739,36.52591],[-87.07813,36.52643],[-87.07899,36.52671],[-87.07945,36.52785],[-87.0809,36.52909],[-87.08435,36.53069],[-87.08826,36.53058],[-87.08941,36.5301],[-87.09036,36.52931],[-87.09438,36.52484],[-87.09533,36.52292],[-87.09595,36.52224],[-87.09779,36.52186],[-87.09918,36.52213],[-87.10075,36.52398],[-87.10114,36.5251],[-87.10098,36.52609],[-87.10027,36.52781],[-87.09865,36.5299],[-87.09866,36.53036],[-87.09895,36.53083],[-87.10182,36.53262],[-87.10415,36.53328],[-87.1049,36.53328],[-87.10645,36.53279],[-87.10752,36.53206],[-87.10816,36.53131],[-87.10884,36.53105],[-87.1095,36.53109],[-87.10988,36.53127],[-87.11038,36.53186],[-87.11052,36.5326],[-87.11023,36.53349],[-87.10766,36.5364],[-87.10589,36.53769],[-87.10578,36.53839],[-87.10601,36.54012],[-87.1052,36.5423],[-87.10402,36.54392],[-87.10412,36.54448],[-87.10466,36.54467],[-87.10617,36.54468],[-87.10694,36.54448],[-87.10893,36.54357],[-87.10978,36.54275],[-87.11022,36.54209],[-87.11056,36.541],[-87.1111,36.5407],[-87.11448,36.53956],[-87.11715,36.53893],[-87.11817,36.53911],[-87.11928,36.53876],[-87.12006,36.53881],[-87.12105,36.53942],[-87.12152,36.53998],[-87.12181,36.54065],[-87.12203,36.54205],[-87.12079,36.54507],[-87.11845,36.54775],[-87.11785,36.54912],[-87.11782,36.5499],[-87.119,36.55039],[-87.12029,36.55045],[-87.12108,36.55032],[-87.1223,36.54988],[-87.12377,36.54911],[-87.12651,36.54729],[-87.12935,36.54641],[-87.12967,36.54652],[-87.13099,36.54758],[-87.13144,36.54807],[-87.13179,36.5488],[-87.13181,36.54968],[-87.13086,36.55251],[-87.13085,36.55308],[-87.13158,36.55484],[-87.13299,36.55475],[-87.13408,36.55444],[-87.13755,36.55277],[-87.13829,36.55289],[-87.13908,36.5533],[-87.14127,36.55491]]]}}
