{"type":"Feature","properties":{"id":"sequatchie-river","name":"Sequatchie River (headwaters)","waterbodyType":"river","throughLakeIds":[],"allowOpenEnds":false,"source":"nhd-hu8-06020004","approximate":false,"labelAnchor":[-85.49671,35.20571],"bounds":[-85.63581,35.02497,-84.9996,35.80865],"crs":"EPSG:4326","coordinateOrder":"longitude,latitude","partCount":1,"vertexCount":1393,"lengthKm":181.69,"sourceIds":["51391653","51391619","51391569","51391513","51391497","51391451","51391437","51391429","51391415","51391327","51391313","51391255","51391239","51391209","51391149","51390973","51390959","51391027","51391025","51390985","51390881","51390849","51390803","51390791","51390767","51390735","51390693","51390667","51390635","51390617","51390563","51390445","51390417","51390403","51390381","51390265","51390243","51390241","51390213","51390211","51390201","51390191","51390185","51390179","51390169","51390109","51390091","51390087","51390061","51390055","51390017","51390007","51389999","51389897","51389879","51389781","51389733","51389665","51389637","51389613","51389609","51389651","51389499","51389477","51389463","51389443","51389445","51389449","51389425","51389411","51389419","51389407","51389395","51389327","51389273","51389277","51389271","51389233","51389191","51389173","51389159","51389149","51389137","51389123","51389069","51389033","51388993","51388983","51388975","51388941","51388927","51388919","51388883","51388819","51388753","51388667","51388649","51388619","51388585","51388575","51388557","51388545","51388549","51388551","51388523","51388475","51388427","51388407","51388383","51388355","51388341","51388295","51388293","51388269","51388235","51388275","51388271","51388249","51388217","51388205","51388177","51388173","51388125","51388103","51388079","51388009","51388001","51387967","51387909","51387907","51387905","51387873","51387865","51387825","51387787","51387745","51387743","51387713","51387645","51387623","51387603","51387605","51387601","51387573","51387555","51387553","51387551","51387545","51387531","51387479","51387453","51387449","51387441","51387427","51387425","51387393","51387387","51387379","51387373","51387369","51387361","51387345","51387343","51387339","51387335","51387333","51391703","51391705","51391747","{4F133A40-6B4A-4AF3-A5B7-4D9CEC67C38E}","51391755","51391801","51391839","51392039","51392067","51392093","51392097","51392095","51392127","51392219","51392237","51392235","51392231","51392215","51392267","51392431","51392465","51392469","51392481","51392487","51392541","51392551","51392597","51392599","51392575","51392609","51392613","51392657","51392689","51392695","51392719","51392843","51392857","51392859","51392839","51392805","51392945","51392961","51392985","51392997","51393017","51393021","51393051","51393061","51393077","51393079","{344154E1-4829-4836-BAF3-82B88CC31960}","51393087","{9F15FEF6-CA48-444D-902B-ECC9BFC049BB}"],"sourceRetrieved":"2026-09-11","geometrySource":"nhd","hu8":"06020004","simplification":{"toleranceM":10,"verticesBefore":3271,"verticesAfter":1393,"budgetBytes":81920},"trace":{"anchor":{"lat":35.2057,"lon":-85.497,"snapDistM":26},"up":{"spec":"headwater","reason":"headwater","terminus":[-84.999605,35.808652],"distKmFromAnchor":141.7},"down":{"spec":"mouth","reason":"terminal-node","terminus":[-85.635764,35.025163666666664],"enteredNames":null,"distKmFromAnchor":40.12},"vaaUsed":false,"toleranceM":12}},"geometry":{"type":"MultiLineString","coordinates":[[[-84.9996,35.80865],[-85.00032,35.80729],[-85.00135,35.80648],[-85.0025,35.805],[-85.00347,35.80336],[-85.00593,35.8006],[-85.00625,35.79875],[-85.00706,35.79693],[-85.00718,35.79554],[-85.00785,35.79451],[-85.00897,35.79339],[-85.00825,35.79208],[-85.00924,35.79151],[-85.01064,35.78991],[-85.0119,35.78895],[-85.01216,35.78803],[-85.01248,35.78769],[-85.01407,35.78683],[-85.01499,35.78568],[-85.01551,35.78461],[-85.01609,35.7839],[-85.0171,35.78334],[-85.01903,35.78274],[-85.01974,35.78187],[-85.01996,35.78081],[-85.02056,35.78005],[-85.02069,35.7796],[-85.02009,35.77885],[-85.01842,35.77786],[-85.01754,35.7766],[-85.01711,35.7755],[-85.01737,35.77382],[-85.01842,35.77191],[-85.01841,35.77163],[-85.01782,35.7709],[-85.01874,35.76853],[-85.01883,35.76752],[-85.0187,35.76731],[-85.01777,35.76683],[-85.01743,35.76639],[-85.0178,35.76554],[-85.01788,35.76411],[-85.01648,35.76291],[-85.01774,35.76169],[-85.01869,35.76131],[-85.01892,35.76108],[-85.01915,35.76019],[-85.01855,35.75985],[-85.01859,35.75955],[-85.02062,35.75873],[-85.02048,35.75832],[-85.01921,35.75802],[-85.0188,35.75758],[-85.01871,35.75701],[-85.0196,35.7557],[-85.01993,35.75569],[-85.02084,35.75607],[-85.02234,35.75625],[-85.02301,35.75619],[-85.02329,35.75605],[-85.02373,35.75536],[-85.02291,35.75422],[-85.02299,35.75407],[-85.02462,35.75409],[-85.02512,35.75437],[-85.02564,35.754],[-85.02559,35.7536],[-85.02445,35.75312],[-85.02429,35.75291],[-85.02372,35.75143],[-85.02405,35.75026],[-85.02398,35.74992],[-85.02441,35.74968],[-85.02495,35.74969],[-85.02569,35.75028],[-85.02625,35.7504],[-85.02775,35.75018],[-85.02812,35.74951],[-85.02756,35.749],[-85.02575,35.74806],[-85.02573,35.74777],[-85.02644,35.74733],[-85.02698,35.74721],[-85.0293,35.74727],[-85.02968,35.74717],[-85.02965,35.7468],[-85.02831,35.74607],[-85.02823,35.74515],[-85.02954,35.74385],[-85.03081,35.74286],[-85.03153,35.74252],[-85.03297,35.74233],[-85.03324,35.74213],[-85.03324,35.74185],[-85.03299,35.74157],[-85.03145,35.74123],[-85.03039,35.74054],[-85.03022,35.74035],[-85.03035,35.73998],[-85.03145,35.73964],[-85.03358,35.73955],[-85.03436,35.73974],[-85.03618,35.74097],[-85.03639,35.741],[-85.03676,35.74067],[-85.03682,35.73962],[-85.03616,35.73902],[-85.03611,35.73871],[-85.03736,35.73795],[-85.03685,35.73703],[-85.03848,35.73631],[-85.03858,35.73586],[-85.0383,35.7355],[-85.0361,35.73482],[-85.03522,35.7343],[-85.03499,35.7333],[-85.03577,35.73261],[-85.03753,35.73188],[-85.03894,35.72968],[-85.03942,35.72934],[-85.03991,35.72936],[-85.04175,35.7302],[-85.04216,35.73111],[-85.043,35.73115],[-85.04342,35.73044],[-85.04396,35.72722],[-85.04418,35.72705],[-85.04568,35.72707],[-85.04652,35.7273],[-85.049,35.7284],[-85.04964,35.72923],[-85.04995,35.72935],[-85.05295,35.72902],[-85.05316,35.72874],[-85.05316,35.72806],[-85.05351,35.72789],[-85.05526,35.72801],[-85.05577,35.72844],[-85.05671,35.73017],[-85.05747,35.73021],[-85.05834,35.7305],[-85.05893,35.73038],[-85.05973,35.72959],[-85.06127,35.72984],[-85.06232,35.7294],[-85.06278,35.72897],[-85.06299,35.72835],[-85.06278,35.7273],[-85.06221,35.72665],[-85.06227,35.72615],[-85.06206,35.72568],[-85.06217,35.72529],[-85.0635,35.72447],[-85.06635,35.72378],[-85.06702,35.7233],[-85.06778,35.72306],[-85.06788,35.72272],[-85.06725,35.72236],[-85.06719,35.72189],[-85.06838,35.72147],[-85.06905,35.72093],[-85.06948,35.7211],[-85.06972,35.72103],[-85.07014,35.71922],[-85.07064,35.71878],[-85.07088,35.71818],[-85.07249,35.71686],[-85.07356,35.7169],[-85.07396,35.71676],[-85.07418,35.71653],[-85.0742,35.71615],[-85.07456,35.71594],[-85.07436,35.71549],[-85.07446,35.71509],[-85.07541,35.7148],[-85.07466,35.71394],[-85.07459,35.71328],[-85.07551,35.71228],[-85.07538,35.71152],[-85.07595,35.71052],[-85.07594,35.71015],[-85.07567,35.70989],[-85.07599,35.70897],[-85.07645,35.70875],[-85.07664,35.70844],[-85.07687,35.70637],[-85.07595,35.70434],[-85.07519,35.70392],[-85.07504,35.70354],[-85.0755,35.70246],[-85.07558,35.70174],[-85.076,35.70138],[-85.07566,35.70098],[-85.07568,35.70067],[-85.07717,35.70055],[-85.07786,35.70109],[-85.07837,35.70098],[-85.07967,35.70107],[-85.08082,35.70076],[-85.08124,35.70118],[-85.08147,35.70115],[-85.0817,35.7007],[-85.08133,35.69914],[-85.08113,35.69896],[-85.08014,35.69914],[-85.07954,35.69784],[-85.07969,35.69756],[-85.08015,35.69726],[-85.07999,35.69691],[-85.08027,35.69651],[-85.083,35.69515],[-85.08518,35.6938],[-85.08474,35.6932],[-85.08438,35.69306],[-85.08362,35.69315],[-85.0827,35.69234],[-85.08286,35.69205],[-85.08354,35.69162],[-85.08478,35.69149],[-85.0852,35.69124],[-85.08517,35.69073],[-85.08458,35.69008],[-85.08443,35.68961],[-85.08465,35.68816],[-85.08498,35.68738],[-85.08554,35.68713],[-85.08672,35.6873],[-85.08799,35.68725],[-85.08821,35.68663],[-85.08964,35.6853],[-85.09135,35.68465],[-85.09558,35.68529],[-85.09815,35.68613],[-85.09872,35.68615],[-85.09927,35.68584],[-85.09929,35.68528],[-85.09896,35.68486],[-85.09775,35.68455],[-85.09686,35.68395],[-85.09688,35.68364],[-85.09735,35.6831],[-85.09825,35.68316],[-85.09839,35.683],[-85.09759,35.68268],[-85.09612,35.68289],[-85.09552,35.68207],[-85.09552,35.68072],[-85.09473,35.67997],[-85.0948,35.6797],[-85.09547,35.67912],[-85.09535,35.67898],[-85.09437,35.67889],[-85.09415,35.6786],[-85.09498,35.67795],[-85.09458,35.67732],[-85.09537,35.67713],[-85.09588,35.67721],[-85.09651,35.67697],[-85.09728,35.6772],[-85.09804,35.67687],[-85.09916,35.6769],[-85.10007,35.67725],[-85.10079,35.67781],[-85.10325,35.68012],[-85.10501,35.68014],[-85.10578,35.67957],[-85.10639,35.67963],[-85.10692,35.67943],[-85.10814,35.67804],[-85.10806,35.67739],[-85.10654,35.67666],[-85.10646,35.67513],[-85.10868,35.67269],[-85.11023,35.67194],[-85.11085,35.67131],[-85.11232,35.67091],[-85.11573,35.67065],[-85.11789,35.67022],[-85.1185,35.67024],[-85.11909,35.67047],[-85.12046,35.67156],[-85.12111,35.67155],[-85.12166,35.67121],[-85.12179,35.67081],[-85.1209,35.66974],[-85.12087,35.66946],[-85.12158,35.6688],[-85.12381,35.66831],[-85.12387,35.66784],[-85.12349,35.66767],[-85.12188,35.66785],[-85.11959,35.66706],[-85.11838,35.66697],[-85.11807,35.66656],[-85.11889,35.66532],[-85.11941,35.66494],[-85.12244,35.66486],[-85.12282,35.6647],[-85.12284,35.66453],[-85.12196,35.6641],[-85.11973,35.66422],[-85.11839,35.66381],[-85.11694,35.66302],[-85.11618,35.66225],[-85.11656,35.66182],[-85.11732,35.66141],[-85.11902,35.66093],[-85.11936,35.66038],[-85.12021,35.66003],[-85.12071,35.65944],[-85.12189,35.65879],[-85.12238,35.65886],[-85.12266,35.65912],[-85.12298,35.66033],[-85.12329,35.66071],[-85.1238,35.66069],[-85.12514,35.66014],[-85.12527,35.65973],[-85.1248,35.65837],[-85.12552,35.65535],[-85.12682,35.65386],[-85.12764,35.65354],[-85.12828,35.65295],[-85.129,35.65261],[-85.12954,35.65254],[-85.13084,35.65341],[-85.13171,35.65335],[-85.13402,35.65265],[-85.13452,35.65268],[-85.13548,35.65317],[-85.13604,35.65324],[-85.13779,35.65192],[-85.13933,35.65112],[-85.13993,35.65044],[-85.13995,35.65023],[-85.13927,35.64919],[-85.13867,35.64853],[-85.13802,35.64815],[-85.13736,35.64809],[-85.1364,35.64842],[-85.13498,35.64846],[-85.13343,35.64793],[-85.13186,35.64661],[-85.13101,35.64549],[-85.13003,35.64294],[-85.13118,35.64199],[-85.13206,35.64148],[-85.13289,35.64067],[-85.1329,35.64039],[-85.13145,35.63948],[-85.13016,35.63912],[-85.13,35.63862],[-85.13041,35.63786],[-85.13084,35.63757],[-85.13262,35.6382],[-85.13404,35.63837],[-85.136,35.63789],[-85.13767,35.63726],[-85.13882,35.63662],[-85.13963,35.63649],[-85.14001,35.6361],[-85.14014,35.63547],[-85.1411,35.63538],[-85.14103,35.63463],[-85.14138,35.63433],[-85.14192,35.6342],[-85.143,35.63447],[-85.14313,35.63411],[-85.14306,35.63348],[-85.14279,35.63289],[-85.14199,35.6318],[-85.14157,35.63051],[-85.14062,35.62961],[-85.1407,35.62938],[-85.14127,35.62897],[-85.14128,35.62825],[-85.14155,35.62792],[-85.14224,35.62767],[-85.14377,35.62795],[-85.14451,35.6279],[-85.14531,35.62864],[-85.14607,35.62973],[-85.147,35.62927],[-85.14797,35.62944],[-85.14812,35.62913],[-85.14781,35.62872],[-85.14615,35.62797],[-85.14585,35.62682],[-85.14717,35.62539],[-85.14776,35.62532],[-85.14962,35.62559],[-85.14991,35.62573],[-85.1503,35.62708],[-85.15106,35.62813],[-85.15053,35.62945],[-85.15078,35.63017],[-85.15159,35.63073],[-85.15193,35.63081],[-85.15385,35.63083],[-85.15473,35.6301],[-85.15521,35.62889],[-85.156,35.62778],[-85.15791,35.62665],[-85.15879,35.62657],[-85.15922,35.62693],[-85.15908,35.62724],[-85.15814,35.62796],[-85.15809,35.62834],[-85.15837,35.62874],[-85.15891,35.62887],[-85.15961,35.62882],[-85.16034,35.62806],[-85.16119,35.62837],[-85.16166,35.62836],[-85.16185,35.62813],[-85.16179,35.62793],[-85.16004,35.62582],[-85.15921,35.62421],[-85.15956,35.62376],[-85.16188,35.62305],[-85.16237,35.62356],[-85.16255,35.62507],[-85.1628,35.6255],[-85.16312,35.62543],[-85.16344,35.62506],[-85.16302,35.62434],[-85.16334,35.62401],[-85.16391,35.624],[-85.1641,35.62415],[-85.16472,35.62544],[-85.16526,35.62591],[-85.16566,35.62567],[-85.16597,35.62424],[-85.16662,35.62418],[-85.16774,35.62555],[-85.17049,35.62688],[-85.17136,35.62696],[-85.17249,35.62729],[-85.17398,35.62743],[-85.17615,35.62669],[-85.1764,35.62622],[-85.17621,35.62588],[-85.17403,35.62528],[-85.17289,35.62513],[-85.1715,35.62451],[-85.17023,35.62422],[-85.16915,35.62339],[-85.16867,35.62281],[-85.16912,35.62156],[-85.16923,35.62016],[-85.16955,35.61979],[-85.17055,35.61995],[-85.17097,35.6203],[-85.17231,35.62065],[-85.17377,35.62131],[-85.17473,35.62132],[-85.17561,35.62105],[-85.17685,35.61935],[-85.17664,35.61547],[-85.17621,35.61346],[-85.17642,35.61185],[-85.17629,35.61133],[-85.17637,35.61074],[-85.1785,35.60865],[-85.18088,35.60736],[-85.1813,35.60683],[-85.18139,35.60615],[-85.18186,35.6063],[-85.18206,35.60675],[-85.1826,35.60671],[-85.18285,35.60627],[-85.18298,35.60513],[-85.1834,35.60477],[-85.18412,35.60478],[-85.18538,35.60581],[-85.18597,35.60572],[-85.18597,35.60523],[-85.18551,35.60488],[-85.18531,35.60442],[-85.18502,35.60267],[-85.18514,35.60226],[-85.18576,35.60172],[-85.18578,35.60141],[-85.18543,35.60116],[-85.18447,35.60125],[-85.18437,35.60107],[-85.18537,35.59987],[-85.18605,35.59872],[-85.18633,35.59681],[-85.18593,35.5958],[-85.18599,35.59411],[-85.1883,35.59443],[-85.19048,35.59652],[-85.19091,35.59675],[-85.1916,35.59653],[-85.19179,35.59614],[-85.19201,35.59271],[-85.19214,35.59234],[-85.19233,35.59226],[-85.19253,35.59228],[-85.19275,35.59257],[-85.19341,35.59437],[-85.19424,35.59515],[-85.19483,35.59518],[-85.19567,35.5947],[-85.19673,35.59439],[-85.19712,35.59389],[-85.19739,35.5923],[-85.19762,35.59205],[-85.19852,35.58726],[-85.19979,35.58727],[-85.20119,35.58784],[-85.20181,35.5877],[-85.2023,35.58734],[-85.20335,35.5855],[-85.20307,35.58471],[-85.20358,35.58433],[-85.20346,35.58291],[-85.204,35.58237],[-85.20339,35.5811],[-85.20467,35.5809],[-85.20535,35.58049],[-85.20562,35.58058],[-85.20595,35.58118],[-85.20651,35.58055],[-85.20751,35.58076],[-85.20797,35.57977],[-85.20851,35.57909],[-85.20854,35.57871],[-85.20827,35.57808],[-85.20844,35.57779],[-85.20876,35.57779],[-85.20898,35.5781],[-85.20923,35.5787],[-85.20922,35.57976],[-85.20944,35.57997],[-85.21001,35.57982],[-85.21085,35.57921],[-85.21161,35.57929],[-85.21192,35.57885],[-85.21358,35.57832],[-85.21456,35.57864],[-85.21617,35.5799],[-85.21627,35.58071],[-85.21635,35.58087],[-85.21664,35.58093],[-85.21814,35.58008],[-85.21835,35.57961],[-85.21865,35.57941],[-85.21887,35.57941],[-85.21968,35.57992],[-85.22006,35.57974],[-85.22025,35.5795],[-85.22039,35.57804],[-85.21994,35.57756],[-85.21993,35.57728],[-85.2201,35.577],[-85.22085,35.57687],[-85.22121,35.57658],[-85.22088,35.57563],[-85.22096,35.57544],[-85.22142,35.57541],[-85.2222,35.57566],[-85.22281,35.57524],[-85.223,35.57542],[-85.22305,35.57602],[-85.22348,35.57641],[-85.22487,35.57707],[-85.22587,35.57705],[-85.22616,35.57682],[-85.22614,35.57658],[-85.22508,35.57292],[-85.22473,35.57227],[-85.22417,35.57188],[-85.22413,35.57168],[-85.22536,35.57006],[-85.22566,35.57006],[-85.22609,35.57041],[-85.22656,35.57051],[-85.22857,35.5701],[-85.22918,35.5697],[-85.2292,35.56928],[-85.22831,35.56751],[-85.22715,35.56644],[-85.22662,35.56567],[-85.22681,35.56532],[-85.22767,35.56484],[-85.22801,35.56486],[-85.22833,35.56519],[-85.22813,35.56605],[-85.22824,35.56635],[-85.22929,35.56639],[-85.23043,35.56716],[-85.23141,35.56755],[-85.23194,35.56757],[-85.23312,35.56722],[-85.23335,35.56765],[-85.23321,35.56801],[-85.23281,35.56825],[-85.23296,35.56849],[-85.2348,35.56888],[-85.2353,35.56998],[-85.23573,35.57003],[-85.23638,35.56979],[-85.23632,35.569],[-85.2355,35.56671],[-85.23467,35.56572],[-85.23392,35.56444],[-85.23373,35.56434],[-85.23231,35.5647],[-85.23182,35.56451],[-85.23238,35.56244],[-85.23233,35.56028],[-85.23273,35.55963],[-85.23279,35.55921],[-85.23259,35.55831],[-85.23207,35.55825],[-85.22972,35.55883],[-85.22926,35.55869],[-85.22906,35.55827],[-85.22996,35.55646],[-85.23107,35.5521],[-85.23124,35.55059],[-85.23183,35.54977],[-85.23335,35.54879],[-85.23368,35.54592],[-85.2346,35.54476],[-85.23618,35.54337],[-85.23823,35.54267],[-85.23963,35.54257],[-85.24017,35.54215],[-85.2401,35.54148],[-85.23955,35.54081],[-85.23948,35.5405],[-85.23972,35.54035],[-85.24053,35.54031],[-85.24073,35.53985],[-85.24061,35.53926],[-85.24002,35.53884],[-85.23731,35.53797],[-85.23515,35.53775],[-85.23486,35.53755],[-85.23476,35.53717],[-85.23491,35.53587],[-85.23517,35.53518],[-85.23543,35.53504],[-85.23759,35.53574],[-85.23934,35.5361],[-85.23991,35.53609],[-85.24029,35.53572],[-85.2403,35.53464],[-85.23964,35.53387],[-85.23771,35.53238],[-85.23756,35.53202],[-85.23798,35.53141],[-85.23864,35.5309],[-85.24022,35.53204],[-85.24061,35.53203],[-85.24143,35.53163],[-85.24165,35.52958],[-85.2426,35.52812],[-85.24327,35.52743],[-85.24363,35.52748],[-85.24543,35.5289],[-85.24717,35.52816],[-85.24846,35.52787],[-85.24872,35.52719],[-85.24848,35.52523],[-85.24799,35.52414],[-85.24693,35.52273],[-85.2467,35.52257],[-85.24474,35.52233],[-85.24181,35.5215],[-85.24102,35.52092],[-85.24081,35.51996],[-85.24145,35.51926],[-85.24292,35.51847],[-85.24498,35.51812],[-85.24562,35.51824],[-85.24621,35.51885],[-85.24707,35.51937],[-85.24847,35.51835],[-85.24834,35.51731],[-85.24804,35.51684],[-85.24649,35.51647],[-85.24602,35.51621],[-85.24567,35.51507],[-85.24455,35.51451],[-85.2444,35.51393],[-85.24477,35.51352],[-85.24507,35.51337],[-85.2469,35.51335],[-85.24878,35.51232],[-85.2496,35.51244],[-85.25037,35.51283],[-85.25072,35.51281],[-85.25387,35.51107],[-85.25551,35.51034],[-85.25544,35.50843],[-85.256,35.50643],[-85.25578,35.50423],[-85.25636,35.50267],[-85.25629,35.50212],[-85.25558,35.50082],[-85.25557,35.50029],[-85.25575,35.49997],[-85.25626,35.4995],[-85.25746,35.49935],[-85.25982,35.49979],[-85.2609,35.49971],[-85.26294,35.4988],[-85.26344,35.49735],[-85.26425,35.49715],[-85.2644,35.49694],[-85.26439,35.4967],[-85.26392,35.4962],[-85.26321,35.49579],[-85.26214,35.49551],[-85.26181,35.49437],[-85.26185,35.49356],[-85.26145,35.4927],[-85.26212,35.49156],[-85.26246,35.4904],[-85.26428,35.48887],[-85.26422,35.48845],[-85.26357,35.4874],[-85.26359,35.48712],[-85.26383,35.48688],[-85.26517,35.48648],[-85.26563,35.48701],[-85.26601,35.48719],[-85.26729,35.48743],[-85.26823,35.48726],[-85.2686,35.48737],[-85.2696,35.48792],[-85.2705,35.48901],[-85.27093,35.48924],[-85.27213,35.48778],[-85.27322,35.48676],[-85.27378,35.48675],[-85.27482,35.48718],[-85.27543,35.48723],[-85.27943,35.48609],[-85.28007,35.4849],[-85.28103,35.4818],[-85.28098,35.48084],[-85.28116,35.4806],[-85.28165,35.48045],[-85.28355,35.48049],[-85.28422,35.4801],[-85.28433,35.47958],[-85.28415,35.47745],[-85.28361,35.47436],[-85.28415,35.47344],[-85.2853,35.47241],[-85.28654,35.47033],[-85.28646,35.47013],[-85.28487,35.46926],[-85.28172,35.46808],[-85.28135,35.46771],[-85.28144,35.46708],[-85.28222,35.46679],[-85.28379,35.46718],[-85.28545,35.46783],[-85.28683,35.46802],[-85.28762,35.46796],[-85.28847,35.46767],[-85.2889,35.46773],[-85.2902,35.46886],[-85.29191,35.46925],[-85.29398,35.47028],[-85.29446,35.47035],[-85.29549,35.4702],[-85.29662,35.47041],[-85.29865,35.46968],[-85.3004,35.46945],[-85.30232,35.46881],[-85.30477,35.46862],[-85.30537,35.46816],[-85.30601,35.46705],[-85.30664,35.46655],[-85.30733,35.46647],[-85.30823,35.46688],[-85.30853,35.46684],[-85.30904,35.46635],[-85.30883,35.46479],[-85.30917,35.46432],[-85.31196,35.46398],[-85.31462,35.46437],[-85.31571,35.46508],[-85.31664,35.46547],[-85.31684,35.46598],[-85.31656,35.46625],[-85.31643,35.4667],[-85.31686,35.46742],[-85.3173,35.46741],[-85.31827,35.46717],[-85.31918,35.46619],[-85.32122,35.46454],[-85.32339,35.4634],[-85.32468,35.4631],[-85.32587,35.46313],[-85.32643,35.46288],[-85.32691,35.46162],[-85.32686,35.46127],[-85.32667,35.46104],[-85.32578,35.46066],[-85.32465,35.46061],[-85.32413,35.46077],[-85.32147,35.46216],[-85.31866,35.46243],[-85.31843,35.46229],[-85.31833,35.46192],[-85.31908,35.46114],[-85.31923,35.46074],[-85.31915,35.46025],[-85.3189,35.45996],[-85.31473,35.45835],[-85.31163,35.45754],[-85.31116,35.45696],[-85.3112,35.45665],[-85.31138,35.45637],[-85.31349,35.45489],[-85.3154,35.45322],[-85.31728,35.45207],[-85.31923,35.44901],[-85.3196,35.44778],[-85.31979,35.44565],[-85.31941,35.44151],[-85.31955,35.4406],[-85.31997,35.44011],[-85.32069,35.43965],[-85.32439,35.43796],[-85.32533,35.43682],[-85.32663,35.43632],[-85.32749,35.43579],[-85.32799,35.4358],[-85.32871,35.43642],[-85.32895,35.43735],[-85.3294,35.43803],[-85.33257,35.4407],[-85.3361,35.44158],[-85.34047,35.44298],[-85.34136,35.44289],[-85.34146,35.44266],[-85.34132,35.44248],[-85.33989,35.44191],[-85.34027,35.4415],[-85.34062,35.44041],[-85.34042,35.44013],[-85.33982,35.43999],[-85.33954,35.43968],[-85.34012,35.43811],[-85.33977,35.43759],[-85.33932,35.43746],[-85.33636,35.43733],[-85.33403,35.43742],[-85.33366,35.43732],[-85.33355,35.43713],[-85.33447,35.43607],[-85.33586,35.43344],[-85.33598,35.43292],[-85.33546,35.42823],[-85.33691,35.42605],[-85.33754,35.42463],[-85.33819,35.42407],[-85.33843,35.42337],[-85.33928,35.42235],[-85.34172,35.4201],[-85.34387,35.41858],[-85.34606,35.41765],[-85.34645,35.41425],[-85.34645,35.41011],[-85.34572,35.40813],[-85.34617,35.40647],[-85.34773,35.40347],[-85.34892,35.40243],[-85.3516,35.40078],[-85.35223,35.40018],[-85.35228,35.39983],[-85.35201,35.39956],[-85.35168,35.3995],[-85.35031,35.39984],[-85.34882,35.3998],[-85.34388,35.3983],[-85.34271,35.39756],[-85.34242,35.39682],[-85.3424,35.3957],[-85.34291,35.39473],[-85.34318,35.3945],[-85.3465,35.39373],[-85.34781,35.3939],[-85.34918,35.39446],[-85.35039,35.39532],[-85.35091,35.39534],[-85.3515,35.3951],[-85.35383,35.39354],[-85.35395,35.39298],[-85.35226,35.39136],[-85.34852,35.38882],[-85.34838,35.3886],[-85.34846,35.38829],[-85.34914,35.3877],[-85.34979,35.3874],[-85.35386,35.38645],[-85.3553,35.38631],[-85.35823,35.3865],[-85.3587,35.38639],[-85.35915,35.38585],[-85.35904,35.38376],[-85.35859,35.38273],[-85.3571,35.38105],[-85.35233,35.37722],[-85.35033,35.37463],[-85.35008,35.37407],[-85.35015,35.37382],[-85.35057,35.37358],[-85.35324,35.37427],[-85.35415,35.37412],[-85.35584,35.37344],[-85.35724,35.37364],[-85.35744,35.37351],[-85.35746,35.37316],[-85.35649,35.37153],[-85.35657,35.371],[-85.35735,35.37083],[-85.36068,35.37137],[-85.36137,35.37118],[-85.3621,35.37018],[-85.36211,35.36947],[-85.36154,35.36776],[-85.36191,35.36695],[-85.3641,35.36578],[-85.36593,35.36424],[-85.36785,35.36289],[-85.36967,35.36209],[-85.37052,35.36153],[-85.37248,35.35918],[-85.37308,35.35866],[-85.37377,35.35827],[-85.37481,35.358],[-85.37584,35.35815],[-85.37651,35.358],[-85.37904,35.35704],[-85.37949,35.35649],[-85.38043,35.35609],[-85.38075,35.35572],[-85.38122,35.35476],[-85.38181,35.35401],[-85.382,35.35322],[-85.3814,35.3524],[-85.38037,35.35158],[-85.37764,35.34714],[-85.37583,35.34488],[-85.37541,35.34398],[-85.3751,35.34234],[-85.37459,35.34106],[-85.37526,35.34046],[-85.37862,35.33884],[-85.38276,35.33786],[-85.38543,35.33652],[-85.38711,35.33531],[-85.38919,35.33464],[-85.39097,35.3332],[-85.39184,35.33207],[-85.39222,35.33116],[-85.39193,35.32958],[-85.39202,35.32829],[-85.39289,35.32644],[-85.39296,35.32558],[-85.39221,35.32384],[-85.39247,35.32321],[-85.39343,35.32218],[-85.39474,35.32131],[-85.395,35.3206],[-85.39502,35.31989],[-85.39479,35.31951],[-85.39413,35.31898],[-85.39407,35.31862],[-85.39429,35.31804],[-85.39596,35.31566],[-85.39575,35.31501],[-85.39542,35.31463],[-85.39418,35.31431],[-85.39395,35.31411],[-85.39431,35.31199],[-85.39396,35.31151],[-85.39301,35.31086],[-85.39331,35.3106],[-85.39429,35.31042],[-85.39613,35.31089],[-85.39719,35.31098],[-85.39905,35.31099],[-85.40061,35.31065],[-85.40105,35.31068],[-85.40184,35.31117],[-85.40488,35.31424],[-85.40521,35.31441],[-85.40557,35.3143],[-85.406,35.31353],[-85.40741,35.3069],[-85.40776,35.30625],[-85.40807,35.306],[-85.4101,35.30521],[-85.41184,35.30406],[-85.41354,35.30211],[-85.41635,35.30032],[-85.41674,35.29989],[-85.41895,35.29497],[-85.41945,35.29235],[-85.42053,35.29047],[-85.42313,35.28723],[-85.42462,35.28584],[-85.4273,35.28442],[-85.42798,35.2829],[-85.42799,35.2819],[-85.42875,35.28156],[-85.4291,35.28123],[-85.42957,35.27999],[-85.42996,35.27983],[-85.43026,35.27948],[-85.43045,35.27841],[-85.43018,35.27637],[-85.4298,35.27532],[-85.42993,35.27476],[-85.4311,35.27277],[-85.43437,35.26919],[-85.43574,35.26669],[-85.43726,35.26546],[-85.43932,35.26327],[-85.44134,35.26219],[-85.44207,35.26193],[-85.44303,35.26185],[-85.44472,35.26291],[-85.45232,35.2654],[-85.45462,35.26764],[-85.45497,35.26779],[-85.45571,35.2678],[-85.45683,35.26718],[-85.45809,35.26719],[-85.45914,35.26681],[-85.45967,35.26597],[-85.46049,35.26233],[-85.46038,35.26142],[-85.45994,35.26034],[-85.45902,35.25941],[-85.4586,35.25875],[-85.45844,35.25748],[-85.4592,35.25564],[-85.46003,35.25496],[-85.46005,35.25475],[-85.45975,35.25451],[-85.45856,35.25445],[-85.4576,35.25396],[-85.45595,35.25379],[-85.45565,35.25331],[-85.45612,35.25287],[-85.4591,35.25238],[-85.46112,35.2512],[-85.46128,35.2503],[-85.46114,35.24989],[-85.46058,35.2493],[-85.45964,35.24914],[-85.45775,35.24981],[-85.45704,35.25043],[-85.45623,35.25056],[-85.45592,35.25043],[-85.45545,35.24987],[-85.45542,35.24945],[-85.45581,35.24851],[-85.45768,35.2474],[-85.45861,35.24536],[-85.45987,35.24477],[-85.46104,35.24301],[-85.46276,35.24237],[-85.46439,35.24124],[-85.46867,35.23898],[-85.4706,35.2382],[-85.4746,35.23691],[-85.48251,35.23478],[-85.48374,35.23471],[-85.48532,35.23487],[-85.48644,35.23527],[-85.4868,35.23517],[-85.4871,35.23456],[-85.48655,35.23287],[-85.4866,35.23216],[-85.48688,35.23157],[-85.48855,35.23052],[-85.4913,35.22944],[-85.49217,35.22852],[-85.49232,35.22782],[-85.49166,35.227],[-85.49004,35.22707],[-85.48935,35.22696],[-85.48795,35.22635],[-85.4865,35.22593],[-85.48557,35.22543],[-85.48479,35.22467],[-85.48326,35.22247],[-85.48142,35.2213],[-85.4778,35.21933],[-85.47779,35.2188],[-85.47943,35.21538],[-85.48011,35.21459],[-85.48403,35.21173],[-85.4861,35.21056],[-85.48899,35.20854],[-85.49012,35.20799],[-85.49116,35.20759],[-85.49271,35.20732],[-85.49358,35.20734],[-85.49445,35.2076],[-85.49563,35.20828],[-85.49598,35.20825],[-85.49626,35.20802],[-85.49676,35.20638],[-85.49664,35.20543],[-85.49639,35.20505],[-85.49544,35.20462],[-85.4934,35.20419],[-85.49192,35.20323],[-85.49671,35.20571],[-85.49076,35.20282],[-85.49049,35.20255],[-85.49035,35.20207],[-85.49077,35.20155],[-85.49181,35.20132],[-85.4935,35.20223],[-85.49407,35.20226],[-85.49447,35.20212],[-85.49513,35.2013],[-85.49526,35.19921],[-85.4957,35.19841],[-85.49634,35.19798],[-85.49806,35.19744],[-85.49848,35.19686],[-85.50015,35.19566],[-85.50045,35.19567],[-85.50165,35.19617],[-85.50195,35.19615],[-85.5032,35.19492],[-85.50415,35.19369],[-85.50458,35.19381],[-85.50478,35.19413],[-85.50504,35.19542],[-85.50545,35.19635],[-85.50691,35.1974],[-85.50743,35.19814],[-85.50771,35.1983],[-85.5081,35.19815],[-85.50927,35.19683],[-85.51041,35.19614],[-85.5115,35.1947],[-85.51149,35.19337],[-85.51226,35.18989],[-85.51269,35.18903],[-85.51383,35.18786],[-85.51482,35.18569],[-85.51488,35.18481],[-85.51462,35.18403],[-85.51349,35.18261],[-85.51334,35.18213],[-85.51344,35.18164],[-85.51427,35.1807],[-85.5143,35.17907],[-85.51466,35.17876],[-85.51586,35.17842],[-85.51761,35.17753],[-85.51919,35.1775],[-85.51988,35.17729],[-85.52105,35.17492],[-85.52263,35.17309],[-85.52306,35.17139],[-85.52462,35.17027],[-85.52515,35.16971],[-85.52544,35.1687],[-85.52606,35.16393],[-85.52719,35.16123],[-85.5271,35.15889],[-85.52737,35.15663],[-85.52724,35.15575],[-85.52676,35.15481],[-85.52524,35.15256],[-85.52469,35.15201],[-85.52422,35.15181],[-85.5233,35.15176],[-85.52296,35.15142],[-85.52184,35.15167],[-85.52027,35.15142],[-85.51942,35.1515],[-85.51818,35.15104],[-85.51614,35.15112],[-85.51329,35.15195],[-85.51237,35.15265],[-85.51225,35.15359],[-85.51188,35.15406],[-85.51104,35.15398],[-85.51007,35.15312],[-85.50934,35.15198],[-85.50914,35.15144],[-85.50898,35.1492],[-85.50766,35.14762],[-85.50733,35.145],[-85.50742,35.14458],[-85.50874,35.14304],[-85.51105,35.14173],[-85.5122,35.14065],[-85.51295,35.14036],[-85.51405,35.14028],[-85.51453,35.1401],[-85.51619,35.13889],[-85.51657,35.1388],[-85.51751,35.13908],[-85.519,35.13915],[-85.52067,35.13977],[-85.52256,35.14082],[-85.52347,35.14099],[-85.5241,35.14082],[-85.52473,35.14049],[-85.52513,35.14007],[-85.52617,35.13748],[-85.52743,35.13602],[-85.52761,35.13548],[-85.52752,35.13506],[-85.52709,35.13471],[-85.52613,35.13458],[-85.5238,35.13491],[-85.52322,35.13474],[-85.52288,35.13434],[-85.52267,35.13304],[-85.52281,35.13192],[-85.52345,35.13098],[-85.52363,35.1304],[-85.52306,35.12852],[-85.52393,35.12697],[-85.52416,35.12671],[-85.52565,35.12604],[-85.52882,35.12531],[-85.52934,35.12498],[-85.52964,35.12439],[-85.52956,35.12337],[-85.529,35.12231],[-85.53006,35.11997],[-85.52987,35.11932],[-85.52938,35.11869],[-85.5283,35.11802],[-85.52792,35.11794],[-85.52701,35.11825],[-85.52621,35.11772],[-85.52595,35.11769],[-85.52555,35.11795],[-85.52537,35.11831],[-85.52518,35.11965],[-85.52498,35.11988],[-85.52423,35.12021],[-85.52375,35.12015],[-85.52335,35.11969],[-85.52348,35.11885],[-85.52382,35.1182],[-85.52385,35.1163],[-85.52541,35.11215],[-85.52703,35.1103],[-85.52778,35.11018],[-85.52968,35.10916],[-85.53262,35.1086],[-85.53375,35.10801],[-85.5347,35.10819],[-85.53827,35.10978],[-85.54013,35.11102],[-85.54139,35.11076],[-85.54188,35.11032],[-85.54262,35.10912],[-85.54397,35.10758],[-85.54448,35.10656],[-85.54542,35.10544],[-85.54581,35.10516],[-85.5469,35.10479],[-85.54743,35.10425],[-85.5478,35.10323],[-85.54763,35.10287],[-85.54672,35.102],[-85.54671,35.10162],[-85.54696,35.10133],[-85.54806,35.10084],[-85.55077,35.10121],[-85.55311,35.10088],[-85.55426,35.10029],[-85.55563,35.09859],[-85.55609,35.09826],[-85.55975,35.09754],[-85.56018,35.09673],[-85.56035,35.09529],[-85.55977,35.09403],[-85.55876,35.09051],[-85.55765,35.08854],[-85.55661,35.08728],[-85.55509,35.08584],[-85.55458,35.08482],[-85.55464,35.08341],[-85.55608,35.08069],[-85.55686,35.08061],[-85.56,35.07936],[-85.5607,35.07925],[-85.56191,35.07916],[-85.56679,35.07937],[-85.56894,35.08052],[-85.57232,35.08185],[-85.57384,35.08285],[-85.57529,35.08494],[-85.576,35.08564],[-85.57587,35.08706],[-85.5771,35.08777],[-85.57764,35.08891],[-85.57817,35.08907],[-85.57878,35.08905],[-85.58257,35.08803],[-85.58374,35.08729],[-85.58519,35.086],[-85.58637,35.08566],[-85.58714,35.08575],[-85.58755,35.08606],[-85.58804,35.08761],[-85.58861,35.08813],[-85.58903,35.08823],[-85.59013,35.08823],[-85.59131,35.08797],[-85.59347,35.08681],[-85.59406,35.08595],[-85.59402,35.08472],[-85.59362,35.08334],[-85.59318,35.08232],[-85.59251,35.08137],[-85.59242,35.08084],[-85.59347,35.07874],[-85.59415,35.07779],[-85.59604,35.07645],[-85.59614,35.07518],[-85.59591,35.07335],[-85.59604,35.07279],[-85.59662,35.07213],[-85.59814,35.07158],[-85.59859,35.07098],[-85.59853,35.06964],[-85.5974,35.06852],[-85.59744,35.06821],[-85.60009,35.06651],[-85.6006,35.06632],[-85.60236,35.06629],[-85.60451,35.06672],[-85.60617,35.0658],[-85.60684,35.06497],[-85.60703,35.06386],[-85.60675,35.06316],[-85.60525,35.06137],[-85.60534,35.06073],[-85.60601,35.06034],[-85.60729,35.06079],[-85.60819,35.06064],[-85.60941,35.06015],[-85.61046,35.06011],[-85.61304,35.06037],[-85.61525,35.06087],[-85.61616,35.06078],[-85.62,35.05755],[-85.62172,35.05479],[-85.62243,35.05241],[-85.62491,35.05027],[-85.62572,35.04917],[-85.62613,35.04755],[-85.62603,35.0458],[-85.62545,35.04447],[-85.62472,35.04366],[-85.62224,35.04176],[-85.61984,35.03929],[-85.6173,35.03726],[-85.61623,35.036],[-85.61555,35.03465],[-85.61546,35.03369],[-85.61581,35.03201],[-85.61639,35.03101],[-85.61782,35.02935],[-85.61881,35.0278],[-85.61969,35.02723],[-85.62202,35.0273],[-85.62521,35.0278],[-85.6264,35.02786],[-85.62758,35.02772],[-85.62915,35.02724],[-85.63249,35.02547],[-85.63329,35.02517],[-85.63489,35.02497],[-85.63581,35.02517]]]}}
