{"type":"Feature","properties":{"id":"trail-fork-big-creek","name":"Trail Fork (Big Creek tributary)","waterbodyType":"creek","throughLakeIds":[],"allowOpenEnds":false,"source":"nhd-hu8-06010105","approximate":false,"labelAnchor":[-83.11004,35.90026],"bounds":[-83.19663,35.89014,-83.02678,36.02468],"crs":"EPSG:4326","coordinateOrder":"longitude,latitude","partCount":1,"vertexCount":257,"lengthKm":43.91,"sourceIds":["90667203","90667201","90667357","90667181","90667285","90667297","90667617","90667615","90667575","90667415","90667501","90667567","90667663","90667661","90667581","90667621","90667633","90667593","90667535","90667319","90667305","90667027","90667055","90666937","90666907","90666893","90666823","90666673","90666617","90666397","90666389","90666273","90665647","90665423","90665581","90665583","90665503","90665373","90665315","90665221","90665179","90664797","90664193","90663923","90663375","90663493","90663537","90663585","90663735","90663801","90664059","90664211","90664285","90664349","90664435","90664469","90664571","90664583","90664523","90664439","90664441","90664307","90664217","90663895","90663707","90663581","90663243","90663225","90663475","90663477","90663397","90663175","90663063","90662817","90662523","90661301","90661203","90661407","90661529","90661583","90661585","90661571","90661463","90661351","90661341","90661145","90660581","90660569","90660473","90660357","90660343","90660059","90659949","90659925","90659781","90659563","{CE91F356-99B7-4970-B8EF-5650B5D80718}","{E7C60B6A-026E-4BC3-9CEA-97CEE6DDA260}"],"sourceRetrieved":"2026-09-11","geometrySource":"nhd","hu8":"06010105","simplification":{"toleranceM":10,"verticesBefore":1017,"verticesAfter":257,"budgetBytes":81920},"trace":{"anchor":{"lat":35.900264,"lon":-83.110036,"snapDistM":0.1},"up":{"spec":"headwater","reason":"headwater","terminus":[-83.121625,35.899732],"distKmFromAnchor":1.6},"down":{"spec":"confluence:Big Creek","reason":"terminal-node","terminus":[-83.196226,36.024677],"enteredNames":null,"distKmFromAnchor":41.85},"vaaUsed":false,"toleranceM":12}},"geometry":{"type":"MultiLineString","coordinates":[[[-83.12162,35.89973],[-83.12099,35.90039],[-83.12063,35.90145],[-83.11996,35.90182],[-83.11946,35.90192],[-83.11535,35.90138],[-83.11423,35.90093],[-83.11394,35.90094],[-83.11345,35.90138],[-83.11245,35.90135],[-83.11004,35.90026],[-83.10867,35.90034],[-83.1076,35.90008],[-83.10711,35.90013],[-83.10656,35.90042],[-83.11004,35.90026],[-83.10644,35.90051],[-83.10543,35.90091],[-83.10235,35.90106],[-83.10257,35.89983],[-83.10246,35.89957],[-83.10072,35.89801],[-83.09934,35.89779],[-83.09844,35.89719],[-83.09815,35.89681],[-83.09816,35.89611],[-83.09697,35.89538],[-83.09639,35.89485],[-83.09461,35.89234],[-83.09368,35.89261],[-83.09307,35.893],[-83.0928,35.89384],[-83.09297,35.89417],[-83.09337,35.8944],[-83.09428,35.89442],[-83.09467,35.89457],[-83.09547,35.89547],[-83.09555,35.89614],[-83.09532,35.8971],[-83.09469,35.8977],[-83.09398,35.89748],[-83.09236,35.89563],[-83.09173,35.89517],[-83.09123,35.89502],[-83.08892,35.89482],[-83.08667,35.89591],[-83.08523,35.89622],[-83.08522,35.89587],[-83.08612,35.8936],[-83.08598,35.89269],[-83.08471,35.89166],[-83.08239,35.89065],[-83.0815,35.89046],[-83.08049,35.89051],[-83.07919,35.89101],[-83.07796,35.89186],[-83.07741,35.89194],[-83.07601,35.89059],[-83.07537,35.89014],[-83.07501,35.89018],[-83.0745,35.89064],[-83.07447,35.89114],[-83.07515,35.89318],[-83.07484,35.89337],[-83.07425,35.89342],[-83.07232,35.89316],[-83.07107,35.8925],[-83.07107,35.89224],[-83.0723,35.89146],[-83.07234,35.89119],[-83.07208,35.89075],[-83.07146,35.89061],[-83.07008,35.89086],[-83.0697,35.89125],[-83.06993,35.89229],[-83.06902,35.89288],[-83.06861,35.89352],[-83.06891,35.89473],[-83.06797,35.8953],[-83.06693,35.89542],[-83.06561,35.89522],[-83.06472,35.89491],[-83.06286,35.89387],[-83.06203,35.89372],[-83.06182,35.89594],[-83.06195,35.89695],[-83.06164,35.89727],[-83.06008,35.89819],[-83.05901,35.89807],[-83.05751,35.89758],[-83.05584,35.89766],[-83.05432,35.89838],[-83.05323,35.89862],[-83.05223,35.8996],[-83.05111,35.8995],[-83.04991,35.8989],[-83.04944,35.89896],[-83.04714,35.89997],[-83.04586,35.90074],[-83.04436,35.90228],[-83.04416,35.90279],[-83.04424,35.90668],[-83.04437,35.90704],[-83.04465,35.90719],[-83.04611,35.90735],[-83.04757,35.90794],[-83.04783,35.90855],[-83.04721,35.909],[-83.04588,35.90936],[-83.04444,35.9095],[-83.04375,35.90947],[-83.04265,35.90907],[-83.04187,35.90829],[-83.04132,35.90734],[-83.04091,35.90607],[-83.0406,35.90563],[-83.04025,35.90544],[-83.03766,35.9054],[-83.03534,35.90517],[-83.0342,35.90527],[-83.03397,35.90574],[-83.03391,35.90674],[-83.03504,35.90997],[-83.03443,35.90998],[-83.03304,35.90945],[-83.03191,35.9097],[-83.02905,35.90973],[-83.02775,35.91001],[-83.02683,35.91078],[-83.02678,35.91107],[-83.02767,35.91306],[-83.02733,35.91527],[-83.02764,35.917],[-83.02751,35.91811],[-83.02798,35.91883],[-83.0283,35.91903],[-83.02926,35.91871],[-83.0308,35.91848],[-83.03189,35.91798],[-83.03396,35.91749],[-83.03554,35.91732],[-83.03715,35.91762],[-83.03869,35.91829],[-83.04109,35.92018],[-83.04246,35.92232],[-83.04333,35.92674],[-83.04316,35.92781],[-83.04268,35.9288],[-83.0424,35.93317],[-83.0428,35.93669],[-83.04308,35.9376],[-83.04338,35.93808],[-83.04407,35.9387],[-83.04576,35.93993],[-83.05002,35.9435],[-83.05148,35.94514],[-83.0529,35.94604],[-83.05387,35.94627],[-83.05489,35.9462],[-83.05579,35.94605],[-83.05848,35.94497],[-83.06083,35.9448],[-83.06148,35.94463],[-83.06548,35.94205],[-83.06657,35.9412],[-83.06772,35.93989],[-83.06879,35.93912],[-83.07181,35.93819],[-83.07321,35.93793],[-83.0749,35.93711],[-83.08031,35.93636],[-83.08147,35.93661],[-83.08281,35.93732],[-83.08466,35.93794],[-83.08946,35.9387],[-83.09172,35.93889],[-83.0943,35.94031],[-83.09599,35.94178],[-83.09762,35.9435],[-83.09834,35.94437],[-83.09924,35.94596],[-83.10098,35.94763],[-83.1022,35.9493],[-83.10372,35.95072],[-83.10516,35.9527],[-83.10632,35.95375],[-83.10888,35.95434],[-83.11143,35.95474],[-83.112,35.9547],[-83.11439,35.95577],[-83.11481,35.9558],[-83.11867,35.95564],[-83.12184,35.95499],[-83.12671,35.95446],[-83.12778,35.95424],[-83.12891,35.95381],[-83.12962,35.95374],[-83.13011,35.9538],[-83.13071,35.95418],[-83.13237,35.95369],[-83.13436,35.95359],[-83.1358,35.95401],[-83.1369,35.95465],[-83.13778,35.95549],[-83.13807,35.95667],[-83.13692,35.9576],[-83.1363,35.95771],[-83.1361,35.95893],[-83.13589,35.95927],[-83.13521,35.95987],[-83.13353,35.96072],[-83.12973,35.9618],[-83.12576,35.96427],[-83.12446,35.96576],[-83.12395,35.96699],[-83.12339,35.96998],[-83.12358,35.97196],[-83.12405,35.97324],[-83.12413,35.97432],[-83.12319,35.97912],[-83.1232,35.98095],[-83.12266,35.98232],[-83.12277,35.98306],[-83.1234,35.98394],[-83.12413,35.98449],[-83.12535,35.98481],[-83.12828,35.9849],[-83.13005,35.98473],[-83.1325,35.98399],[-83.13724,35.98037],[-83.13849,35.97957],[-83.1409,35.97898],[-83.1436,35.97886],[-83.1471,35.97844],[-83.15122,35.97863],[-83.15324,35.979],[-83.15648,35.97986],[-83.15975,35.98123],[-83.16148,35.98284],[-83.16197,35.98389],[-83.16272,35.98463],[-83.16387,35.98625],[-83.16529,35.98887],[-83.16748,35.99172],[-83.16843,35.99436],[-83.16904,35.99531],[-83.16912,35.99679],[-83.16933,35.99739],[-83.17038,35.99873],[-83.17972,36.00764],[-83.18196,36.00928],[-83.18911,36.0124],[-83.19188,36.01416],[-83.19449,36.01692],[-83.19662,36.02194],[-83.19663,36.02428],[-83.19623,36.02468]]]}}
