{"type":"Feature","properties":{"id":"nolichucky-river","name":"Nolichucky River","waterbodyType":"river","throughLakeIds":["davy-crockett-lake","douglas-lake"],"allowOpenEnds":false,"source":"nhd-hu8-06010108","approximate":false,"labelAnchor":[-82.45552,36.17835],"bounds":[-83.24655,35.90025,-81.88662,36.21118],"crs":"EPSG:4326","coordinateOrder":"longitude,latitude","partCount":1,"vertexCount":2106,"lengthKm":301.72,"sourceIds":["130977250","130977623","130977635","130978958","130980318","130980221","130979985","130979091","130978965","130980585","130980888","130981585","130982750","130982987","130984553","130984632","130984997","130985396","130985929","130985931","130985777","130986447","130986691","130987313","130987339","130987468","130987817","130987923","130988772","130989259","130989267","130989691","130990505","130991041","130991089","130992203","130992231","130992370","130992557","130992795","130993443","130994390","130994948","130995019","130995619","130995642","130997177","130997874","130998091","130997970","130997845","130997652","130996766","130995057","130995144","130995443","130995859","130996354","130997247","130997343","130997276","130997037","130996086","130994889","130994818","130994543","130994010","130993676","130993161","130994166","130994259","130994658","130995424","130995728","130995843","130995923","130995943","130996728","130997173","130997429","130997916","130998870","130999176","130999290","131000242","131001094","131001763","131002182","131003737","131003821","131004870","131005489","131006561","131007424","131008079","131008571","131008856","131010076","131010292","131010287","131009938","131010765","131010809","131011134","131010784","131010730","131009287","131009149","131008330","131006502","131005247","131004737","131004271","131004121","131001754","131003540","131004047","131005130","131005528","131005737","131006414","131008477","131008527","131008885","131009267","131009550","131010110","131010321","131011299","131011568","131012003","131012527","131012639","131012927","131013038","131013429","131013501","131013554","131013647","131014237","131014366","131014365","131014280","131014058","131013895","131013348","131013069","131012915","131013067","131013059","131012521","131011903","131010326","131010159","131010238","131010755","131012538","131012967","131013021","131013752","131013753","131013791","131014085","131014370","131014599","131014836","131015067","131015235","131015367","131015605","131015748","131015800","131015944","131016208","131016539","131016555","131016572","131016579","131016826","131016913","131017117","131017128","131017220","131017173","131017075","131017064","131016888","131016633","131016636","131016605","131016611","131016662","131016955","131016875","131016835","131016747","131016758","131017056","131016852","131017137","131017310","131017300","131017371","131017719","131017776","131017756","131017608","131017601","131017718","131017728","131017436","131017419","131017197","131017188","131016931","131016842","131016790","131016450","131016286","131016122","131015732","131015683","131015625","131015395","131015315","131015295","131015101","131015054","131015017","131015819","131015797","131015695","131015416","131014752","131014326","131014257","131013872","131014007","131013867","131013651","131013607","131012830","131012328","131009168","131008301","131005106","131003943","131002975","131002510","130999697","130998674","130999058","130998565","130997731","130996623","130992121","130990939","130990745","130990872","130990218","130989382","130989384","130989386","130989366","130988140","130987237","130986386","130986039","130984963","130984523","130984537","130985112","130985223","130985219","130984848","130984608","130984574","130985688","130985686","130985670","130985668","130985354","130980833","130979997","130979701","130977859","130977672","130973519","130975336","130973489","130972844","130972489","130971163","130970524","130970285","130970925","130971630","130972569","130972718","130972722","130972795","130972856","130973290","130973294","130973579","130975413","130975469","130975695","130975742","130975850","130978365","130979249","130982690","130982962","130983497","130984693","130984945","130985158","130986413","130986534","130986761","130986759","130986739","130986798","130986840","130986836","130986707","130986186","130985846","130985715","130985640","130985386","130985366","130985057","130984449","130984263","130981549","130978722","130976823","130975900","130975247","130978456","130979303","130978898","130977581","130976562","130976399","130976357","130976211","130975534","130975110","130974615","130974953","130975269","130975803","130977154","130979991","130981044","130981143","130984255","130984563","130984985","130985178","130985430","130985680","130985783","130985797","130986128","130986943","130986993","130987126","130987136","130988575","130988511","130989318","130989599","130989797","130989891","130989925","130991135","130991329","130992571","130993199","130995009","130995840","130996585","130996549","130996121","130995760","130997033","130997241","130998123","130998522","130998879","130999482","130999620","131000085","131000162","131000239","131000999","131002343","131003437","131003782","131004757","131004762","131006566","131007035","131007957","131008822","131009217","131009704","131011496","131011662","131012713","131012747","131012746","131012670","131012832","131013291","131013295","131013823","131013945","131013972","131014201","131014249","131014661","131014695","131014797","131014798","131014948","131015162","131015161","131014625","131014429","131013920","131013834","131013813","131014020","131013968","131013962","131013781","131013626","131013716","131013788","131013909","131014148","131014409","131014410","131014404","131014294","131014433","131014354","131014209","131014692","131014932","131014933","131014838","131014129","131014127","131013344","131013526","131013694","131013709","131013700","131013681","131013680","131013550","131013500","131013390","131013382","131013230","131013193","131013166","131013056","131013063","131013262","131013335","131013336","131013229","131013158","131013185","131013403","131013435","131013446","131013047","131012687","131013448","131013520","131013569","131013537","131013473","131013092","131012873","131012741","131012719","131012654","131012488","131007777","131008457","131011510","131012479","131012480","131012476","131008070","131008335","131008291","131006448","131006365","131006144","131004092","131003058","131002304","131000111","130994217","130992483","130992229","130992191","130993218","130994690","130996668","131003162","131008217","131008899","131009585","131009777","131009743","131008875","131008418","131008311","131004194","131004072","131003014","131000836","131001354","131002923","131007375","131009904","131012536","131012567","131012157","131011779","131012556","131013012","131013108","131013634","131014068","131014074","131014420","131014567","131014568","131014802","{F07F9DCD-4030-46C3-903C-144D39E27D81}","{B227A05B-689D-41CE-9EC5-0D9F3D635F80}","{15AABE1E-B6CD-4B32-B760-1AAB82083EEF}"],"sourceRetrieved":"2026-09-11","geometrySource":"nhd","hu8":"06010108","simplification":{"toleranceM":10,"verticesBefore":6482,"verticesAfter":2106,"budgetBytes":81920},"trace":{"anchor":{"lat":36.1782,"lon":-82.4552,"snapDistM":33.2},"up":{"spec":"headwater","reason":"headwater","terminus":[-81.886623,36.129433],"distKmFromAnchor":157.01},"down":{"spec":"confluence:Douglas Lake","reason":"terminal-node","terminus":[-83.233094,36.078288],"enteredNames":null,"distKmFromAnchor":147.02},"vaaUsed":false,"toleranceM":12}},"geometry":{"type":"MultiLineString","coordinates":[[[-81.88662,36.12943],[-81.88813,36.12897],[-81.88905,36.12837],[-81.89026,36.12674],[-81.89258,36.12452],[-81.89388,36.1229],[-81.89447,36.12162],[-81.89498,36.12124],[-81.8964,36.11928],[-81.89618,36.11871],[-81.89729,36.117],[-81.8976,36.11564],[-81.89892,36.11519],[-81.89965,36.11451],[-81.89983,36.11412],[-81.89979,36.11352],[-81.90042,36.11292],[-81.90052,36.11198],[-81.90145,36.11122],[-81.90157,36.11057],[-81.90146,36.10945],[-81.90207,36.1091],[-81.90241,36.10829],[-81.90242,36.10774],[-81.90293,36.10742],[-81.90272,36.10674],[-81.90312,36.10582],[-81.90314,36.10518],[-81.9034,36.10491],[-81.90383,36.10479],[-81.90398,36.1041],[-81.90428,36.10372],[-81.90407,36.10347],[-81.90491,36.10283],[-81.90682,36.10276],[-81.90774,36.10209],[-81.90885,36.10172],[-81.90954,36.10125],[-81.9098,36.10128],[-81.90968,36.1017],[-81.91005,36.10181],[-81.91059,36.10163],[-81.91118,36.10122],[-81.91083,36.10086],[-81.91097,36.1003],[-81.91118,36.1],[-81.91159,36.09982],[-81.91177,36.0993],[-81.91234,36.09886],[-81.91206,36.09837],[-81.91236,36.09677],[-81.91358,36.09596],[-81.9135,36.09546],[-81.91408,36.0947],[-81.91411,36.09412],[-81.91448,36.09319],[-81.9147,36.09303],[-81.9152,36.09305],[-81.91536,36.09282],[-81.9159,36.0927],[-81.91603,36.09166],[-81.91565,36.09128],[-81.91572,36.09113],[-81.91628,36.09096],[-81.91635,36.09077],[-81.91573,36.08947],[-81.91691,36.0878],[-81.91671,36.0872],[-81.91681,36.08664],[-81.91646,36.08603],[-81.91717,36.08465],[-81.91884,36.08498],[-81.9198,36.08474],[-81.92033,36.08476],[-81.92241,36.08532],[-81.92501,36.08558],[-81.92562,36.08537],[-81.92595,36.08509],[-81.92635,36.08503],[-81.92734,36.08411],[-81.92801,36.08407],[-81.92845,36.08362],[-81.92902,36.08376],[-81.92982,36.08424],[-81.92978,36.08445],[-81.92929,36.08449],[-81.92939,36.08472],[-81.93042,36.08521],[-81.93061,36.08546],[-81.9308,36.08603],[-81.93049,36.08652],[-81.93132,36.087],[-81.93123,36.08819],[-81.93217,36.08896],[-81.93282,36.08844],[-81.93254,36.08785],[-81.93315,36.08737],[-81.93321,36.08671],[-81.9337,36.08624],[-81.93437,36.08626],[-81.9352,36.08652],[-81.93616,36.08716],[-81.93633,36.08713],[-81.9365,36.08678],[-81.93741,36.08659],[-81.93769,36.08693],[-81.93774,36.08778],[-81.93896,36.08872],[-81.93967,36.08904],[-81.94108,36.08909],[-81.94154,36.08894],[-81.94159,36.08868],[-81.94125,36.08826],[-81.94047,36.08782],[-81.94038,36.08743],[-81.94172,36.08669],[-81.9432,36.08545],[-81.94355,36.08528],[-81.9439,36.08534],[-81.94477,36.08623],[-81.94512,36.08636],[-81.94667,36.08603],[-81.94744,36.08564],[-81.94784,36.08575],[-81.94809,36.0862],[-81.94783,36.08752],[-81.94853,36.08783],[-81.94861,36.088],[-81.94811,36.08959],[-81.94858,36.09149],[-81.94864,36.09265],[-81.94849,36.09356],[-81.94733,36.09421],[-81.94771,36.09526],[-81.94674,36.09641],[-81.94678,36.09678],[-81.94707,36.09697],[-81.95109,36.09437],[-81.9515,36.09463],[-81.95164,36.09571],[-81.95208,36.09612],[-81.95309,36.09607],[-81.95432,36.09539],[-81.95531,36.09505],[-81.95722,36.09483],[-81.95776,36.09498],[-81.95839,36.09552],[-81.95979,36.0963],[-81.96052,36.09659],[-81.96098,36.0966],[-81.96273,36.09595],[-81.96321,36.09534],[-81.96342,36.09447],[-81.96496,36.09349],[-81.96563,36.09176],[-81.96624,36.09155],[-81.96685,36.09153],[-81.96775,36.09172],[-81.97084,36.09356],[-81.97124,36.09348],[-81.97213,36.09211],[-81.97289,36.09191],[-81.97322,36.09208],[-81.97375,36.09325],[-81.97431,36.09377],[-81.97508,36.09382],[-81.97635,36.09339],[-81.97729,36.09365],[-81.97747,36.09415],[-81.97633,36.09652],[-81.97623,36.09737],[-81.97658,36.09781],[-81.97823,36.09874],[-81.98026,36.09876],[-81.98201,36.09832],[-81.98353,36.09874],[-81.98817,36.09908],[-81.98978,36.09801],[-81.98998,36.09763],[-81.99009,36.09656],[-81.99133,36.0948],[-81.9918,36.09326],[-81.99244,36.092],[-81.99447,36.08961],[-81.99469,36.08869],[-81.99443,36.0874],[-81.99458,36.08659],[-81.99563,36.08436],[-81.99578,36.08355],[-81.99579,36.08034],[-81.99594,36.08025],[-81.99669,36.08037],[-81.99776,36.08072],[-81.9993,36.08169],[-82,36.08189],[-82.00121,36.08201],[-82.00208,36.08172],[-82.00231,36.08048],[-82.00054,36.07735],[-82,36.07553],[-81.99945,36.07478],[-81.9992,36.07345],[-81.99865,36.07205],[-81.99882,36.07135],[-81.99945,36.07044],[-81.99956,36.06984],[-81.99925,36.06735],[-81.99938,36.06643],[-81.99962,36.0661],[-82.00004,36.06582],[-82.00047,36.06575],[-82.00169,36.06583],[-82.00217,36.06663],[-82.00206,36.06702],[-82.001,36.06758],[-82.00087,36.06778],[-82.00087,36.06829],[-82.00135,36.06885],[-82.00356,36.0694],[-82.00526,36.07025],[-82.00734,36.07053],[-82.00811,36.07004],[-82.00831,36.0692],[-82.00817,36.06897],[-82.00822,36.06822],[-82.00761,36.06688],[-82.00751,36.06593],[-82.00782,36.06503],[-82.00761,36.06468],[-82.00782,36.06355],[-82.00763,36.06266],[-82.0078,36.06174],[-82.00807,36.06123],[-82.00837,36.06108],[-82.00882,36.0611],[-82.00985,36.06213],[-82.01061,36.06218],[-82.0121,36.06293],[-82.01394,36.06329],[-82.01445,36.06296],[-82.01513,36.06177],[-82.01504,36.06032],[-82.0153,36.05912],[-82.01593,36.05844],[-82.01681,36.05786],[-82.0179,36.05781],[-82.0193,36.05931],[-82.01971,36.05932],[-82.02055,36.05891],[-82.02116,36.0588],[-82.02203,36.05826],[-82.02238,36.05786],[-82.02129,36.05665],[-82.02107,36.05612],[-82.02098,36.05492],[-82.01963,36.05266],[-82.01738,36.05014],[-82.01665,36.04968],[-82.01611,36.04965],[-82.01567,36.04985],[-82.01545,36.05029],[-82.01516,36.0504],[-82.01473,36.05003],[-82.01241,36.04889],[-82.01149,36.04798],[-82.01071,36.04753],[-82.0093,36.04491],[-82.00939,36.04438],[-82.01077,36.04306],[-82.0115,36.04159],[-82.01188,36.03976],[-82.01174,36.03787],[-82.01107,36.03634],[-82.01095,36.03481],[-82.01037,36.03402],[-82.0102,36.03346],[-82.01026,36.03293],[-82.01098,36.03247],[-82.01091,36.03163],[-82.00974,36.03012],[-82.00879,36.03033],[-82.00838,36.03014],[-82.00794,36.02955],[-82.00785,36.02834],[-82.00889,36.02641],[-82.01055,36.02451],[-82.01126,36.02337],[-82.0121,36.02253],[-82.0139,36.02213],[-82.01541,36.02104],[-82.01611,36.02119],[-82.01681,36.02178],[-82.01703,36.02257],[-82.017,36.02415],[-82.01722,36.02443],[-82.01856,36.02477],[-82.01917,36.0247],[-82.02022,36.02486],[-82.02166,36.0247],[-82.02247,36.02422],[-82.02265,36.02364],[-82.02244,36.0227],[-82.02182,36.02162],[-82.02225,36.01979],[-82.02195,36.01874],[-82.02284,36.01466],[-82.02297,36.01301],[-82.02209,36.01165],[-82.02107,36.01055],[-82.01992,36.00995],[-82.01956,36.0094],[-82.02003,36.00617],[-82.02046,36.00485],[-82.02006,36.00379],[-82.02043,36.00109],[-82.02033,36.00039],[-82.01905,35.99814],[-82.01906,35.99731],[-82.01786,35.99478],[-82.01784,35.99319],[-82.01762,35.99216],[-82.01705,35.99158],[-82.01528,35.9904],[-82.01407,35.98986],[-82.01149,35.98717],[-82.01073,35.98661],[-82.01027,35.98608],[-82.01029,35.98584],[-82.01068,35.98545],[-82.01207,35.98525],[-82.01451,35.98431],[-82.01479,35.98402],[-82.01513,35.98265],[-82.01595,35.98142],[-82.01687,35.97918],[-82.0172,35.97737],[-82.01691,35.97701],[-82.01601,35.97694],[-82.01523,35.97627],[-82.01538,35.97477],[-82.01468,35.9722],[-82.01475,35.97181],[-82.01546,35.97164],[-82.01825,35.97197],[-82.0188,35.97193],[-82.01927,35.97159],[-82.01938,35.97102],[-82.0191,35.96983],[-82.01782,35.96842],[-82.01803,35.96732],[-82.01828,35.96717],[-82.01867,35.96729],[-82.02009,35.96862],[-82.02114,35.96932],[-82.02231,35.96985],[-82.02384,35.97036],[-82.02564,35.97043],[-82.02657,35.96981],[-82.0274,35.96851],[-82.02752,35.96661],[-82.02789,35.96636],[-82.02944,35.96676],[-82.02991,35.96645],[-82.03033,35.96492],[-82.03017,35.96356],[-82.02983,35.96294],[-82.02888,35.96269],[-82.02837,35.96302],[-82.02776,35.96385],[-82.02637,35.96452],[-82.02601,35.96451],[-82.02586,35.96435],[-82.02577,35.96365],[-82.02627,35.9614],[-82.02576,35.96026],[-82.02594,35.95952],[-82.02644,35.95904],[-82.02723,35.95892],[-82.02993,35.95949],[-82.03075,35.95897],[-82.0308,35.95775],[-82.031,35.95763],[-82.03287,35.95781],[-82.03318,35.95756],[-82.03318,35.95709],[-82.03287,35.95655],[-82.0312,35.95653],[-82.0306,35.95639],[-82.03012,35.95601],[-82.03005,35.95542],[-82.03052,35.95512],[-82.03173,35.95493],[-82.03253,35.95449],[-82.03323,35.95363],[-82.03347,35.95308],[-82.03174,35.95122],[-82.0299,35.94991],[-82.0296,35.9493],[-82.02975,35.94874],[-82.03051,35.94757],[-82.03111,35.94558],[-82.03157,35.94477],[-82.0337,35.94256],[-82.03396,35.94216],[-82.03394,35.94151],[-82.03361,35.94064],[-82.03294,35.94009],[-82.02979,35.93954],[-82.02922,35.93969],[-82.02898,35.94045],[-82.02964,35.94201],[-82.0298,35.94384],[-82.02958,35.94428],[-82.02909,35.94451],[-82.02765,35.9447],[-82.02322,35.94494],[-82.02066,35.9463],[-82.02036,35.94673],[-82.02014,35.94764],[-82.02064,35.94813],[-82.02149,35.9482],[-82.02414,35.94728],[-82.02514,35.94755],[-82.02529,35.94771],[-82.02521,35.9481],[-82.02449,35.94909],[-82.02388,35.94946],[-82.02263,35.94985],[-82.02133,35.94999],[-82.02041,35.94988],[-82.01993,35.95],[-82.01946,35.95034],[-82.01881,35.95138],[-82.0166,35.95307],[-82.01336,35.95421],[-82.01268,35.95423],[-82.01178,35.95348],[-82.01141,35.95203],[-82.01075,35.95122],[-82.00716,35.9491],[-82.00601,35.94824],[-82.00606,35.94724],[-82.00572,35.94662],[-82.00325,35.9429],[-82.00032,35.93966],[-81.99908,35.94002],[-81.99623,35.93929],[-81.99528,35.93856],[-81.99496,35.93787],[-81.99347,35.93759],[-81.99316,35.93668],[-81.99317,35.93582],[-81.99284,35.93466],[-81.99362,35.93121],[-81.99443,35.93001],[-81.99468,35.92863],[-81.99621,35.92798],[-81.99657,35.92629],[-81.99763,35.92443],[-81.99786,35.92433],[-81.99778,35.92416],[-81.99806,35.92358],[-81.9988,35.92254],[-82,35.92189],[-82.0001,35.9214],[-81.99978,35.92093],[-81.99869,35.92022],[-81.99616,35.91923],[-81.99586,35.91891],[-81.99575,35.91825],[-81.99646,35.91786],[-81.99736,35.91761],[-82.00043,35.91837],[-82.0015,35.91849],[-82.00469,35.91811],[-82.00582,35.91785],[-82.00815,35.91773],[-82.00913,35.9168],[-82.01006,35.91622],[-82.01082,35.91602],[-82.01381,35.91743],[-82.01511,35.91751],[-82.0158,35.91741],[-82.01688,35.91696],[-82.01839,35.91443],[-82.01889,35.91395],[-82.02361,35.91212],[-82.02463,35.91224],[-82.02835,35.91366],[-82.03036,35.914],[-82.03067,35.91382],[-82.03117,35.9133],[-82.03136,35.91253],[-82.03118,35.91175],[-82.03092,35.91147],[-82.02947,35.91054],[-82.02878,35.91035],[-82.0264,35.91047],[-82.02564,35.91019],[-82.0253,35.90983],[-82.02508,35.90908],[-82.02548,35.90837],[-82.0263,35.90789],[-82.02781,35.90753],[-82.03,35.90645],[-82.03014,35.90567],[-82.02982,35.90473],[-82.02825,35.90317],[-82.02778,35.90232],[-82.02798,35.90076],[-82.02864,35.90037],[-82.02948,35.90025],[-82.03023,35.9003],[-82.03348,35.90134],[-82.0362,35.90274],[-82.04023,35.90416],[-82.04084,35.90452],[-82.04188,35.90551],[-82.04364,35.90575],[-82.04609,35.90546],[-82.0468,35.90555],[-82.04747,35.90609],[-82.04795,35.90713],[-82.04856,35.90778],[-82.0518,35.90931],[-82.05238,35.90935],[-82.05274,35.90914],[-82.05474,35.90757],[-82.05498,35.90727],[-82.0552,35.90632],[-82.05501,35.90615],[-82.05443,35.90609],[-82.04883,35.90579],[-82.04841,35.90469],[-82.0485,35.90416],[-82.04952,35.90186],[-82.05009,35.90146],[-82.05148,35.90151],[-82.05203,35.90172],[-82.05316,35.90247],[-82.05416,35.90338],[-82.05505,35.90374],[-82.05635,35.90378],[-82.05763,35.90347],[-82.05852,35.9035],[-82.05992,35.90377],[-82.06093,35.90469],[-82.06173,35.90475],[-82.06274,35.90443],[-82.06473,35.90488],[-82.06624,35.90553],[-82.06756,35.9055],[-82.06914,35.90573],[-82.06969,35.90644],[-82.0697,35.90738],[-82.06826,35.90905],[-82.06775,35.91058],[-82.0668,35.91177],[-82.06622,35.91322],[-82.06628,35.91413],[-82.06651,35.91434],[-82.0701,35.91519],[-82.07177,35.91597],[-82.07244,35.91652],[-82.07297,35.91654],[-82.07392,35.91629],[-82.07618,35.91606],[-82.0772,35.91618],[-82.07791,35.91651],[-82.07789,35.91687],[-82.07739,35.91782],[-82.07732,35.91846],[-82.07804,35.91949],[-82.07907,35.91979],[-82.07978,35.92034],[-82.07954,35.92187],[-82.0797,35.92445],[-82.08018,35.92526],[-82.0815,35.9263],[-82.08247,35.9268],[-82.08309,35.92687],[-82.08451,35.92628],[-82.08472,35.92591],[-82.08398,35.92477],[-82.08406,35.92431],[-82.08432,35.92413],[-82.08531,35.92395],[-82.08583,35.92304],[-82.08656,35.92255],[-82.0876,35.92253],[-82.0881,35.92277],[-82.09175,35.92554],[-82.09208,35.92569],[-82.09351,35.92579],[-82.09388,35.92598],[-82.09552,35.92714],[-82.0965,35.9282],[-82.09789,35.92923],[-82.09877,35.92965],[-82.10148,35.93012],[-82.10265,35.92993],[-82.10322,35.93],[-82.10351,35.9314],[-82.10346,35.93165],[-82.10272,35.9325],[-82.10269,35.93315],[-82.10307,35.93352],[-82.10371,35.93374],[-82.10496,35.93385],[-82.10555,35.93356],[-82.10609,35.93236],[-82.10634,35.93224],[-82.10687,35.93231],[-82.1075,35.93205],[-82.10889,35.93088],[-82.10981,35.93034],[-82.11057,35.9301],[-82.11468,35.92918],[-82.11539,35.92926],[-82.11685,35.9299],[-82.1177,35.92997],[-82.11814,35.92977],[-82.11912,35.92887],[-82.11992,35.92868],[-82.12046,35.92874],[-82.12112,35.92929],[-82.122,35.93091],[-82.12362,35.93265],[-82.12428,35.93377],[-82.12583,35.9358],[-82.1264,35.93641],[-82.12709,35.93685],[-82.12777,35.93682],[-82.1287,35.93621],[-82.12903,35.93614],[-82.13035,35.93633],[-82.13147,35.93673],[-82.13276,35.93697],[-82.13335,35.93697],[-82.13533,35.93655],[-82.13634,35.93667],[-82.13787,35.9375],[-82.13872,35.93775],[-82.14067,35.93772],[-82.14289,35.93798],[-82.14367,35.9384],[-82.14539,35.93983],[-82.14658,35.94026],[-82.14722,35.93972],[-82.14743,35.93859],[-82.14719,35.93791],[-82.14669,35.93723],[-82.1459,35.93462],[-82.14604,35.93362],[-82.14651,35.93324],[-82.1478,35.93314],[-82.14907,35.93286],[-82.15031,35.933],[-82.15218,35.93365],[-82.15278,35.93358],[-82.15478,35.93378],[-82.15644,35.93285],[-82.15894,35.9308],[-82.16026,35.93056],[-82.16078,35.93065],[-82.16169,35.93112],[-82.16515,35.9342],[-82.16581,35.93453],[-82.16648,35.93461],[-82.1677,35.93406],[-82.16825,35.93333],[-82.16841,35.93173],[-82.16765,35.92991],[-82.16768,35.92951],[-82.16796,35.92922],[-82.16911,35.92863],[-82.17008,35.929],[-82.17378,35.93225],[-82.17473,35.93247],[-82.17531,35.93279],[-82.17587,35.93343],[-82.17583,35.93415],[-82.17606,35.93461],[-82.17734,35.93577],[-82.17833,35.93603],[-82.17907,35.93594],[-82.18035,35.93612],[-82.18197,35.93667],[-82.18261,35.93711],[-82.1831,35.93716],[-82.18407,35.93825],[-82.18426,35.93871],[-82.18446,35.94007],[-82.18409,35.94187],[-82.18437,35.94255],[-82.18759,35.94448],[-82.18802,35.94456],[-82.19041,35.94661],[-82.19152,35.94696],[-82.19235,35.94835],[-82.19208,35.94908],[-82.19348,35.9508],[-82.1948,35.95128],[-82.19705,35.95158],[-82.1976,35.95204],[-82.19775,35.95242],[-82.19766,35.95295],[-82.19686,35.95361],[-82.19648,35.95443],[-82.19449,35.95543],[-82.19387,35.95611],[-82.19339,35.95696],[-82.19315,35.95903],[-82.19292,35.95932],[-82.1922,35.95975],[-82.19167,35.95972],[-82.19089,35.95952],[-82.1882,35.95838],[-82.18711,35.95818],[-82.1863,35.95862],[-82.18586,35.96005],[-82.18596,35.96053],[-82.18668,35.96127],[-82.18944,35.96274],[-82.19004,35.96339],[-82.19035,35.96393],[-82.19044,35.96467],[-82.19095,35.96538],[-82.19131,35.9656],[-82.19284,35.96592],[-82.1941,35.96719],[-82.19395,35.96796],[-82.19373,35.96823],[-82.19178,35.96948],[-82.19144,35.96984],[-82.19125,35.97039],[-82.19164,35.97123],[-82.19116,35.97359],[-82.19128,35.97513],[-82.19181,35.97696],[-82.19122,35.9814],[-82.19139,35.98192],[-82.1923,35.98268],[-82.19273,35.98378],[-82.19263,35.98431],[-82.19158,35.98534],[-82.19143,35.9859],[-82.19142,35.98868],[-82.19169,35.99057],[-82.19225,35.9913],[-82.19259,35.99145],[-82.19653,35.99169],[-82.19723,35.99206],[-82.19779,35.99271],[-82.19764,35.99424],[-82.19789,35.99536],[-82.20185,35.99943],[-82.20206,35.99978],[-82.20202,36.00017],[-82.20307,36.00181],[-82.20372,36.0025],[-82.20419,36.00386],[-82.20431,36.00445],[-82.20403,36.00571],[-82.20324,36.00612],[-82.20258,36.00623],[-82.20013,36.00602],[-82.19935,36.00509],[-82.1994,36.00485],[-82.1991,36.00449],[-82.19886,36.00356],[-82.1986,36.00327],[-82.19861,36.00295],[-82.19649,36.00068],[-82.1951,36.00041],[-82.19454,36.00049],[-82.19392,36.00089],[-82.19341,36.00148],[-82.19319,36.00243],[-82.19326,36.00547],[-82.1937,36.0083],[-82.19392,36.00854],[-82.1943,36.0097],[-82.19436,36.01058],[-82.19472,36.01134],[-82.19582,36.01248],[-82.19646,36.01396],[-82.19775,36.01531],[-82.19866,36.01577],[-82.19995,36.01589],[-82.20086,36.01538],[-82.20461,36.01416],[-82.20531,36.01406],[-82.20592,36.01416],[-82.20713,36.01474],[-82.20831,36.01596],[-82.20925,36.01654],[-82.20984,36.01675],[-82.21117,36.01691],[-82.21342,36.01699],[-82.21566,36.01685],[-82.21677,36.01648],[-82.21947,36.01509],[-82.22013,36.01495],[-82.22284,36.01494],[-82.22482,36.01402],[-82.22784,36.01289],[-82.22898,36.01306],[-82.23044,36.01352],[-82.23168,36.01363],[-82.23353,36.01341],[-82.23429,36.01296],[-82.23515,36.01176],[-82.23741,36.00978],[-82.23762,36.00865],[-82.23637,36.00583],[-82.23643,36.00523],[-82.23725,36.00471],[-82.2393,36.00491],[-82.24029,36.00539],[-82.24086,36.006],[-82.24139,36.00631],[-82.24551,36.00729],[-82.24867,36.0086],[-82.24975,36.00887],[-82.25059,36.00891],[-82.25229,36.00853],[-82.25291,36.0081],[-82.25357,36.0072],[-82.25397,36.00551],[-82.25228,36.00214],[-82.25266,35.99876],[-82.25116,35.99627],[-82.25019,35.99418],[-82.24981,35.99397],[-82.24908,35.99078],[-82.24925,35.98986],[-82.24952,35.98938],[-82.25056,35.98895],[-82.25192,35.98914],[-82.25437,35.99015],[-82.25625,35.99123],[-82.25781,35.99286],[-82.25862,35.99411],[-82.25974,35.9964],[-82.26047,35.99727],[-82.26293,35.99898],[-82.26585,36.00043],[-82.26692,36.00077],[-82.26738,36.00122],[-82.27137,36.0019],[-82.27291,36.00266],[-82.27385,36.00367],[-82.27425,36.00422],[-82.27431,36.00466],[-82.27386,36.00739],[-82.27337,36.00831],[-82.27299,36.01068],[-82.27275,36.01123],[-82.26981,36.01295],[-82.26892,36.01385],[-82.26815,36.01434],[-82.26778,36.01517],[-82.26797,36.01634],[-82.26869,36.01736],[-82.26928,36.01783],[-82.26993,36.01823],[-82.27169,36.01879],[-82.27381,36.02005],[-82.27753,36.02348],[-82.28105,36.02602],[-82.28197,36.02641],[-82.28573,36.02714],[-82.2871,36.02758],[-82.28746,36.02784],[-82.28868,36.02809],[-82.29031,36.02882],[-82.29114,36.02975],[-82.29136,36.03079],[-82.29193,36.03186],[-82.29255,36.03247],[-82.29389,36.03328],[-82.29613,36.03567],[-82.29904,36.0398],[-82.2993,36.04138],[-82.29866,36.04361],[-82.29897,36.04491],[-82.29963,36.04575],[-82.30043,36.04584],[-82.30169,36.04541],[-82.30215,36.04488],[-82.30274,36.04336],[-82.30339,36.04228],[-82.30445,36.04143],[-82.30635,36.04043],[-82.30809,36.04055],[-82.30964,36.04026],[-82.31107,36.03935],[-82.31176,36.03847],[-82.31317,36.0358],[-82.31331,36.03502],[-82.31278,36.03146],[-82.31253,36.03085],[-82.31259,36.0305],[-82.31164,36.02902],[-82.31143,36.02795],[-82.31168,36.02682],[-82.31278,36.02601],[-82.31388,36.02567],[-82.31572,36.02548],[-82.31684,36.02554],[-82.31883,36.02534],[-82.32051,36.02557],[-82.32284,36.02865],[-82.32383,36.02916],[-82.32527,36.02922],[-82.32649,36.029],[-82.3273,36.02902],[-82.33113,36.02961],[-82.33229,36.02946],[-82.33364,36.029],[-82.33496,36.02897],[-82.33689,36.02977],[-82.33802,36.03005],[-82.33844,36.03049],[-82.33939,36.03273],[-82.33934,36.03298],[-82.34001,36.03479],[-82.33973,36.03634],[-82.33942,36.03706],[-82.33798,36.03852],[-82.33747,36.03929],[-82.33724,36.04082],[-82.33684,36.04153],[-82.33612,36.04477],[-82.33609,36.04567],[-82.33643,36.04603],[-82.33632,36.04688],[-82.33663,36.04818],[-82.33628,36.04962],[-82.33654,36.05041],[-82.33628,36.05233],[-82.33672,36.05339],[-82.33688,36.05503],[-82.33942,36.05976],[-82.34004,36.06179],[-82.34017,36.06386],[-82.34092,36.06593],[-82.3422,36.06763],[-82.34377,36.06918],[-82.34462,36.07098],[-82.34484,36.07179],[-82.3447,36.07207],[-82.3452,36.07379],[-82.34503,36.07525],[-82.34542,36.07684],[-82.3458,36.07725],[-82.34687,36.07759],[-82.34806,36.07823],[-82.34921,36.0795],[-82.3495,36.08005],[-82.35036,36.08102],[-82.35076,36.08309],[-82.35114,36.08371],[-82.35221,36.08455],[-82.35302,36.08461],[-82.35358,36.08449],[-82.35514,36.08392],[-82.3567,36.0828],[-82.35741,36.08187],[-82.35807,36.07949],[-82.35844,36.07905],[-82.3595,36.07836],[-82.36495,36.0775],[-82.36858,36.07724],[-82.37026,36.07671],[-82.37192,36.07553],[-82.37237,36.07428],[-82.37433,36.07173],[-82.37661,36.07061],[-82.37851,36.07036],[-82.37927,36.07041],[-82.37999,36.07071],[-82.38073,36.07133],[-82.38137,36.07256],[-82.38353,36.07487],[-82.38551,36.07621],[-82.38897,36.07813],[-82.39086,36.07943],[-82.39562,36.08117],[-82.39792,36.08172],[-82.39929,36.08187],[-82.40057,36.08159],[-82.402,36.08067],[-82.40245,36.07993],[-82.40268,36.07815],[-82.4026,36.07735],[-82.40212,36.07625],[-82.39984,36.07407],[-82.39919,36.0732],[-82.39918,36.07201],[-82.39952,36.07158],[-82.40003,36.07128],[-82.4011,36.07111],[-82.40212,36.07126],[-82.40338,36.07152],[-82.40511,36.07222],[-82.40624,36.07177],[-82.40965,36.07195],[-82.41263,36.07175],[-82.41509,36.07189],[-82.41631,36.07242],[-82.41749,36.07364],[-82.41818,36.07531],[-82.41845,36.0766],[-82.41858,36.07914],[-82.419,36.0806],[-82.41957,36.08121],[-82.42231,36.08253],[-82.42357,36.08387],[-82.42368,36.085],[-82.42405,36.08598],[-82.4241,36.08718],[-82.42472,36.08901],[-82.42848,36.09432],[-82.43212,36.09744],[-82.43355,36.09833],[-82.43474,36.0985],[-82.43562,36.09842],[-82.43602,36.09821],[-82.43724,36.09846],[-82.43797,36.0989],[-82.44367,36.09923],[-82.44471,36.09971],[-82.44537,36.09982],[-82.44607,36.10023],[-82.44709,36.10034],[-82.44842,36.10151],[-82.44825,36.10322],[-82.44771,36.10446],[-82.44778,36.10508],[-82.448,36.10532],[-82.44795,36.10636],[-82.44812,36.1067],[-82.44811,36.10851],[-82.44832,36.11012],[-82.4483,36.11124],[-82.44779,36.11327],[-82.44738,36.11405],[-82.44641,36.11466],[-82.44538,36.11512],[-82.44476,36.11505],[-82.44431,36.11529],[-82.44399,36.11525],[-82.44342,36.11566],[-82.44167,36.11759],[-82.44096,36.11952],[-82.44084,36.12041],[-82.44118,36.12081],[-82.44239,36.12151],[-82.44279,36.12194],[-82.44357,36.12361],[-82.44454,36.12774],[-82.44417,36.1283],[-82.43793,36.13199],[-82.43492,36.13338],[-82.43465,36.13335],[-82.43313,36.13426],[-82.43263,36.135],[-82.43314,36.13646],[-82.43289,36.1373],[-82.43207,36.13883],[-82.43186,36.14101],[-82.43264,36.14247],[-82.43331,36.14301],[-82.4343,36.14331],[-82.4347,36.14335],[-82.4357,36.14311],[-82.43831,36.14146],[-82.43946,36.14112],[-82.44021,36.1412],[-82.44091,36.14157],[-82.44256,36.14328],[-82.44317,36.14515],[-82.44397,36.14672],[-82.4436,36.14856],[-82.44247,36.1503],[-82.44174,36.15256],[-82.44155,36.15514],[-82.4423,36.15876],[-82.44255,36.15937],[-82.44297,36.15981],[-82.44286,36.16041],[-82.4434,36.1617],[-82.4444,36.16268],[-82.44442,36.16312],[-82.4447,36.16355],[-82.44635,36.16521],[-82.44798,36.16771],[-82.44923,36.16908],[-82.45106,36.17073],[-82.45256,36.17152],[-82.45447,36.17296],[-82.45531,36.17385],[-82.45622,36.17385],[-82.45719,36.17324],[-82.45766,36.1726],[-82.45838,36.17088],[-82.45945,36.16898],[-82.46201,36.16736],[-82.46409,36.16713],[-82.46556,36.1673],[-82.46627,36.16763],[-82.46909,36.17059],[-82.46927,36.17133],[-82.46914,36.17204],[-82.46865,36.17303],[-82.46803,36.17368],[-82.46538,36.17507],[-82.4632,36.17558],[-82.46231,36.17548],[-82.46043,36.17563],[-82.45896,36.17546],[-82.45817,36.17559],[-82.45699,36.17635],[-82.45532,36.17854],[-82.45489,36.17969],[-82.45464,36.17984],[-82.45552,36.17835],[-82.45457,36.18019],[-82.4538,36.18122],[-82.45311,36.18277],[-82.45275,36.18301],[-82.4526,36.18383],[-82.45137,36.18614],[-82.45096,36.18739],[-82.45124,36.18836],[-82.45099,36.18952],[-82.45098,36.19057],[-82.45129,36.19161],[-82.45136,36.19321],[-82.45259,36.19595],[-82.45262,36.19905],[-82.45325,36.20061],[-82.45499,36.20326],[-82.45723,36.20571],[-82.45853,36.20601],[-82.45947,36.20662],[-82.46333,36.20782],[-82.46566,36.20873],[-82.46729,36.20874],[-82.46891,36.20856],[-82.47035,36.20815],[-82.4707,36.20819],[-82.4723,36.20761],[-82.47319,36.2075],[-82.47513,36.20678],[-82.47799,36.20501],[-82.47822,36.20475],[-82.47841,36.20394],[-82.48106,36.20132],[-82.4824,36.19964],[-82.48378,36.19878],[-82.48555,36.19801],[-82.48714,36.19751],[-82.48887,36.19749],[-82.49123,36.19869],[-82.4918,36.19879],[-82.49458,36.19774],[-82.49581,36.19745],[-82.49909,36.19685],[-82.50103,36.19691],[-82.50189,36.19643],[-82.50341,36.19632],[-82.50376,36.19614],[-82.50703,36.19557],[-82.50844,36.1948],[-82.5094,36.19375],[-82.51264,36.19087],[-82.51614,36.18878],[-82.51708,36.18835],[-82.51779,36.18821],[-82.51922,36.1883],[-82.52284,36.18734],[-82.52508,36.18723],[-82.52762,36.18594],[-82.52844,36.18545],[-82.52912,36.18293],[-82.52951,36.18251],[-82.53023,36.18205],[-82.53095,36.18206],[-82.5328,36.18162],[-82.53386,36.18076],[-82.53414,36.18018],[-82.5394,36.17717],[-82.53986,36.17636],[-82.54005,36.1753],[-82.53975,36.17469],[-82.53977,36.17382],[-82.54094,36.17136],[-82.54223,36.17015],[-82.54346,36.16969],[-82.54534,36.16993],[-82.54652,36.17031],[-82.54705,36.17021],[-82.54742,36.16982],[-82.54895,36.16888],[-82.54945,36.16864],[-82.5498,36.16868],[-82.55189,36.16766],[-82.5533,36.16735],[-82.55495,36.16725],[-82.55603,36.16679],[-82.55897,36.16507],[-82.55945,36.1644],[-82.56001,36.16407],[-82.56068,36.16414],[-82.56193,36.164],[-82.56305,36.16355],[-82.56467,36.16261],[-82.56535,36.16006],[-82.56613,36.15874],[-82.56693,36.15681],[-82.56765,36.15353],[-82.56809,36.15232],[-82.56827,36.15079],[-82.56841,36.15052],[-82.56938,36.14994],[-82.57024,36.14968],[-82.571,36.14976],[-82.57238,36.15035],[-82.57332,36.15043],[-82.57406,36.15036],[-82.5746,36.15014],[-82.57542,36.15012],[-82.57799,36.15045],[-82.57918,36.15037],[-82.58203,36.15065],[-82.58223,36.15082],[-82.58367,36.15113],[-82.58403,36.15138],[-82.58556,36.15192],[-82.58713,36.15354],[-82.58735,36.15356],[-82.58845,36.15455],[-82.58876,36.15459],[-82.59071,36.15633],[-82.59092,36.15693],[-82.59085,36.1576],[-82.59122,36.15829],[-82.5912,36.1589],[-82.59157,36.15942],[-82.59249,36.15984],[-82.59344,36.1606],[-82.59531,36.16128],[-82.59777,36.16149],[-82.59942,36.16214],[-82.59974,36.16239],[-82.60106,36.16283],[-82.60425,36.16327],[-82.60444,36.16347],[-82.6062,36.16374],[-82.60779,36.16424],[-82.60884,36.16523],[-82.60984,36.16649],[-82.61063,36.16864],[-82.61228,36.1711],[-82.61262,36.172],[-82.61366,36.17327],[-82.61394,36.17349],[-82.61624,36.17357],[-82.61755,36.17411],[-82.61763,36.17441],[-82.61733,36.17636],[-82.6162,36.17987],[-82.61455,36.18153],[-82.61337,36.1823],[-82.61271,36.1824],[-82.61252,36.18274],[-82.61176,36.1832],[-82.6112,36.18375],[-82.60914,36.18492],[-82.60881,36.18524],[-82.60708,36.18754],[-82.60665,36.18872],[-82.60489,36.19147],[-82.6041,36.19308],[-82.60366,36.19556],[-82.60445,36.19648],[-82.60517,36.19699],[-82.60682,36.19714],[-82.6079,36.19773],[-82.60832,36.19817],[-82.60905,36.19966],[-82.60895,36.2007],[-82.61075,36.20234],[-82.61278,36.20261],[-82.61301,36.20285],[-82.61504,36.2029],[-82.6162,36.20253],[-82.61876,36.20217],[-82.62037,36.20127],[-82.62063,36.20029],[-82.62056,36.19992],[-82.61916,36.19839],[-82.61806,36.19794],[-82.61768,36.19725],[-82.61758,36.19655],[-82.61771,36.19559],[-82.61807,36.1948],[-82.61853,36.19431],[-82.62069,36.19286],[-82.62108,36.19218],[-82.62134,36.19048],[-82.62113,36.18959],[-82.62123,36.18852],[-82.62234,36.18792],[-82.62361,36.18789],[-82.62514,36.18821],[-82.62785,36.18956],[-82.62857,36.19008],[-82.62925,36.19084],[-82.62957,36.1916],[-82.63026,36.19254],[-82.63267,36.19341],[-82.6344,36.19424],[-82.63721,36.19628],[-82.63846,36.19693],[-82.64022,36.19749],[-82.64053,36.19777],[-82.64224,36.19808],[-82.64407,36.19929],[-82.64627,36.2004],[-82.64707,36.20049],[-82.64914,36.19957],[-82.65082,36.19929],[-82.65581,36.20045],[-82.65765,36.20122],[-82.65936,36.20303],[-82.65939,36.20444],[-82.65993,36.20497],[-82.66,36.20556],[-82.65993,36.2098],[-82.66041,36.21069],[-82.66101,36.21112],[-82.66159,36.21118],[-82.6628,36.21099],[-82.66519,36.21032],[-82.66554,36.21011],[-82.66881,36.20932],[-82.66935,36.20935],[-82.6697,36.20917],[-82.67105,36.20925],[-82.672,36.20896],[-82.674,36.20872],[-82.6761,36.20812],[-82.67802,36.20826],[-82.67985,36.20764],[-82.68181,36.20635],[-82.68222,36.20581],[-82.68421,36.20431],[-82.68565,36.20281],[-82.68768,36.19954],[-82.68843,36.19584],[-82.68884,36.19509],[-82.68955,36.19441],[-82.69046,36.19383],[-82.69118,36.19362],[-82.69269,36.19379],[-82.69368,36.19361],[-82.69515,36.19273],[-82.69558,36.19133],[-82.69486,36.18974],[-82.69418,36.18898],[-82.69411,36.18832],[-82.6957,36.18551],[-82.69631,36.18384],[-82.69666,36.18345],[-82.69762,36.18287],[-82.69896,36.18295],[-82.7013,36.18206],[-82.70174,36.18211],[-82.70224,36.18187],[-82.70286,36.18194],[-82.70326,36.1817],[-82.70393,36.18178],[-82.70434,36.18153],[-82.70469,36.18157],[-82.7051,36.18133],[-82.70545,36.18137],[-82.70595,36.18114],[-82.70621,36.18117],[-82.7105,36.17869],[-82.71078,36.17814],[-82.71202,36.17753],[-82.71288,36.17758],[-82.71385,36.17795],[-82.71479,36.17805],[-82.71537,36.17783],[-82.71586,36.17738],[-82.71613,36.17586],[-82.7146,36.17424],[-82.71291,36.17405],[-82.71086,36.17462],[-82.70992,36.17455],[-82.70884,36.17425],[-82.70845,36.17388],[-82.70821,36.17324],[-82.70827,36.17234],[-82.70779,36.17146],[-82.70767,36.17065],[-82.70907,36.1658],[-82.70986,36.16491],[-82.71084,36.16435],[-82.71251,36.16427],[-82.7146,36.1645],[-82.7163,36.16383],[-82.71708,36.16381],[-82.71844,36.16403],[-82.71945,36.16472],[-82.72039,36.16483],[-82.7205,36.16495],[-82.72176,36.16502],[-82.72301,36.16433],[-82.72376,36.16344],[-82.72397,36.16224],[-82.72387,36.16204],[-82.72336,36.16159],[-82.72182,36.16081],[-82.72086,36.16012],[-82.72044,36.15939],[-82.71813,36.15707],[-82.71797,36.1567],[-82.71807,36.15616],[-82.71846,36.15549],[-82.7196,36.15468],[-82.72021,36.15456],[-82.72113,36.15474],[-82.72209,36.15521],[-82.72345,36.15623],[-82.72385,36.15627],[-82.724,36.15643],[-82.72524,36.15657],[-82.72687,36.15636],[-82.72935,36.15487],[-82.72972,36.15249],[-82.73038,36.15163],[-82.73228,36.15061],[-82.73339,36.15045],[-82.73575,36.14913],[-82.73752,36.14835],[-82.73856,36.14814],[-82.73891,36.14793],[-82.74043,36.14806],[-82.74078,36.14785],[-82.7415,36.14789],[-82.74265,36.14755],[-82.74416,36.14769],[-82.74552,36.14824],[-82.74627,36.14933],[-82.74757,36.14944],[-82.74836,36.14934],[-82.74896,36.14902],[-82.7494,36.14907],[-82.75075,36.14843],[-82.75132,36.14543],[-82.75111,36.14508],[-82.75102,36.14431],[-82.75115,36.14231],[-82.75018,36.14112],[-82.74981,36.14107],[-82.74873,36.13976],[-82.74912,36.13782],[-82.74978,36.13717],[-82.75,36.13611],[-82.75071,36.13501],[-82.75103,36.13371],[-82.75126,36.13345],[-82.75272,36.13264],[-82.75312,36.13268],[-82.75352,36.13244],[-82.75392,36.13248],[-82.75437,36.13224],[-82.75526,36.13234],[-82.75578,36.13219],[-82.75849,36.13249],[-82.76028,36.13287],[-82.76059,36.13319],[-82.7613,36.13327],[-82.76161,36.13359],[-82.76201,36.13364],[-82.76227,36.13392],[-82.76347,36.13409],[-82.76438,36.13379],[-82.76493,36.13245],[-82.76534,36.13195],[-82.76574,36.13092],[-82.76645,36.12788],[-82.76591,36.12579],[-82.76676,36.12434],[-82.76701,36.12368],[-82.76709,36.12271],[-82.76687,36.1219],[-82.76635,36.12097],[-82.76566,36.12025],[-82.76466,36.11873],[-82.76453,36.11821],[-82.76465,36.11775],[-82.76522,36.11738],[-82.76659,36.11703],[-82.76761,36.11718],[-82.76818,36.11753],[-82.76944,36.11912],[-82.76992,36.12152],[-82.77059,36.12235],[-82.77229,36.12376],[-82.77327,36.12438],[-82.7742,36.12452],[-82.77501,36.12428],[-82.77616,36.12365],[-82.77789,36.12204],[-82.77812,36.12153],[-82.7786,36.12137],[-82.77988,36.11974],[-82.78142,36.11717],[-82.78327,36.11644],[-82.78546,36.11661],[-82.78685,36.11615],[-82.78703,36.11592],[-82.78744,36.11384],[-82.78792,36.11267],[-82.7876,36.11187],[-82.78679,36.11106],[-82.7865,36.11042],[-82.78657,36.10999],[-82.78697,36.10957],[-82.78752,36.10923],[-82.78937,36.10875],[-82.79133,36.10868],[-82.79518,36.10893],[-82.79777,36.10864],[-82.79907,36.10821],[-82.80038,36.10742],[-82.80151,36.10643],[-82.80309,36.10437],[-82.80483,36.10142],[-82.80502,36.10007],[-82.80422,36.09793],[-82.80436,36.0974],[-82.80487,36.09678],[-82.80528,36.09653],[-82.80689,36.09613],[-82.80866,36.09611],[-82.81649,36.09713],[-82.81782,36.09703],[-82.81867,36.09658],[-82.81945,36.09548],[-82.82151,36.09329],[-82.8215,36.09311],[-82.82251,36.09196],[-82.8227,36.09086],[-82.82198,36.0901],[-82.82157,36.08904],[-82.82163,36.08796],[-82.822,36.08711],[-82.82244,36.08669],[-82.82298,36.08642],[-82.82387,36.08627],[-82.82646,36.08619],[-82.8277,36.08637],[-82.82869,36.08666],[-82.83056,36.08788],[-82.83309,36.08917],[-82.83349,36.08921],[-82.83377,36.08942],[-82.835,36.08942],[-82.83664,36.08855],[-82.83771,36.08737],[-82.83809,36.08673],[-82.8384,36.085],[-82.83782,36.08439],[-82.8354,36.08452],[-82.83374,36.08419],[-82.83279,36.0834],[-82.83277,36.083],[-82.83295,36.08277],[-82.83371,36.08244],[-82.83707,36.08272],[-82.83877,36.08262],[-82.83948,36.08241],[-82.84383,36.0803],[-82.8471,36.07843],[-82.84829,36.07834],[-82.84962,36.07849],[-82.85049,36.07898],[-82.85163,36.07997],[-82.85203,36.08002],[-82.85255,36.08037],[-82.85291,36.08041],[-82.85322,36.08073],[-82.85529,36.08154],[-82.85588,36.08207],[-82.85659,36.08215],[-82.85793,36.08118],[-82.85935,36.07928],[-82.86049,36.07119],[-82.86075,36.07103],[-82.86083,36.07057],[-82.86124,36.07001],[-82.86155,36.06853],[-82.86207,36.06811],[-82.86237,36.06743],[-82.86317,36.06651],[-82.86423,36.06583],[-82.86486,36.06561],[-82.86771,36.0651],[-82.87058,36.06549],[-82.87127,36.06571],[-82.87254,36.06643],[-82.87334,36.06652],[-82.87408,36.0662],[-82.87432,36.06587],[-82.87472,36.06382],[-82.87511,36.0636],[-82.87519,36.06318],[-82.8765,36.06239],[-82.88054,36.06284],[-82.88163,36.06335],[-82.88238,36.06394],[-82.88376,36.06535],[-82.88468,36.06557],[-82.88575,36.0654],[-82.88672,36.06449],[-82.88908,36.06288],[-82.88978,36.06123],[-82.88991,36.06045],[-82.88977,36.05971],[-82.88798,36.05753],[-82.88802,36.05678],[-82.88819,36.05658],[-82.88916,36.05596],[-82.89137,36.05545],[-82.89424,36.05562],[-82.89514,36.05587],[-82.89536,36.05577],[-82.8961,36.05583],[-82.89661,36.05549],[-82.89721,36.05206],[-82.8982,36.05105],[-82.89886,36.05062],[-82.90077,36.05083],[-82.902,36.05158],[-82.90437,36.05408],[-82.90432,36.05436],[-82.90496,36.05537],[-82.90715,36.05759],[-82.90795,36.05894],[-82.90784,36.05936],[-82.90848,36.06005],[-82.90872,36.06054],[-82.90854,36.06182],[-82.90869,36.06261],[-82.90815,36.0638],[-82.90867,36.06443],[-82.90905,36.06458],[-82.90975,36.06527],[-82.91034,36.06653],[-82.91052,36.06759],[-82.91008,36.06964],[-82.90869,36.0706],[-82.90693,36.0708],[-82.90587,36.07043],[-82.90534,36.07009],[-82.90382,36.0697],[-82.90259,36.07113],[-82.9029,36.07108],[-82.90336,36.07156],[-82.9047,36.07402],[-82.9057,36.07449],[-82.90715,36.07447],[-82.90793,36.07416],[-82.90919,36.07423],[-82.91067,36.07403],[-82.91187,36.07362],[-82.91213,36.07343],[-82.91223,36.07287],[-82.91209,36.07184],[-82.91232,36.07079],[-82.91254,36.07056],[-82.91315,36.07019],[-82.91497,36.0696],[-82.9166,36.0696],[-82.91865,36.07001],[-82.91991,36.07091],[-82.92137,36.0712],[-82.92337,36.07257],[-82.92451,36.07393],[-82.92723,36.07506],[-82.92838,36.07598],[-82.92897,36.07626],[-82.93079,36.07538],[-82.93247,36.07431],[-82.93438,36.07272],[-82.93553,36.07104],[-82.93694,36.06997],[-82.93874,36.07002],[-82.93986,36.06979],[-82.94106,36.06916],[-82.94168,36.06923],[-82.94234,36.06909],[-82.94544,36.06737],[-82.94683,36.06716],[-82.94941,36.06745],[-82.95073,36.06792],[-82.95178,36.06865],[-82.95303,36.07005],[-82.95373,36.07045],[-82.9543,36.07055],[-82.95622,36.07043],[-82.95711,36.06974],[-82.95732,36.06875],[-82.95803,36.06833],[-82.96121,36.06824],[-82.96263,36.0684],[-82.9659,36.06991],[-82.96643,36.07026],[-82.96847,36.07229],[-82.9705,36.07312],[-82.97193,36.07429],[-82.97264,36.07437],[-82.97299,36.07419],[-82.97423,36.07407],[-82.97478,36.07377],[-82.97586,36.07303],[-82.97694,36.07199],[-82.97742,36.06945],[-82.97684,36.06863],[-82.97608,36.06808],[-82.9754,36.06728],[-82.97514,36.0662],[-82.97514,36.06592],[-82.97559,36.06542],[-82.97578,36.06433],[-82.97639,36.06393],[-82.98003,36.06303],[-82.9814,36.06322],[-82.98261,36.06378],[-82.9844,36.06574],[-82.98535,36.06809],[-82.98513,36.06936],[-82.98414,36.07091],[-82.98277,36.07256],[-82.98239,36.07342],[-82.98211,36.07508],[-82.98136,36.07572],[-82.98119,36.07671],[-82.9815,36.07704],[-82.98209,36.07988],[-82.98248,36.0805],[-82.98207,36.08287],[-82.98163,36.08383],[-82.98138,36.08503],[-82.9798,36.08712],[-82.97983,36.08796],[-82.98015,36.08821],[-82.98116,36.08814],[-82.9835,36.08714],[-82.9845,36.08638],[-82.9853,36.08513],[-82.98645,36.084],[-82.98749,36.08242],[-82.98884,36.08192],[-82.98975,36.08187],[-82.99374,36.08238],[-82.99608,36.08322],[-82.9997,36.08664],[-83.00238,36.08708],[-83.00361,36.08779],[-83.00418,36.08792],[-83.00511,36.08853],[-83.00597,36.08881],[-83.00666,36.08928],[-83.00767,36.08946],[-83.00842,36.09008],[-83.00858,36.09046],[-83.00889,36.09021],[-83.00967,36.09044],[-83.01254,36.09204],[-83.0133,36.09363],[-83.01517,36.09421],[-83.01584,36.09429],[-83.01603,36.09449],[-83.0169,36.09469],[-83.01748,36.09501],[-83.02214,36.09552],[-83.02297,36.09543],[-83.02369,36.09518],[-83.02506,36.09436],[-83.02617,36.09315],[-83.028,36.09172],[-83.02808,36.09152],[-83.02908,36.09098],[-83.0302,36.09077],[-83.0315,36.0911],[-83.03441,36.0926],[-83.03468,36.0926],[-83.03491,36.09284],[-83.03587,36.09305],[-83.03612,36.0929],[-83.03643,36.09297],[-83.03822,36.09414],[-83.03991,36.09559],[-83.04084,36.09572],[-83.04255,36.09569],[-83.04464,36.09412],[-83.04622,36.09206],[-83.04688,36.09163],[-83.04774,36.09165],[-83.04835,36.09179],[-83.04897,36.09214],[-83.04973,36.09295],[-83.05031,36.09409],[-83.05011,36.09551],[-83.0503,36.09625],[-83.05259,36.09899],[-83.05466,36.09958],[-83.05733,36.10142],[-83.05799,36.10149],[-83.0583,36.10181],[-83.05883,36.10187],[-83.05927,36.10221],[-83.06073,36.10266],[-83.06093,36.10286],[-83.06213,36.10295],[-83.06304,36.10291],[-83.0642,36.10249],[-83.06546,36.10173],[-83.0666,36.10038],[-83.06706,36.09931],[-83.06745,36.09701],[-83.06738,36.09375],[-83.06756,36.09323],[-83.068,36.09274],[-83.06909,36.09221],[-83.07014,36.09218],[-83.07218,36.09266],[-83.07299,36.09321],[-83.07468,36.09524],[-83.07467,36.09556],[-83.07497,36.09592],[-83.07493,36.09616],[-83.07523,36.09652],[-83.07519,36.09677],[-83.07548,36.09713],[-83.07544,36.09737],[-83.07574,36.09773],[-83.07596,36.09855],[-83.07685,36.09973],[-83.08084,36.104],[-83.08113,36.10401],[-83.0821,36.1047],[-83.08246,36.10474],[-83.08277,36.10506],[-83.08312,36.1051],[-83.08343,36.10542],[-83.08401,36.10545],[-83.0848,36.10614],[-83.08515,36.10618],[-83.08542,36.10646],[-83.08581,36.10654],[-83.08736,36.10758],[-83.08776,36.10762],[-83.08838,36.10823],[-83.08934,36.10866],[-83.09174,36.11025],[-83.09406,36.11148],[-83.09442,36.11152],[-83.09486,36.11185],[-83.09544,36.11192],[-83.09672,36.11263],[-83.09735,36.11317],[-83.09793,36.11399],[-83.09789,36.11691],[-83.09837,36.11779],[-83.09832,36.11804],[-83.09863,36.11839],[-83.09858,36.11864],[-83.09977,36.11989],[-83.10013,36.11993],[-83.10043,36.12025],[-83.10083,36.12029],[-83.10127,36.12066],[-83.10263,36.12092],[-83.10376,36.12036],[-83.10399,36.12038],[-83.10725,36.1185],[-83.10811,36.11773],[-83.10957,36.11605],[-83.11019,36.11507],[-83.11071,36.11365],[-83.11221,36.11176],[-83.11319,36.11129],[-83.1135,36.11132],[-83.11386,36.11111],[-83.11462,36.11115],[-83.11497,36.11094],[-83.11592,36.11097],[-83.11796,36.11145],[-83.11849,36.11183],[-83.11842,36.11247],[-83.11792,36.11303],[-83.11775,36.11402],[-83.1184,36.11632],[-83.11804,36.11841],[-83.1173,36.11927],[-83.11647,36.1199],[-83.11616,36.12037],[-83.11602,36.12122],[-83.11677,36.12213],[-83.11802,36.12274],[-83.11851,36.12279],[-83.1187,36.12299],[-83.11986,36.12312],[-83.12064,36.12306],[-83.12216,36.12264],[-83.12438,36.1226],[-83.12463,36.12244],[-83.12579,36.12241],[-83.12991,36.12294],[-83.13152,36.12358],[-83.13217,36.12401],[-83.1329,36.12477],[-83.13373,36.12605],[-83.13465,36.12702],[-83.13596,36.1281],[-83.13847,36.12902],[-83.13966,36.12922],[-83.14095,36.13037],[-83.1413,36.13123],[-83.14119,36.13429],[-83.1418,36.13551],[-83.14306,36.13687],[-83.14599,36.13956],[-83.15108,36.14343],[-83.15229,36.14457],[-83.15535,36.14653],[-83.15961,36.14836],[-83.16142,36.14891],[-83.16214,36.14946],[-83.16592,36.15037],[-83.16675,36.15079],[-83.16815,36.15188],[-83.17168,36.15586],[-83.17245,36.15696],[-83.17263,36.15748],[-83.17264,36.15899],[-83.17238,36.15976],[-83.1714,36.16124],[-83.17039,36.16372],[-83.16982,36.16467],[-83.16851,36.16626],[-83.16801,36.16783],[-83.16796,36.16919],[-83.16813,36.17033],[-83.16807,36.17065],[-83.16787,36.17077],[-83.16811,36.17098],[-83.1683,36.17172],[-83.16872,36.17219],[-83.16884,36.17304],[-83.16872,36.17378],[-83.16769,36.17583],[-83.1659,36.1778],[-83.16557,36.17841],[-83.16536,36.1794],[-83.16552,36.18007],[-83.16676,36.18128],[-83.16823,36.1822],[-83.16942,36.1824],[-83.17012,36.18226],[-83.17082,36.1819],[-83.17275,36.18067],[-83.17608,36.17973],[-83.17889,36.17841],[-83.18165,36.17763],[-83.18431,36.17716],[-83.18562,36.17665],[-83.18638,36.17619],[-83.18721,36.17531],[-83.18801,36.17352],[-83.18795,36.17175],[-83.18764,36.17114],[-83.18711,36.17054],[-83.18579,36.16982],[-83.18477,36.16863],[-83.18404,36.16758],[-83.18291,36.16519],[-83.18235,36.1634],[-83.18233,36.16271],[-83.18151,36.16064],[-83.18112,36.1584],[-83.17905,36.15331],[-83.17873,36.15089],[-83.17901,36.14822],[-83.17835,36.14491],[-83.17773,36.14322],[-83.17779,36.14106],[-83.17706,36.13867],[-83.17629,36.13708],[-83.1751,36.13291],[-83.17496,36.13106],[-83.17514,36.12791],[-83.1759,36.12665],[-83.17681,36.12607],[-83.17831,36.12551],[-83.18013,36.1252],[-83.18221,36.12517],[-83.1831,36.12502],[-83.18443,36.1252],[-83.18571,36.12566],[-83.18939,36.12739],[-83.19203,36.12815],[-83.1933,36.12836],[-83.19557,36.12914],[-83.19744,36.13039],[-83.20169,36.13492],[-83.20212,36.13558],[-83.20342,36.13673],[-83.20474,36.13748],[-83.20573,36.13856],[-83.20769,36.14119],[-83.2086,36.14193],[-83.21039,36.14393],[-83.21133,36.14529],[-83.21296,36.14691],[-83.2142,36.14759],[-83.21478,36.14819],[-83.21485,36.14859],[-83.21527,36.14903],[-83.21765,36.15073],[-83.2191,36.15128],[-83.22056,36.15144],[-83.22174,36.15121],[-83.2229,36.15076],[-83.22477,36.14959],[-83.22542,36.14872],[-83.2257,36.14655],[-83.22551,36.14473],[-83.2248,36.14332],[-83.22452,36.14228],[-83.22397,36.14128],[-83.22312,36.13907],[-83.22049,36.13536],[-83.22004,36.1343],[-83.2198,36.13302],[-83.22007,36.13066],[-83.21986,36.1292],[-83.22031,36.12712],[-83.22107,36.12609],[-83.22139,36.12529],[-83.22331,36.12301],[-83.22507,36.12198],[-83.22627,36.12185],[-83.22861,36.12221],[-83.22985,36.12264],[-83.23256,36.12322],[-83.23481,36.12404],[-83.23615,36.12494],[-83.2368,36.12511],[-83.23768,36.12579],[-83.23946,36.12652],[-83.24193,36.12683],[-83.24341,36.12644],[-83.24508,36.12543],[-83.24633,36.12422],[-83.24655,36.12288],[-83.24616,36.12064],[-83.24549,36.11927],[-83.24444,36.11797],[-83.2443,36.11745],[-83.24339,36.11645],[-83.24149,36.11347],[-83.24111,36.11162],[-83.24069,36.1106],[-83.24023,36.10816],[-83.2391,36.10536],[-83.23806,36.10409],[-83.2377,36.10276],[-83.23751,36.10256],[-83.23735,36.10189],[-83.23773,36.10043],[-83.23746,36.09933],[-83.2377,36.09908],[-83.2371,36.09788],[-83.2366,36.09622],[-83.23431,36.09378],[-83.23214,36.093],[-83.22862,36.0924],[-83.22719,36.09152],[-83.22661,36.08977],[-83.22611,36.08641],[-83.22642,36.08299],[-83.22871,36.08232],[-83.23066,36.08121],[-83.23225,36.07968],[-83.23309,36.07829]]]}}
