{"type":"Feature","properties":{"id":"little-buffalo-river","name":"Little Buffalo River","waterbodyType":"creek","throughLakeIds":[],"allowOpenEnds":false,"source":"nhd-hu8-06040004","approximate":false,"labelAnchor":[-87.50934,35.37608],"bounds":[-87.54759,35.29815,-87.47026,35.45194],"crs":"EPSG:4326","coordinateOrder":"longitude,latitude","partCount":1,"vertexCount":251,"lengthKm":28.89,"sourceIds":["128956326","128956464","128956532","128956562","128956651","128956723","128956756","128956777","128956912","128956962","128956996","128957018","128957071","128957087","128957102","128957107","128957143","128957170","128957294","128956273","128956177","128956074","128956053","128956042","128956009","128955949","128955713","128955557","128955522","128955507","128955489","128955459","128955429","128955331","128955275","128955227","128955139","128955137","128954970","128954779","128954841","128954866","128954869"],"sourceRetrieved":"2026-09-11","geometrySource":"nhd","hu8":"06040004","simplification":{"toleranceM":10,"verticesBefore":1054,"verticesAfter":251,"budgetBytes":81920},"trace":{"anchor":{"lat":35.3761,"lon":-87.5093,"snapDistM":4.6},"up":{"spec":"headwater","reason":"headwater","terminus":[-87.474078,35.298154],"distKmFromAnchor":12.33},"down":{"spec":"confluence:Buffalo River","reason":"confluence","terminus":[-87.5476486,35.4519818],"enteredNames":["Buffalo River"],"distKmFromAnchor":16.72},"vaaUsed":false,"toleranceM":12}},"geometry":{"type":"MultiLineString","coordinates":[[[-87.47408,35.29815],[-87.47395,35.29878],[-87.4734,35.29969],[-87.47362,35.30033],[-87.47348,35.30228],[-87.47386,35.30325],[-87.47391,35.30444],[-87.47421,35.30467],[-87.47383,35.30651],[-87.47342,35.30772],[-87.47297,35.30792],[-87.47218,35.30859],[-87.47155,35.30949],[-87.47098,35.31143],[-87.47026,35.31193],[-87.4706,35.31241],[-87.47075,35.313],[-87.4716,35.31378],[-87.47179,35.31551],[-87.47348,35.31701],[-87.47388,35.3177],[-87.47499,35.31787],[-87.4757,35.31783],[-87.47588,35.3175],[-87.47666,35.31762],[-87.47696,35.31797],[-87.47711,35.31926],[-87.47836,35.32011],[-87.47882,35.32061],[-87.47872,35.3216],[-87.47901,35.32178],[-87.47974,35.3216],[-87.48041,35.32171],[-87.48019,35.32286],[-87.48098,35.32351],[-87.48186,35.32353],[-87.48271,35.32307],[-87.48318,35.32322],[-87.48395,35.32307],[-87.4853,35.32343],[-87.48591,35.32383],[-87.48669,35.32639],[-87.48704,35.32681],[-87.48705,35.32731],[-87.48681,35.32782],[-87.4872,35.32824],[-87.48717,35.32851],[-87.48802,35.32958],[-87.48864,35.32991],[-87.48935,35.33004],[-87.48961,35.33031],[-87.48975,35.3312],[-87.48947,35.33357],[-87.48994,35.33481],[-87.49092,35.33563],[-87.49263,35.33612],[-87.49395,35.33516],[-87.49428,35.33512],[-87.49445,35.33525],[-87.4948,35.33629],[-87.49612,35.33778],[-87.49685,35.33907],[-87.49621,35.34105],[-87.49632,35.34179],[-87.49662,35.34235],[-87.49713,35.34285],[-87.49778,35.34317],[-87.49832,35.34322],[-87.49889,35.343],[-87.49937,35.34301],[-87.49966,35.34385],[-87.49956,35.34557],[-87.49971,35.34665],[-87.50067,35.34725],[-87.50254,35.34783],[-87.50299,35.34829],[-87.50328,35.34895],[-87.50369,35.3518],[-87.50377,35.35437],[-87.50517,35.3576],[-87.50578,35.35806],[-87.50674,35.35793],[-87.50708,35.35748],[-87.50673,35.35624],[-87.50678,35.35563],[-87.5071,35.35543],[-87.50785,35.35535],[-87.50864,35.35548],[-87.50917,35.35623],[-87.50921,35.35696],[-87.50816,35.3591],[-87.50806,35.36031],[-87.50847,35.36087],[-87.50907,35.36124],[-87.5102,35.36154],[-87.51106,35.3614],[-87.5115,35.36178],[-87.5113,35.36305],[-87.51103,35.36359],[-87.51023,35.36433],[-87.50911,35.36617],[-87.50934,35.36665],[-87.5103,35.36686],[-87.51082,35.36714],[-87.51121,35.3678],[-87.5113,35.3685],[-87.51106,35.36951],[-87.51024,35.37081],[-87.50967,35.37365],[-87.50922,35.3745],[-87.50934,35.37608],[-87.50919,35.37565],[-87.5092,35.3758],[-87.50976,35.37651],[-87.51048,35.37705],[-87.51278,35.37812],[-87.51335,35.37906],[-87.51305,35.38054],[-87.51185,35.38236],[-87.51152,35.3839],[-87.51174,35.38437],[-87.51272,35.38498],[-87.51358,35.38513],[-87.51542,35.38465],[-87.5157,35.3841],[-87.51571,35.38314],[-87.51587,35.38305],[-87.51643,35.38304],[-87.51699,35.38341],[-87.51708,35.38368],[-87.51674,35.38481],[-87.51599,35.38543],[-87.51358,35.38907],[-87.51191,35.38952],[-87.51046,35.39018],[-87.50906,35.39056],[-87.50761,35.39027],[-87.5062,35.39059],[-87.50572,35.3911],[-87.50561,35.39224],[-87.50587,35.39292],[-87.50625,35.39325],[-87.50697,35.39337],[-87.5076,35.39329],[-87.51024,35.39421],[-87.51133,35.39495],[-87.51212,35.39593],[-87.51209,35.39646],[-87.51052,35.39753],[-87.50944,35.39797],[-87.50778,35.3981],[-87.50698,35.3987],[-87.50693,35.39919],[-87.50726,35.39987],[-87.50765,35.40031],[-87.50822,35.40055],[-87.5086,35.40092],[-87.50876,35.40129],[-87.50872,35.40193],[-87.50911,35.4025],[-87.50964,35.40284],[-87.51032,35.40285],[-87.51057,35.40239],[-87.51174,35.40193],[-87.51265,35.40177],[-87.51296,35.40092],[-87.51254,35.40003],[-87.51269,35.39935],[-87.5129,35.39914],[-87.51321,35.39912],[-87.51395,35.39941],[-87.51429,35.39981],[-87.51455,35.40129],[-87.51473,35.40152],[-87.51527,35.40168],[-87.51538,35.40251],[-87.5151,35.40343],[-87.51459,35.40427],[-87.51395,35.40505],[-87.51307,35.40561],[-87.51164,35.40598],[-87.51123,35.40588],[-87.5106,35.40518],[-87.5102,35.40501],[-87.5093,35.40508],[-87.50858,35.40548],[-87.50705,35.40541],[-87.50591,35.40504],[-87.50497,35.40556],[-87.50437,35.40648],[-87.50452,35.40695],[-87.50555,35.40835],[-87.50648,35.40901],[-87.51013,35.41395],[-87.51007,35.41487],[-87.511,35.41535],[-87.51127,35.41576],[-87.51165,35.41748],[-87.51175,35.41926],[-87.51165,35.41961],[-87.51114,35.42004],[-87.51102,35.42055],[-87.51115,35.42351],[-87.51235,35.42458],[-87.51324,35.42642],[-87.51395,35.42708],[-87.51397,35.42776],[-87.51563,35.42796],[-87.51739,35.42873],[-87.51825,35.42933],[-87.51862,35.43017],[-87.52018,35.43093],[-87.52055,35.43223],[-87.52056,35.43305],[-87.51945,35.435],[-87.51945,35.43548],[-87.51963,35.43576],[-87.52183,35.43633],[-87.52271,35.43616],[-87.52408,35.43617],[-87.52586,35.43578],[-87.52659,35.43616],[-87.52761,35.43701],[-87.52786,35.43764],[-87.52789,35.43838],[-87.52742,35.4393],[-87.52722,35.44108],[-87.5273,35.44271],[-87.52781,35.44447],[-87.52793,35.44649],[-87.5278,35.44689],[-87.52709,35.4476],[-87.52674,35.44859],[-87.52758,35.44933],[-87.52945,35.45035],[-87.53111,35.45032],[-87.53157,35.45021],[-87.53433,35.44797],[-87.53472,35.44728],[-87.53682,35.44725],[-87.5371,35.44709],[-87.53746,35.44648],[-87.53998,35.44652],[-87.54074,35.4468],[-87.54234,35.44849],[-87.54282,35.44935],[-87.5432,35.4509],[-87.54368,35.45166],[-87.54454,35.45194],[-87.54554,35.45152],[-87.54759,35.45194]]]}}
