{"type":"Feature","properties":{"id":"hiwassee-river","name":"Hiwassee River (Appalachia tailwater / Reliance)","waterbodyType":"tailrace","throughLakeIds":[],"allowOpenEnds":false,"source":"nhd-hu8-06020002","approximate":false,"labelAnchor":[-84.50123,35.18888],"bounds":[-84.82673,35.16699,-84.29391,35.32872],"crs":"EPSG:4326","coordinateOrder":"longitude,latitude","partCount":1,"vertexCount":447,"lengthKm":87.33,"sourceIds":["133007304","133007305","133007307","133007306","133007310","133007313","133007308","133007309","133007311","133007312","133007631","133007630","133007629","133007628","133007627","133007624","133007625","133007626","133007553","133007554","133007314","133007558","133007559","133007560","133007561","133007552","133007315","133007316","133007317","133007318","133007319","133007320","133007637","133007638","133007639","133007632","133007633","133007634","133007635","133007636","133007555","133007556","133007321","133007322","133007303","133007302","133007301","133007300","133007623","133007622","133007621","133007620","133007619","133007618","133007617","133007616","133007615","133007614","133007834","133007833","133007832","133007830","133007829","133007827","133007824","133007822","133007613","133007821","133007612","133007611","133007610","133007609","133007608","133007607","133007606","133007819","133007557","133007605","133007604","133007603","133007602","133007601","133007598","133007599","133007600","133007597","133007596","133007595","133007594","133007593","133007592","133007591","133007590","133007589","133007588","133007587","133007586","133007585","133007584","133007583","133007582","133007581","133007580","133007578","133007577","133007579","133007576","133007575","133007573","133007572","133007571","133007574","133007570","133007569","133007568","133007567","133007566","133007564","133007563","133007565","133007562","133007720","133007718","133007278","133007277","133007276","133007275","133007550","133007705","133007693","133007688","133007683","133007679","133007677","133007674","133007670","133007661","133007658","133007652","133007651","133007654","133007649","133007643"],"sourceRetrieved":"2026-09-11","geometrySource":"nhd","hu8":"06020002","simplification":{"toleranceM":10,"verticesBefore":3587,"verticesAfter":447,"budgetBytes":81920},"trace":{"anchor":{"lat":35.1883,"lon":-84.5025,"snapDistM":132.4},"up":{"spec":"dam:Apalachia Lake","reason":"dam","terminus":[-84.295349,35.167799],"distKmFromAnchor":29.79},"down":{"spec":"point:35.32775,-84.82673","reason":"point","terminus":[-84.826733,35.327748],"enteredNames":null,"distKmFromAnchor":57.59},"vaaUsed":false,"toleranceM":12}},"geometry":{"type":"MultiLineString","coordinates":[[[-84.29535,35.1678],[-84.29777,35.16816],[-84.29864,35.16851],[-84.29925,35.16902],[-84.29961,35.16978],[-84.29962,35.17053],[-84.29884,35.17234],[-84.29779,35.17292],[-84.29521,35.17341],[-84.29466,35.17364],[-84.29418,35.1741],[-84.29391,35.17504],[-84.29431,35.17697],[-84.29583,35.17951],[-84.29607,35.18023],[-84.29615,35.18105],[-84.29586,35.18318],[-84.2959,35.18414],[-84.29653,35.1849],[-84.29721,35.18515],[-84.29973,35.18547],[-84.30302,35.18466],[-84.30393,35.18389],[-84.30587,35.18176],[-84.30725,35.18065],[-84.31087,35.17887],[-84.31341,35.1772],[-84.31392,35.17662],[-84.31573,35.17325],[-84.31581,35.17243],[-84.31548,35.17063],[-84.31584,35.16934],[-84.317,35.16801],[-84.31852,35.16723],[-84.32002,35.16727],[-84.32115,35.168],[-84.32215,35.16908],[-84.32239,35.1702],[-84.32401,35.17266],[-84.32509,35.17373],[-84.32594,35.17425],[-84.32724,35.1748],[-84.32875,35.1752],[-84.33156,35.17662],[-84.33388,35.17742],[-84.33527,35.17777],[-84.339,35.17815],[-84.3404,35.17781],[-84.34167,35.17716],[-84.34376,35.17483],[-84.34494,35.17387],[-84.34655,35.17287],[-84.34857,35.17044],[-84.35067,35.16871],[-84.35326,35.16729],[-84.35427,35.16702],[-84.35535,35.16699],[-84.35606,35.16726],[-84.35688,35.16781],[-84.35904,35.16969],[-84.36106,35.17058],[-84.36218,35.17086],[-84.36589,35.17022],[-84.3669,35.17027],[-84.3684,35.1706],[-84.36912,35.17117],[-84.37069,35.17353],[-84.37159,35.17449],[-84.37233,35.17488],[-84.37433,35.17551],[-84.37616,35.17577],[-84.37845,35.17703],[-84.3801,35.17762],[-84.38092,35.17753],[-84.3818,35.17712],[-84.38282,35.17547],[-84.3844,35.17439],[-84.38825,35.17343],[-84.39069,35.17156],[-84.39235,35.17163],[-84.3937,35.17216],[-84.3948,35.17281],[-84.3967,35.17466],[-84.39697,35.17566],[-84.3957,35.1793],[-84.3965,35.18039],[-84.39735,35.18067],[-84.3982,35.18128],[-84.3986,35.18146],[-84.40439,35.18201],[-84.40827,35.18127],[-84.4103,35.18144],[-84.41292,35.18072],[-84.41407,35.18074],[-84.41497,35.1812],[-84.41587,35.18194],[-84.41814,35.1844],[-84.41885,35.18498],[-84.4198,35.1855],[-84.42269,35.18612],[-84.42371,35.18728],[-84.42439,35.18759],[-84.42519,35.18744],[-84.4261,35.18683],[-84.42782,35.18712],[-84.43137,35.189],[-84.43251,35.18944],[-84.4347,35.18928],[-84.4356,35.18898],[-84.43617,35.18853],[-84.43708,35.18748],[-84.43751,35.18673],[-84.43784,35.18486],[-84.43977,35.18177],[-84.44073,35.18127],[-84.44242,35.18075],[-84.44378,35.18058],[-84.44535,35.18074],[-84.44635,35.18115],[-84.4471,35.18166],[-84.44739,35.18244],[-84.44826,35.18366],[-84.44901,35.18732],[-84.44887,35.18795],[-84.44785,35.18968],[-84.44818,35.19105],[-84.44882,35.19193],[-84.4489,35.19273],[-84.45031,35.19328],[-84.45111,35.19382],[-84.45196,35.19387],[-84.45551,35.19476],[-84.4567,35.19535],[-84.45763,35.19646],[-84.45852,35.19691],[-84.45903,35.19704],[-84.45942,35.19696],[-84.4598,35.1972],[-84.46045,35.19731],[-84.46222,35.1968],[-84.46389,35.19725],[-84.46472,35.1973],[-84.46645,35.19861],[-84.46788,35.19886],[-84.46899,35.19936],[-84.47028,35.19875],[-84.47186,35.19731],[-84.47262,35.1959],[-84.47274,35.19466],[-84.47199,35.18935],[-84.47237,35.18843],[-84.47239,35.18779],[-84.47077,35.18603],[-84.46937,35.18528],[-84.46874,35.18467],[-84.46858,35.1838],[-84.46906,35.18285],[-84.46957,35.18245],[-84.47106,35.18182],[-84.47684,35.18205],[-84.47804,35.18138],[-84.47885,35.18122],[-84.47949,35.18146],[-84.48073,35.18148],[-84.48469,35.18248],[-84.4873,35.18353],[-84.48824,35.1837],[-84.49033,35.18609],[-84.49514,35.18808],[-84.49676,35.18839],[-84.49828,35.18801],[-84.49903,35.18798],[-84.49953,35.18806],[-84.50123,35.18888],[-84.49987,35.18823],[-84.50045,35.18849],[-84.50123,35.18888],[-84.50159,35.18927],[-84.50178,35.18981],[-84.5027,35.19058],[-84.50437,35.19152],[-84.50514,35.19167],[-84.50575,35.19229],[-84.50742,35.19434],[-84.50817,35.19595],[-84.50876,35.19871],[-84.50883,35.19993],[-84.50858,35.20144],[-84.50911,35.20456],[-84.50997,35.20613],[-84.51046,35.20668],[-84.51379,35.20916],[-84.51456,35.20994],[-84.51473,35.21082],[-84.51411,35.21205],[-84.51396,35.21387],[-84.51426,35.21472],[-84.51415,35.21555],[-84.51469,35.21588],[-84.51529,35.21796],[-84.51671,35.21931],[-84.51799,35.22085],[-84.51919,35.22117],[-84.52189,35.22246],[-84.52258,35.22257],[-84.52436,35.22242],[-84.52568,35.22249],[-84.52659,35.22292],[-84.52707,35.22295],[-84.53165,35.22499],[-84.5379,35.22662],[-84.53828,35.22695],[-84.53978,35.22735],[-84.54035,35.22773],[-84.54075,35.22772],[-84.54423,35.23043],[-84.54483,35.23067],[-84.54522,35.23052],[-84.54584,35.23053],[-84.54838,35.23165],[-84.54983,35.23194],[-84.55103,35.23265],[-84.55135,35.23294],[-84.55139,35.23321],[-84.55266,35.23387],[-84.55399,35.23571],[-84.55565,35.23698],[-84.55948,35.23862],[-84.56188,35.23935],[-84.56541,35.24089],[-84.56631,35.24104],[-84.56826,35.24041],[-84.57011,35.24046],[-84.5744,35.23934],[-84.57569,35.23926],[-84.57723,35.23969],[-84.57906,35.24062],[-84.58047,35.24215],[-84.58132,35.2426],[-84.58211,35.24293],[-84.58357,35.24322],[-84.58491,35.24324],[-84.58703,35.24274],[-84.58786,35.24239],[-84.5887,35.24176],[-84.59026,35.23952],[-84.59176,35.23606],[-84.59431,35.2313],[-84.5963,35.22886],[-84.5983,35.22686],[-84.60018,35.22552],[-84.60346,35.22372],[-84.6051,35.22234],[-84.60667,35.22142],[-84.61138,35.21969],[-84.6127,35.21947],[-84.61486,35.21957],[-84.61687,35.22],[-84.61955,35.22079],[-84.62386,35.22299],[-84.62696,35.22478],[-84.62754,35.22531],[-84.63017,35.22624],[-84.63281,35.22684],[-84.63596,35.2268],[-84.63961,35.22605],[-84.64027,35.22612],[-84.64387,35.22578],[-84.64607,35.22543],[-84.6481,35.22467],[-84.64849,35.22472],[-84.64936,35.22449],[-84.65045,35.22355],[-84.65077,35.22302],[-84.65133,35.22284],[-84.65169,35.22245],[-84.65171,35.22182],[-84.65146,35.22149],[-84.65182,35.22003],[-84.65149,35.21901],[-84.65076,35.21821],[-84.64973,35.2178],[-84.64861,35.2171],[-84.64275,35.21298],[-84.64132,35.2114],[-84.64096,35.21049],[-84.64096,35.20974],[-84.64133,35.20891],[-84.64291,35.2077],[-84.64668,35.20606],[-84.64912,35.20513],[-84.65211,35.20423],[-84.65285,35.20416],[-84.65376,35.20432],[-84.65741,35.20643],[-84.65863,35.20861],[-84.66093,35.21185],[-84.66309,35.21409],[-84.66608,35.21654],[-84.66764,35.21759],[-84.67312,35.22068],[-84.67649,35.22194],[-84.68097,35.2232],[-84.68574,35.22542],[-84.68945,35.2263],[-84.69197,35.22728],[-84.69524,35.22825],[-84.69748,35.22866],[-84.70634,35.22918],[-84.70872,35.22914],[-84.71041,35.22889],[-84.71191,35.22896],[-84.71374,35.22956],[-84.71531,35.23094],[-84.71575,35.23198],[-84.71579,35.23337],[-84.71516,35.23481],[-84.7143,35.23576],[-84.71316,35.23629],[-84.70955,35.23653],[-84.70773,35.23685],[-84.70676,35.23719],[-84.70487,35.23829],[-84.70415,35.23897],[-84.7037,35.2397],[-84.70342,35.24107],[-84.70369,35.24227],[-84.70449,35.24324],[-84.70647,35.24366],[-84.70815,35.24339],[-84.70981,35.24335],[-84.71081,35.24366],[-84.71164,35.24338],[-84.71221,35.24341],[-84.71289,35.24367],[-84.7144,35.24492],[-84.71546,35.24633],[-84.71536,35.24706],[-84.71478,35.24782],[-84.71371,35.24891],[-84.71243,35.24977],[-84.71198,35.24971],[-84.71125,35.24995],[-84.70622,35.25015],[-84.7022,35.24913],[-84.70084,35.24904],[-84.69959,35.24927],[-84.69896,35.24954],[-84.69852,35.24994],[-84.69803,35.25086],[-84.69771,35.25197],[-84.69775,35.25334],[-84.69981,35.25539],[-84.70243,35.25854],[-84.70562,35.2597],[-84.70944,35.26158],[-84.71294,35.26247],[-84.71429,35.26229],[-84.71656,35.26171],[-84.7188,35.26086],[-84.72283,35.25892],[-84.72796,35.25569],[-84.73033,35.25478],[-84.73422,35.25458],[-84.73686,35.25517],[-84.73948,35.25612],[-84.74039,35.25669],[-84.74102,35.25734],[-84.74246,35.25976],[-84.74282,35.26111],[-84.74429,35.26428],[-84.7447,35.26565],[-84.74548,35.26614],[-84.74582,35.2671],[-84.74574,35.2676],[-84.74604,35.26807],[-84.74723,35.26931],[-84.75015,35.27061],[-84.75185,35.27175],[-84.75261,35.2727],[-84.7527,35.27343],[-84.75254,35.27409],[-84.75196,35.27501],[-84.7514,35.27547],[-84.75046,35.27588],[-84.7477,35.27613],[-84.74317,35.27713],[-84.7381,35.27664],[-84.73305,35.27538],[-84.73117,35.27523],[-84.72998,35.27532],[-84.72844,35.27565],[-84.72542,35.27707],[-84.72419,35.27814],[-84.72344,35.27981],[-84.72311,35.2819],[-84.72295,35.28461],[-84.7235,35.28727],[-84.72444,35.28865],[-84.72602,35.29035],[-84.72705,35.29091],[-84.72813,35.29121],[-84.73096,35.29129],[-84.73596,35.29057],[-84.74179,35.28895],[-84.74386,35.28814],[-84.74622,35.28764],[-84.74855,35.28743],[-84.7502,35.28767],[-84.7529,35.28904],[-84.75488,35.28982],[-84.75658,35.29091],[-84.75821,35.2925],[-84.76078,35.29636],[-84.76169,35.29742],[-84.76614,35.30105],[-84.76987,35.30352],[-84.77693,35.30707],[-84.77864,35.30821],[-84.78011,35.3099],[-84.78166,35.31267],[-84.78249,35.31364],[-84.78296,35.31396],[-84.78389,35.31438],[-84.78493,35.31455],[-84.78834,35.31428],[-84.79143,35.3145],[-84.79849,35.31619],[-84.80212,35.31762],[-84.80306,35.31879],[-84.80377,35.32129],[-84.8037,35.32446],[-84.804,35.32564],[-84.80394,35.32628],[-84.80558,35.32798],[-84.80676,35.32823],[-84.80759,35.32867],[-84.80891,35.32872],[-84.80984,35.32831],[-84.81292,35.32647],[-84.816,35.32507],[-84.81731,35.3247],[-84.82002,35.3245],[-84.82175,35.32453],[-84.8234,35.32494],[-84.8244,35.32558],[-84.82673,35.32775]]]}}
