{"type":"Feature","properties":{"id":"little-river","name":"Little River (Smokies / Blount County)","waterbodyType":"creek","throughLakeIds":["fort-loudoun-lake"],"allowOpenEnds":false,"source":"nhd-hu8-06010201","approximate":false,"labelAnchor":[-83.71124,35.66457],"bounds":[-83.98681,35.57875,-83.48141,35.87937],"crs":"EPSG:4326","coordinateOrder":"longitude,latitude","partCount":1,"vertexCount":762,"lengthKm":96.5,"sourceIds":["132364559","{3040DFE3-ACE1-407D-B13C-0E2D1C1D43C3}","132364561","132364562","{4811B97E-BD6F-4FBA-AFAF-AD95CB913298}","{3DAAF678-EF3A-4031-8B14-5002448DD0D0}","132364563","132364564","{23123381-DC50-467F-9663-BB7B1386B927}","132364565","{51A6DC37-1648-4B87-B067-1212F0C0BAD9}","132364566","{9E83B226-A61E-4895-99F9-B49E46B2437A}","{6C507E48-22F6-4C68-B6BF-8BB2D7561A9D}","132364567","132364568","132364569","132364570","132364571","132364572","132364576","132364575","132364573","132364574","132364855","132364854","132364578","132364579","{0E4FC49C-A83F-4424-AA81-896ABCB607AB}","{B5779C5A-94DE-4FBA-AD2A-4EEFCD4041F0}","{28AFEF47-B066-447B-9D98-475FB5EF5803}","{E5AEE6F6-6AF8-405C-8D96-D27A0B7C6DEF}","132364581","132364582","{D78137FC-21B4-420A-98F4-53A8057F2AC0}","132364583","{7399D7A0-C91D-4F20-9BB5-0BEC05AC2405}","{6A5ED2C8-9CBC-4B1B-A7FB-ABB2F121AB3A}","132364584","{47A89705-5AFC-47E9-8652-787DC58EF024}","132364585","132364586","{2C88AC4B-CEF8-4B75-9A4C-52ABA4E2FF69}","{5B781005-80A9-4E17-8B33-757562EFE0B1}","132364587","{D4AA2BE5-FDE2-4F2E-974E-B480FC586538}","{E008615D-7177-4F91-9B9A-9DE34797E1BC}","132364590","{657435AE-9D38-462A-9A30-A5E78A9AA0E2}","{A9AEB7C2-0ABE-4498-804B-2FC2C72750AF}","132364591","132364592","132364593","132364595","132364692","132364597","132364598","132364599","132364600","{9E09DA31-2E18-48D0-B288-8756974A1F65}","132364601","{F64C2D93-7173-43E8-89FC-1F73B17D2EE8}","{8DCBF808-D6DC-4545-9908-279E0CAC3BD0}","{D3D29E41-242E-4BC6-AA91-3C4C03E3E682}","{5C22432F-DDE8-43AA-8FEF-268439148B7F}","{6A26C01C-22F5-408F-881A-8E1D76CD53C5}","132364602","{EF41D033-D6CE-4ADB-BEB0-7E67CA2D3211}","{BAD809CC-84F2-4D9F-8FED-91C2AC2B6A92}","132364604","132364605","{84725082-CDD6-4B29-8B99-E6DA3CDDF60B}","132364606","132364607","{6CFD7D60-73FA-4464-A4E3-8BC64D1D102B}","{1B9CB120-A73C-4844-83F3-9479BD493988}","132364608","132364609","132364610","{A9DFCEDB-4F30-4003-885A-DFA9801DE766}","132364611","{6BA361FC-44F5-45E9-B00B-8317A24A0BBC}","132364612","{A10FBDFE-30CF-46D7-A768-A230C2A3561F}","132364614","132364615","132362532","132362534","{CC25C8F7-05FC-4C04-ADCC-2B89A433D3B6}","{74C64848-7F04-4778-A3D0-C17BBC42FCA7}","{5AD04796-AD68-4038-B9B5-B002A5E0F6D8}","{DC1CB24F-51B7-456A-B307-6A92D14BE17E}","132356437","132356438","{43D04513-94E5-41FE-BD45-53D29E09C85E}","{8B6A1721-E5BB-400D-A078-E88D4FE4D714}","132356439","{BB802CEE-1E6C-4981-B1CC-1CA27BEA9CED}","132358010","{5661BEDC-4BCE-41C8-BCBE-2B7B034928A6}","132356441","132356442","132356443","132356444","132356445","132356446","132356447","132356448","132364558","132364556","{58DE15E7-99C9-493C-8330-5DF5C80266A8}","132364555","132364554","{70E1A9C4-B8F2-4162-844D-6C342A0BC939}","{A50E2994-5753-446A-B696-06F45370F45F}","132364550","132364549","132364548","132364547","132364886","{2F81CAA3-4DD3-4118-81BF-D4292B52F3CA}","132364545","132364544","132364543","132364542","{FB61BFDB-412B-446B-921E-E175EEDDCE89}","132364539","{52AAB5F1-831E-454B-AC5B-6D4A7F813BCC}","{403B3068-42A2-4C89-9C67-D7BD95D025C0}","{69EAEC46-9586-4C04-B16B-F7417A9E1925}","{78E62530-A129-46D0-B734-F34A58AA0139}","{5DDA6110-EAED-47A1-BBD5-3E0BE61B8F6C}","132364533","{82454ADF-BF37-4408-8049-96996A3846CC}","{35000DCB-37D3-45B5-BC3B-44F31C01F241}","132364531","{8254B26C-A1BE-4113-87D8-62CB4FA4718B}","{FAA2C281-05E7-43C6-A046-FD158771DF6D}","132364530","132364529","{E3D367E0-6C37-4BC6-BB8C-B58D1A71E3FB}","{6A58EA7B-5806-442F-97A5-1AADD42491B5}","132364528","132364527","132364524","{29F7A2A3-2737-40FB-ACB6-C9A5BB50EE99}","{AF8BAE71-C8CB-415E-9E23-3E8BBF133192}","{52ECE38C-EE58-43CD-A162-94131E06C4A9}","132364522","{9A1EDA26-25CC-4C87-851C-7FC783DF4537}","132364521","132364520","{C4274F08-73AF-462E-984D-8799A4DF2191}","{6FE946C5-6BD7-4019-8EE8-21A5C411AAD0}","132364519","132364518","{5D3FFB35-968E-40E1-852F-D510585CE0E2}","{F7A82743-BF3D-4708-A03E-CC08EE7F6955}","{3DC7ACCA-AAB4-4CE1-9109-9A600686BB1E}","{8F47B3BE-FEC3-4DEB-AD7E-319118B2E4AC}","{4D17BAAF-5DE4-44F9-8320-BBF0A61AB213}","{CC94AB51-EFA3-4C7B-8FA5-C09CBF8F85A4}","{5C79FCDB-B5A4-4F06-BA99-7E8FCEC1CCED}","{944FAFCE-55CB-497B-A034-72FFE0D1F575}","132364514","{141ED463-1DDD-4149-845A-70788172491A}","{0EBAB1EC-2DC2-49FE-A2C5-FAC541523506}","132364513","132364515","132364512","132364729","132364703","132364510","132364509","132364508","132364507","132364506","132364505","132364504","132364503","132364502","132364501","132364500","132364499","132364498","132364497","132364496","132364495","132364494","132364493","132364492","132364491","132364490","132364488","132364487","132364489","132364486","132364485","132364484","132364483","132364482","132364481","132364480","132364479","132364764","132364712","132364711","132364475","132364713","132364473","132364470","132364471","132364472","132364469","132364468","132364467","132364466","132364465","132364464","132364463","132364462","132364715","132364458","132364455","132364456","132364457","132364454","132364453","132364452","132364451","132364450","132364449","132364448","132364447","132364446","132364445","132364444","132364443","132364442","132364441","132364440","132364722","132364436","132364435","132364434","132364433","132364432","132364431","132364725","132364724","132364429","132364428","132364427","132364426","132364727","132364425","132364424","132364423","132364890","132364209","132364208","132364211","132364213","132364202","132364197","132364194","132364191","132364182","132364181","132364163","132364158","132364153","132364146","132364144","132364138","132364123","132364110","132364099"],"sourceRetrieved":"2026-09-11","geometrySource":"nhd","hu8":"06010201","simplification":{"toleranceM":10,"verticesBefore":11143,"verticesAfter":762,"budgetBytes":81920},"trace":{"anchor":{"lat":35.6645,"lon":-83.7113,"snapDistM":9.4},"up":{"spec":"headwater","reason":"headwater","terminus":[-83.48141,35.580003],"distKmFromAnchor":40.22},"down":{"spec":"mouth","reason":"name-change","terminus":[-83.9865,35.879374],"enteredNames":["Tennessee River"],"distKmFromAnchor":57.4},"vaaUsed":false,"toleranceM":12}},"geometry":{"type":"MultiLineString","coordinates":[[[-83.48141,35.58],[-83.48189,35.57977],[-83.48261,35.57974],[-83.48346,35.57926],[-83.48455,35.57924],[-83.48611,35.57875],[-83.48799,35.57877],[-83.48886,35.57898],[-83.48983,35.57999],[-83.4907,35.58022],[-83.49091,35.58048],[-83.49137,35.58053],[-83.49158,35.58072],[-83.49301,35.58098],[-83.49376,35.58157],[-83.49466,35.58177],[-83.49547,35.58284],[-83.49612,35.58319],[-83.49662,35.58323],[-83.49773,35.58423],[-83.49964,35.58473],[-83.50047,35.58458],[-83.50088,35.58477],[-83.50164,35.58598],[-83.5021,35.58633],[-83.50259,35.5871],[-83.50298,35.58734],[-83.50308,35.5878],[-83.50422,35.5881],[-83.50473,35.58857],[-83.50521,35.58867],[-83.50575,35.58953],[-83.5069,35.59018],[-83.50692,35.59067],[-83.50737,35.59136],[-83.50811,35.5917],[-83.50867,35.59166],[-83.50958,35.59218],[-83.50958,35.5924],[-83.5098,35.59253],[-83.51064,35.59242],[-83.51132,35.59262],[-83.51234,35.59261],[-83.51347,35.59325],[-83.51356,35.59353],[-83.51383,35.59361],[-83.51414,35.59404],[-83.51437,35.595],[-83.51488,35.59569],[-83.51474,35.59632],[-83.51492,35.59683],[-83.51535,35.59719],[-83.51536,35.59847],[-83.51614,35.60002],[-83.51604,35.60084],[-83.51658,35.6012],[-83.51709,35.60181],[-83.51722,35.60254],[-83.51775,35.60345],[-83.51859,35.60382],[-83.51948,35.6046],[-83.51951,35.60562],[-83.51975,35.60603],[-83.52114,35.60702],[-83.52191,35.60839],[-83.52272,35.60886],[-83.52344,35.60905],[-83.52443,35.6098],[-83.52471,35.6102],[-83.5248,35.61109],[-83.52589,35.61165],[-83.52668,35.61239],[-83.52737,35.61267],[-83.52761,35.61301],[-83.52818,35.61326],[-83.52861,35.6142],[-83.52922,35.61479],[-83.53159,35.61609],[-83.53257,35.61574],[-83.53304,35.61587],[-83.53409,35.61568],[-83.53474,35.61588],[-83.53531,35.61658],[-83.53547,35.6175],[-83.53639,35.61822],[-83.53733,35.61933],[-83.53933,35.62019],[-83.53976,35.62116],[-83.53937,35.62203],[-83.53911,35.62209],[-83.53873,35.62308],[-83.53853,35.62491],[-83.53858,35.62538],[-83.53969,35.62736],[-83.54018,35.62759],[-83.54085,35.62741],[-83.54208,35.62851],[-83.54355,35.63138],[-83.54367,35.63217],[-83.54417,35.63268],[-83.54489,35.6343],[-83.54525,35.63454],[-83.5459,35.63423],[-83.54681,35.63403],[-83.54739,35.63417],[-83.54762,35.63448],[-83.54799,35.63724],[-83.549,35.63785],[-83.55086,35.63824],[-83.55112,35.63843],[-83.55124,35.63869],[-83.55114,35.639],[-83.55038,35.64046],[-83.55047,35.64091],[-83.55123,35.64196],[-83.55291,35.64207],[-83.55362,35.64241],[-83.55442,35.64428],[-83.55466,35.64571],[-83.55519,35.64637],[-83.55568,35.64676],[-83.55737,35.64705],[-83.55845,35.64754],[-83.5586,35.64778],[-83.55894,35.64769],[-83.559,35.64788],[-83.56059,35.64868],[-83.56194,35.64871],[-83.56289,35.6493],[-83.56332,35.64987],[-83.56544,35.65105],[-83.56607,35.65136],[-83.56822,35.65179],[-83.56913,35.6523],[-83.56937,35.65269],[-83.56975,35.6529],[-83.57025,35.65291],[-83.57221,35.65237],[-83.57291,35.65259],[-83.57458,35.65268],[-83.57725,35.6535],[-83.57917,35.65449],[-83.58069,35.65493],[-83.58109,35.65483],[-83.58185,35.65496],[-83.58289,35.65693],[-83.58341,35.6585],[-83.58449,35.6597],[-83.5845,35.6605],[-83.58518,35.66149],[-83.58598,35.66185],[-83.58653,35.66237],[-83.5871,35.66255],[-83.58775,35.6621],[-83.58841,35.66189],[-83.5901,35.66171],[-83.59132,35.66237],[-83.59099,35.6636],[-83.58952,35.66414],[-83.58943,35.66434],[-83.591,35.6664],[-83.59152,35.66622],[-83.59258,35.66497],[-83.59258,35.66425],[-83.5929,35.66367],[-83.59289,35.66335],[-83.59359,35.66278],[-83.59465,35.66274],[-83.5955,35.66289],[-83.5971,35.66346],[-83.59808,35.6633],[-83.59841,35.66337],[-83.59888,35.66434],[-83.59881,35.66489],[-83.59942,35.66569],[-83.60054,35.6662],[-83.60151,35.66637],[-83.60218,35.6661],[-83.60296,35.66532],[-83.60378,35.66478],[-83.60555,35.66387],[-83.60575,35.6634],[-83.60581,35.66177],[-83.60599,35.66142],[-83.60638,35.66119],[-83.60708,35.66111],[-83.6074,35.66124],[-83.60812,35.66304],[-83.61073,35.66319],[-83.61119,35.66393],[-83.6117,35.66405],[-83.61273,35.66392],[-83.61432,35.66303],[-83.61655,35.66222],[-83.61696,35.66231],[-83.61807,35.66326],[-83.62032,35.66282],[-83.62079,35.66288],[-83.62127,35.66339],[-83.62149,35.66413],[-83.62198,35.66419],[-83.62255,35.66378],[-83.62229,35.66234],[-83.623,35.662],[-83.6234,35.66199],[-83.62462,35.66232],[-83.62516,35.66315],[-83.62529,35.66418],[-83.62448,35.66639],[-83.62451,35.66769],[-83.62499,35.66841],[-83.62634,35.66917],[-83.62644,35.66965],[-83.62579,35.67006],[-83.6256,35.67042],[-83.62574,35.67063],[-83.62615,35.67077],[-83.62776,35.6702],[-83.62849,35.66953],[-83.62867,35.66879],[-83.62784,35.66683],[-83.62777,35.66621],[-83.62796,35.66581],[-83.6305,35.66447],[-83.63072,35.66348],[-83.63109,35.66312],[-83.63148,35.66306],[-83.63325,35.66343],[-83.63371,35.66365],[-83.63406,35.66405],[-83.63492,35.66542],[-83.63497,35.66668],[-83.63532,35.66713],[-83.63635,35.66769],[-83.63714,35.6693],[-83.63752,35.66978],[-83.63845,35.67039],[-83.63889,35.67087],[-83.63981,35.67257],[-83.64014,35.6727],[-83.64092,35.67253],[-83.64335,35.67239],[-83.64487,35.67293],[-83.64559,35.67383],[-83.64572,35.6748],[-83.64671,35.67786],[-83.64886,35.68121],[-83.64956,35.68189],[-83.65187,35.6821],[-83.65259,35.68183],[-83.6529,35.68151],[-83.65356,35.68054],[-83.6536,35.67971],[-83.65383,35.67943],[-83.65609,35.68001],[-83.65662,35.67983],[-83.65701,35.67948],[-83.65681,35.67838],[-83.65628,35.6776],[-83.65571,35.67597],[-83.65551,35.67418],[-83.6558,35.67362],[-83.6575,35.67341],[-83.65855,35.67389],[-83.65975,35.67405],[-83.66246,35.67482],[-83.66453,35.67399],[-83.66492,35.67361],[-83.66523,35.67261],[-83.66499,35.67145],[-83.66454,35.67095],[-83.66365,35.67089],[-83.66307,35.67028],[-83.66275,35.6694],[-83.66234,35.66911],[-83.66252,35.66868],[-83.66291,35.66845],[-83.66533,35.66862],[-83.66727,35.66908],[-83.66795,35.669],[-83.66928,35.66855],[-83.66979,35.66865],[-83.67012,35.66903],[-83.67003,35.67067],[-83.67024,35.67128],[-83.67115,35.67181],[-83.6722,35.67191],[-83.67295,35.67151],[-83.6738,35.67072],[-83.67501,35.67028],[-83.67586,35.66969],[-83.67623,35.66759],[-83.67637,35.66724],[-83.67679,35.66702],[-83.6773,35.66697],[-83.67772,35.6671],[-83.67863,35.6679],[-83.67907,35.66877],[-83.67925,35.66958],[-83.67871,35.67078],[-83.67887,35.67098],[-83.67913,35.67098],[-83.68208,35.66898],[-83.68275,35.66925],[-83.68318,35.66971],[-83.68344,35.66967],[-83.68374,35.66933],[-83.68365,35.66852],[-83.68196,35.66706],[-83.68225,35.66638],[-83.68368,35.66639],[-83.68416,35.66658],[-83.68461,35.66701],[-83.68515,35.66701],[-83.6866,35.66665],[-83.68715,35.6658],[-83.68823,35.66512],[-83.68966,35.66497],[-83.69012,35.66529],[-83.68984,35.66636],[-83.68971,35.66797],[-83.69051,35.6701],[-83.69125,35.67091],[-83.69131,35.67254],[-83.69156,35.67288],[-83.69229,35.67306],[-83.69273,35.6734],[-83.69284,35.67482],[-83.69324,35.67499],[-83.69368,35.67493],[-83.6944,35.67453],[-83.69514,35.67384],[-83.69546,35.67316],[-83.69512,35.67256],[-83.69349,35.67179],[-83.69329,35.67126],[-83.69337,35.67095],[-83.69379,35.67061],[-83.69388,35.66935],[-83.69503,35.66852],[-83.69493,35.66808],[-83.69409,35.66753],[-83.69387,35.66715],[-83.69413,35.66661],[-83.69455,35.66633],[-83.69512,35.6664],[-83.69667,35.66745],[-83.69718,35.66763],[-83.69799,35.66831],[-83.69887,35.66867],[-83.69954,35.6686],[-83.69997,35.66819],[-83.70001,35.66774],[-83.69984,35.66727],[-83.6985,35.66566],[-83.69841,35.6651],[-83.69866,35.66478],[-83.69954,35.66461],[-83.70108,35.66394],[-83.70056,35.66236],[-83.70078,35.66128],[-83.70137,35.66029],[-83.70189,35.65989],[-83.70276,35.66005],[-83.70343,35.66156],[-83.70413,35.66167],[-83.70459,35.66191],[-83.70491,35.66234],[-83.70569,35.66256],[-83.70643,35.66233],[-83.70696,35.6619],[-83.707,35.66024],[-83.70725,35.65986],[-83.70758,35.65977],[-83.70794,35.66062],[-83.70931,35.66125],[-83.70978,35.66164],[-83.70998,35.66225],[-83.70989,35.66317],[-83.71052,35.66414],[-83.71175,35.66493],[-83.7128,35.66608],[-83.71631,35.66908],[-83.71669,35.66956],[-83.71699,35.67027],[-83.71705,35.67139],[-83.71678,35.6717],[-83.71597,35.67203],[-83.71577,35.6724],[-83.71607,35.67359],[-83.71695,35.67481],[-83.71722,35.67551],[-83.71711,35.67751],[-83.71811,35.67855],[-83.71972,35.67947],[-83.72066,35.67961],[-83.72423,35.67961],[-83.72597,35.67993],[-83.72699,35.67992],[-83.72793,35.67963],[-83.72899,35.67898],[-83.73027,35.67875],[-83.73142,35.67988],[-83.73366,35.68148],[-83.73671,35.68195],[-83.73938,35.68403],[-83.74062,35.68481],[-83.74093,35.68486],[-83.74266,35.68394],[-83.7446,35.68313],[-83.74653,35.68124],[-83.74723,35.68028],[-83.74804,35.68021],[-83.74898,35.68036],[-83.75071,35.67955],[-83.75239,35.67937],[-83.75498,35.67816],[-83.75658,35.67721],[-83.75857,35.67637],[-83.75994,35.6762],[-83.76423,35.67618],[-83.766,35.67604],[-83.76638,35.67632],[-83.76682,35.67735],[-83.76689,35.67838],[-83.76717,35.67898],[-83.76975,35.68127],[-83.77052,35.68178],[-83.7716,35.68183],[-83.77194,35.68161],[-83.77409,35.68134],[-83.77569,35.68153],[-83.77704,35.68138],[-83.77836,35.68007],[-83.77904,35.67976],[-83.78032,35.6798],[-83.78159,35.68006],[-83.78443,35.68012],[-83.78825,35.68279],[-83.78957,35.68332],[-83.79047,35.6841],[-83.79492,35.68507],[-83.79751,35.68729],[-83.79779,35.68785],[-83.79769,35.68856],[-83.79667,35.68981],[-83.79673,35.69063],[-83.79934,35.69247],[-83.79998,35.69318],[-83.79985,35.69384],[-83.79905,35.69504],[-83.79812,35.69709],[-83.79802,35.69791],[-83.7982,35.69875],[-83.79984,35.69937],[-83.80184,35.70064],[-83.80303,35.70121],[-83.80339,35.70229],[-83.80447,35.70311],[-83.80535,35.70296],[-83.80583,35.70221],[-83.80557,35.70116],[-83.80448,35.69959],[-83.8046,35.69892],[-83.80505,35.69856],[-83.8067,35.69798],[-83.80728,35.69795],[-83.80864,35.69849],[-83.81139,35.70105],[-83.81256,35.70183],[-83.81453,35.70267],[-83.81576,35.70276],[-83.81769,35.70336],[-83.82015,35.70452],[-83.82071,35.70511],[-83.82111,35.70619],[-83.82102,35.70662],[-83.82053,35.70692],[-83.81837,35.70769],[-83.81776,35.70819],[-83.81753,35.70895],[-83.81763,35.71054],[-83.8179,35.71169],[-83.81866,35.71294],[-83.81873,35.71336],[-83.81948,35.71417],[-83.81942,35.71534],[-83.81913,35.71627],[-83.81836,35.71731],[-83.81793,35.71757],[-83.81584,35.71829],[-83.81438,35.7185],[-83.81332,35.71968],[-83.81279,35.72173],[-83.81282,35.7223],[-83.813,35.72254],[-83.81548,35.72246],[-83.81676,35.72256],[-83.8174,35.72296],[-83.81764,35.72349],[-83.81807,35.7253],[-83.81805,35.72609],[-83.81739,35.72784],[-83.81544,35.73054],[-83.81565,35.73144],[-83.81651,35.73292],[-83.81744,35.73378],[-83.82066,35.73553],[-83.82202,35.73559],[-83.82242,35.73574],[-83.82425,35.73728],[-83.82572,35.73813],[-83.82795,35.73978],[-83.82859,35.74047],[-83.82953,35.742],[-83.82999,35.74346],[-83.83013,35.74526],[-83.83044,35.74601],[-83.83112,35.74643],[-83.83256,35.74663],[-83.83614,35.74856],[-83.83772,35.75051],[-83.84273,35.75441],[-83.84605,35.75799],[-83.84665,35.75898],[-83.84756,35.76187],[-83.84791,35.76231],[-83.84969,35.76304],[-83.85231,35.76356],[-83.85334,35.76421],[-83.85434,35.7645],[-83.85645,35.76578],[-83.8565,35.76626],[-83.85616,35.76695],[-83.85398,35.76936],[-83.85271,35.77039],[-83.85219,35.77116],[-83.85196,35.77188],[-83.8521,35.77252],[-83.85203,35.77434],[-83.85227,35.77521],[-83.85395,35.77738],[-83.8552,35.77853],[-83.85586,35.77887],[-83.8587,35.77941],[-83.86061,35.7802],[-83.86122,35.78067],[-83.8631,35.78162],[-83.86415,35.782],[-83.86739,35.78277],[-83.86918,35.78355],[-83.87078,35.78329],[-83.87322,35.78331],[-83.8742,35.78288],[-83.8749,35.78309],[-83.87539,35.78297],[-83.87865,35.78307],[-83.87981,35.78251],[-83.88215,35.78197],[-83.88327,35.78217],[-83.88403,35.78267],[-83.88488,35.78285],[-83.88506,35.78329],[-83.88502,35.78408],[-83.8846,35.78514],[-83.88397,35.78578],[-83.88285,35.7865],[-83.88219,35.78742],[-83.88194,35.7883],[-83.88188,35.7903],[-83.88165,35.79102],[-83.88125,35.7913],[-83.87896,35.79174],[-83.87727,35.79237],[-83.87662,35.79289],[-83.87666,35.79367],[-83.87793,35.79416],[-83.87832,35.79411],[-83.87965,35.7944],[-83.88161,35.79461],[-83.88316,35.79462],[-83.88566,35.79369],[-83.88704,35.79354],[-83.88816,35.79362],[-83.8903,35.79301],[-83.89118,35.79301],[-83.89182,35.79331],[-83.8926,35.79409],[-83.89282,35.79519],[-83.89386,35.79709],[-83.89353,35.79833],[-83.89283,35.79848],[-83.89099,35.79785],[-83.88901,35.79642],[-83.88822,35.79618],[-83.88792,35.79613],[-83.88689,35.79639],[-83.88446,35.79641],[-83.88357,35.79689],[-83.88302,35.79762],[-83.88257,35.7987],[-83.88322,35.80067],[-83.88351,35.80089],[-83.88395,35.80085],[-83.88569,35.80015],[-83.88655,35.79997],[-83.88791,35.80009],[-83.88882,35.80037],[-83.89046,35.80152],[-83.89113,35.80223],[-83.89135,35.80276],[-83.89121,35.80343],[-83.89083,35.80377],[-83.88778,35.80489],[-83.88606,35.80508],[-83.88533,35.80542],[-83.88451,35.80649],[-83.88449,35.80706],[-83.88483,35.80742],[-83.89152,35.80875],[-83.89421,35.80991],[-83.89499,35.8092],[-83.89591,35.80896],[-83.89671,35.809],[-83.89884,35.80979],[-83.90111,35.81091],[-83.90255,35.81109],[-83.90534,35.81284],[-83.90619,35.81408],[-83.90681,35.81557],[-83.90735,35.81614],[-83.90833,35.81639],[-83.90988,35.81556],[-83.9104,35.81555],[-83.91102,35.81595],[-83.91169,35.81668],[-83.91472,35.81879],[-83.91945,35.82044],[-83.92072,35.82065],[-83.92173,35.82056],[-83.92303,35.82016],[-83.92349,35.82014],[-83.92437,35.8198],[-83.92519,35.81921],[-83.92556,35.81804],[-83.92558,35.81652],[-83.92525,35.81619],[-83.92425,35.81588],[-83.92285,35.81499],[-83.92244,35.8144],[-83.92241,35.81381],[-83.92356,35.81221],[-83.92402,35.81117],[-83.92568,35.80924],[-83.92612,35.80901],[-83.92709,35.80904],[-83.92822,35.80875],[-83.92887,35.80911],[-83.92902,35.80951],[-83.92957,35.81002],[-83.92971,35.81043],[-83.92941,35.81323],[-83.92879,35.81437],[-83.92875,35.81497],[-83.9296,35.81784],[-83.92946,35.81808],[-83.92954,35.81846],[-83.93101,35.82053],[-83.93176,35.82096],[-83.93251,35.82097],[-83.935,35.82012],[-83.93963,35.81905],[-83.94073,35.81893],[-83.94144,35.81902],[-83.94331,35.82063],[-83.94357,35.82108],[-83.94361,35.82161],[-83.94105,35.82317],[-83.94059,35.82398],[-83.94058,35.82501],[-83.9414,35.82626],[-83.94273,35.82755],[-83.94369,35.82785],[-83.94444,35.8285],[-83.94448,35.82909],[-83.9449,35.83006],[-83.9452,35.83136],[-83.94494,35.83225],[-83.94529,35.83394],[-83.94591,35.83489],[-83.94668,35.83547],[-83.94744,35.83676],[-83.94958,35.83916],[-83.94964,35.83959],[-83.9493,35.83986],[-83.94731,35.84047],[-83.94626,35.84106],[-83.94599,35.84151],[-83.94569,35.84316],[-83.94405,35.84451],[-83.94342,35.84477],[-83.94214,35.84601],[-83.94163,35.84668],[-83.94151,35.8472],[-83.94182,35.84786],[-83.94235,35.84823],[-83.94297,35.8483],[-83.94409,35.84811],[-83.94543,35.84812],[-83.9459,35.84821],[-83.94661,35.84864],[-83.948,35.85258],[-83.94824,35.85434],[-83.94869,35.85521],[-83.94883,35.85655],[-83.94831,35.85742],[-83.94827,35.85813],[-83.94832,35.85991],[-83.94852,35.86046],[-83.94902,35.86096],[-83.94971,35.86118],[-83.95048,35.86205],[-83.95151,35.86284],[-83.95216,35.86366],[-83.95463,35.86508],[-83.95334,35.86665],[-83.95284,35.86806],[-83.95308,35.86822],[-83.95269,35.86965],[-83.95173,35.87106],[-83.9504,35.87167],[-83.95012,35.8725],[-83.95014,35.87357],[-83.95187,35.87402],[-83.95325,35.87413],[-83.9549,35.87384],[-83.95583,35.87344],[-83.95725,35.87348],[-83.9594,35.87379],[-83.96085,35.87354],[-83.96134,35.87317],[-83.96187,35.87196],[-83.96263,35.87088],[-83.96483,35.86901],[-83.96643,35.86734],[-83.96854,35.86591],[-83.96974,35.86474],[-83.97178,35.86324],[-83.97247,35.86298],[-83.9747,35.8635],[-83.97606,35.86463],[-83.97737,35.86615],[-83.97806,35.86732],[-83.97914,35.8683],[-83.98086,35.87073],[-83.98155,35.87219],[-83.98306,35.8734],[-83.98353,35.87417],[-83.98509,35.8755],[-83.98643,35.87711],[-83.98681,35.87821],[-83.9865,35.87937]]]}}
