{"type":"Feature","properties":{"id":"doe-river","name":"Doe River","waterbodyType":"creek","throughLakeIds":[],"allowOpenEnds":false,"source":"nhd-hu8-06010103","approximate":false,"labelAnchor":[-82.21,36.34458],"bounds":[-82.21352,36.14047,-82.0667,36.35707],"crs":"EPSG:4326","coordinateOrder":"longitude,latitude","partCount":1,"vertexCount":387,"lengthKm":47.49,"sourceIds":["89948373","89948521","89949151","89949163","89949467","89949909","89949941","89950181","89950413","89950639","89950763","89951075","89951215","89951313","89951205","89951513","89951645","89951861","89951883","89951971","89952011","89952071","89952109","89952205","89952257","89952283","89952475","89952511","89952565","89952567","89952543","89952669","89952861","89952893","89952929","89952983","89953069","89953121","89953143","89953279","89953383","89953389","89953357","89953491","89953561","89953645","89953715","89953755","89953857","89953841","89953967","89953965","89953937","89954179","89954189","89954157","89954121","89954153","89954159","89954211","89954197","89954217","89954221","89954225","89954245","89954243","89954447","89954691","89955029","89955067","89955085","89955063","89955333","89955509","89955553","89955575","89955595","89955605","89955609","89955607","89955611","89955615","89955619","89947983","89947849"],"sourceRetrieved":"2026-09-11","geometrySource":"nhd","hu8":"06010103","simplification":{"toleranceM":10,"verticesBefore":1075,"verticesAfter":387,"budgetBytes":81920},"trace":{"anchor":{"lat":36.3445,"lon":-82.2101,"snapDistM":12.6},"up":{"spec":"headwater","reason":"headwater","terminus":[-82.14404,36.146487],"distKmFromAnchor":46.26},"down":{"spec":"confluence:Watauga River","reason":"confluence","terminus":[-82.213222,36.357074],"enteredNames":["Watauga River"],"distKmFromAnchor":1.32},"vaaUsed":false,"toleranceM":12}},"geometry":{"type":"MultiLineString","coordinates":[[[-82.14404,36.14649],[-82.14375,36.14602],[-82.14277,36.14517],[-82.14193,36.14345],[-82.14115,36.14266],[-82.14053,36.14143],[-82.13875,36.14197],[-82.13832,36.14189],[-82.13775,36.14212],[-82.13692,36.1422],[-82.13576,36.14179],[-82.13332,36.14271],[-82.13121,36.14305],[-82.12949,36.14257],[-82.12848,36.142],[-82.12823,36.14151],[-82.12716,36.14104],[-82.12365,36.14078],[-82.12263,36.14047],[-82.12204,36.14081],[-82.12024,36.1409],[-82.11766,36.14216],[-82.11551,36.14223],[-82.11392,36.1431],[-82.11266,36.14351],[-82.11216,36.14391],[-82.10995,36.14471],[-82.10877,36.14487],[-82.1081,36.1445],[-82.10709,36.1444],[-82.10562,36.14475],[-82.10464,36.14604],[-82.10357,36.14641],[-82.10262,36.14714],[-82.10242,36.14792],[-82.10205,36.1483],[-82.10213,36.14878],[-82.10166,36.14934],[-82.10144,36.1504],[-82.10173,36.15179],[-82.10128,36.15247],[-82.10145,36.15325],[-82.10068,36.15357],[-82.10013,36.15433],[-82.09996,36.15565],[-82.1003,36.15604],[-82.10067,36.15699],[-82.10032,36.15829],[-82.10041,36.1595],[-82.1008,36.16029],[-82.10054,36.16095],[-82.10057,36.1615],[-82.09971,36.1624],[-82.09931,36.1637],[-82.09698,36.16483],[-82.0961,36.16648],[-82.09688,36.16871],[-82.0984,36.17052],[-82.09821,36.17272],[-82.09794,36.17346],[-82.09603,36.17404],[-82.0952,36.17391],[-82.09459,36.17427],[-82.09415,36.17424],[-82.09332,36.17376],[-82.09253,36.17284],[-82.09038,36.17177],[-82.08957,36.17085],[-82.08845,36.17059],[-82.08745,36.17086],[-82.08495,36.1711],[-82.08272,36.17113],[-82.08125,36.17076],[-82.07973,36.17171],[-82.0794,36.17238],[-82.07927,36.1733],[-82.07871,36.17361],[-82.07957,36.1748],[-82.07902,36.17847],[-82.07875,36.17922],[-82.07842,36.17953],[-82.07669,36.17979],[-82.07554,36.18041],[-82.07523,36.18116],[-82.07547,36.18313],[-82.07526,36.18363],[-82.0746,36.18367],[-82.07233,36.18305],[-82.07185,36.18311],[-82.0713,36.18357],[-82.07121,36.18399],[-82.07154,36.18476],[-82.07166,36.18613],[-82.07133,36.18786],[-82.07056,36.18907],[-82.06964,36.19011],[-82.06914,36.19218],[-82.06805,36.19364],[-82.06756,36.19623],[-82.06718,36.19657],[-82.0667,36.19668],[-82.06673,36.19702],[-82.06867,36.19854],[-82.0705,36.19868],[-82.07153,36.19852],[-82.07273,36.19866],[-82.07402,36.19834],[-82.07456,36.19837],[-82.07643,36.19974],[-82.07688,36.20026],[-82.07711,36.20072],[-82.07712,36.20141],[-82.07749,36.20185],[-82.07917,36.20212],[-82.08015,36.20245],[-82.08145,36.20257],[-82.0821,36.20246],[-82.08372,36.20182],[-82.08485,36.20181],[-82.08669,36.20098],[-82.08893,36.20139],[-82.09001,36.2031],[-82.09154,36.20317],[-82.09296,36.20287],[-82.09498,36.20296],[-82.09613,36.20245],[-82.09757,36.20247],[-82.09889,36.2027],[-82.10031,36.20261],[-82.10172,36.20276],[-82.10514,36.2025],[-82.10569,36.20262],[-82.1064,36.20296],[-82.1065,36.20327],[-82.10576,36.20607],[-82.10591,36.20645],[-82.10584,36.20684],[-82.1054,36.20751],[-82.10538,36.20786],[-82.10562,36.20829],[-82.10633,36.20859],[-82.10813,36.20891],[-82.10846,36.20912],[-82.11041,36.20961],[-82.1125,36.21058],[-82.11292,36.21026],[-82.11341,36.20935],[-82.11419,36.20882],[-82.11468,36.20888],[-82.11545,36.20933],[-82.11701,36.20952],[-82.1177,36.2092],[-82.11828,36.20927],[-82.1189,36.20984],[-82.1189,36.21057],[-82.1173,36.21236],[-82.11716,36.21293],[-82.11784,36.21337],[-82.11882,36.21348],[-82.11967,36.21304],[-82.12105,36.2132],[-82.12198,36.21356],[-82.12403,36.21377],[-82.12446,36.21414],[-82.12444,36.21475],[-82.12362,36.21545],[-82.12353,36.21598],[-82.12455,36.21657],[-82.125,36.21666],[-82.12557,36.21655],[-82.12675,36.21578],[-82.12722,36.2157],[-82.1282,36.21585],[-82.12984,36.21663],[-82.13098,36.21747],[-82.13185,36.2184],[-82.13279,36.21898],[-82.13426,36.2206],[-82.13548,36.2211],[-82.13638,36.22189],[-82.13698,36.22409],[-82.13841,36.22567],[-82.13867,36.22624],[-82.13894,36.22649],[-82.14028,36.22682],[-82.14094,36.22744],[-82.14142,36.22757],[-82.1424,36.22862],[-82.14286,36.22958],[-82.14365,36.23025],[-82.14427,36.23104],[-82.14601,36.23172],[-82.14654,36.23225],[-82.14737,36.23267],[-82.14833,36.23365],[-82.14877,36.2337],[-82.14912,36.23352],[-82.14942,36.2324],[-82.14999,36.23204],[-82.1546,36.23041],[-82.15542,36.23061],[-82.1566,36.23187],[-82.15681,36.23244],[-82.15691,36.23389],[-82.15775,36.23522],[-82.15768,36.23561],[-82.15666,36.23599],[-82.15594,36.23594],[-82.15433,36.23529],[-82.15385,36.23523],[-82.15353,36.23545],[-82.15316,36.23623],[-82.15331,36.23643],[-82.15397,36.23651],[-82.15412,36.23667],[-82.15437,36.23778],[-82.15497,36.23869],[-82.15518,36.23931],[-82.15505,36.23952],[-82.1545,36.23978],[-82.15348,36.2397],[-82.15309,36.2398],[-82.15163,36.24086],[-82.15028,36.24077],[-82.14952,36.24044],[-82.14893,36.24072],[-82.14891,36.24108],[-82.14963,36.24207],[-82.1499,36.24286],[-82.1501,36.24494],[-82.15091,36.24575],[-82.1519,36.24728],[-82.15224,36.24739],[-82.15288,36.2471],[-82.15334,36.24734],[-82.15326,36.24798],[-82.15045,36.24967],[-82.15015,36.25051],[-82.15097,36.25092],[-82.15156,36.25041],[-82.15184,36.25037],[-82.1528,36.25109],[-82.15403,36.25131],[-82.15521,36.25083],[-82.15674,36.24983],[-82.15737,36.25],[-82.15796,36.25058],[-82.15786,36.25096],[-82.15622,36.25196],[-82.15595,36.25272],[-82.15617,36.25326],[-82.15608,36.25371],[-82.15471,36.25478],[-82.15453,36.25523],[-82.15546,36.25635],[-82.15553,36.25682],[-82.15624,36.25731],[-82.15817,36.25768],[-82.15846,36.25804],[-82.15833,36.25878],[-82.1586,36.25924],[-82.16032,36.2593],[-82.16094,36.25962],[-82.16093,36.25995],[-82.1603,36.26038],[-82.16022,36.2608],[-82.16165,36.26216],[-82.16146,36.26272],[-82.16083,36.26309],[-82.16055,36.26344],[-82.1605,36.26372],[-82.16083,36.26416],[-82.16296,36.26419],[-82.16335,36.26402],[-82.16497,36.26247],[-82.16571,36.26206],[-82.16686,36.26176],[-82.16736,36.26187],[-82.16835,36.26276],[-82.17079,36.26406],[-82.17101,36.26437],[-82.17102,36.2648],[-82.1694,36.26667],[-82.16908,36.26794],[-82.16864,36.26861],[-82.16827,36.27008],[-82.16855,36.27033],[-82.17012,36.2704],[-82.17291,36.27156],[-82.17403,36.27237],[-82.17527,36.27375],[-82.17632,36.27524],[-82.17881,36.27773],[-82.17904,36.27875],[-82.17876,36.27895],[-82.17869,36.27963],[-82.17906,36.2801],[-82.17855,36.28145],[-82.17786,36.28213],[-82.17623,36.28285],[-82.17525,36.28348],[-82.17495,36.28407],[-82.17521,36.28594],[-82.17558,36.28685],[-82.17563,36.28931],[-82.17791,36.29221],[-82.17799,36.29276],[-82.1788,36.29451],[-82.17878,36.29491],[-82.17818,36.29542],[-82.17709,36.29543],[-82.1763,36.29577],[-82.17504,36.29693],[-82.17497,36.29779],[-82.17558,36.29818],[-82.17626,36.29819],[-82.17736,36.29792],[-82.18023,36.29612],[-82.18132,36.29517],[-82.18157,36.29502],[-82.18221,36.29502],[-82.18268,36.29518],[-82.18332,36.2959],[-82.18338,36.29631],[-82.18554,36.29912],[-82.18697,36.30026],[-82.18752,36.30047],[-82.18846,36.30055],[-82.18959,36.3001],[-82.19147,36.29996],[-82.19627,36.30055],[-82.1969,36.30106],[-82.19809,36.30278],[-82.19831,36.30357],[-82.19803,36.30458],[-82.19744,36.30484],[-82.19638,36.3049],[-82.19591,36.30524],[-82.19586,36.30552],[-82.19606,36.3059],[-82.19673,36.3068],[-82.19576,36.30854],[-82.19478,36.3094],[-82.19444,36.30998],[-82.19365,36.31035],[-82.19354,36.31243],[-82.19308,36.31296],[-82.19205,36.31486],[-82.19197,36.31553],[-82.1928,36.31643],[-82.19398,36.31692],[-82.19479,36.31698],[-82.19651,36.31628],[-82.1973,36.31641],[-82.19772,36.31664],[-82.1982,36.3172],[-82.19886,36.3198],[-82.19862,36.32039],[-82.19887,36.32121],[-82.19866,36.32212],[-82.20044,36.32601],[-82.20091,36.32769],[-82.20105,36.3289],[-82.20085,36.32902],[-82.20108,36.33096],[-82.20094,36.3317],[-82.20136,36.33214],[-82.20304,36.33512],[-82.2037,36.33595],[-82.20365,36.33725],[-82.20441,36.33853],[-82.20471,36.34037],[-82.20554,36.34205],[-82.20732,36.34345],[-82.2091,36.34391],[-82.2103,36.34481],[-82.21114,36.34566],[-82.21,36.34458],[-82.21155,36.34618],[-82.21192,36.34759],[-82.21191,36.34817],[-82.21352,36.352],[-82.21331,36.35367],[-82.2129,36.35463],[-82.21271,36.35569],[-82.21272,36.35613],[-82.21322,36.35707]]]}}
