{"type":"Feature","properties":{"id":"white-oak-creek","name":"White Oak Creek","waterbodyType":"creek","throughLakeIds":[],"allowOpenEnds":false,"source":"nhd-hu8-06040005","approximate":false,"labelAnchor":[-87.704,36.21399],"bounds":[-87.94307,36.14733,-87.55228,36.26458],"crs":"EPSG:4326","coordinateOrder":"longitude,latitude","partCount":1,"vertexCount":392,"lengthKm":50.42,"sourceIds":["59221233","59221268","59221267","59221288","59221249","59221246","59221300","59221355","{EA7809EB-033B-4EDA-B443-D8689DA48799}","59221398","59221400","59221456","59221464","59221471","59221484","59221516","59221523","59221569","59221650","59221660","59221743","59221780","59221785","59221851","59221883","59221944","59221959","59222091","59222154","59222208","59222218","59222236","59222235","59222242","59222304","59222309","59222333","59222422","59222486","59222538","59222566","59222583","59222593","59222590","59222581","59222541","59222527","59222559","59221219","59221223","59221308","59221395","59221324","59221325","59221339","59221185","59221184","59221135","59221128","59221136","59221221","59221169","59221054","59221084","59221085","59221091","59221070","59221012","59220882","59220864","59220805","59220778","59220764","59220771","59220762","59220689","59220640","59220674","59220663","59220655","59220538","59220597","59220534","59220603","59220633","59220638","59220632","59220575","59220473","59220455","59220391","59220410","59220419","59220406","59220416","59220364","59220383","59220456","59220502","59220542","59220576","59220577","59220570","59220548","59220492","59220469","59220442","59220524","59220526","59220525","59220498","59220539","59220552","59220559","59220652","59220745"],"sourceRetrieved":"2026-09-11","geometrySource":"nhd","hu8":"06040005","simplification":{"toleranceM":10,"verticesBefore":2286,"verticesAfter":392,"budgetBytes":81920},"trace":{"anchor":{"lat":36.214,"lon":-87.704,"snapDistM":1.3},"up":{"spec":"headwater","reason":"headwater","terminus":[-87.55228,36.147442],"distKmFromAnchor":18.56},"down":{"spec":"mouth","reason":"name-change","terminus":[-87.94307299999998,36.251896],"enteredNames":["Tennessee River"],"distKmFromAnchor":31.78},"vaaUsed":false,"toleranceM":12}},"geometry":{"type":"MultiLineString","coordinates":[[[-87.55228,36.14744],[-87.55311,36.14733],[-87.55439,36.14772],[-87.55553,36.14779],[-87.55614,36.14802],[-87.5575,36.1481],[-87.55778,36.14823],[-87.55835,36.14905],[-87.55865,36.14922],[-87.55932,36.14894],[-87.56045,36.14916],[-87.56314,36.14909],[-87.56409,36.14869],[-87.5646,36.14894],[-87.56555,36.14901],[-87.56757,36.14876],[-87.56939,36.14821],[-87.56983,36.14822],[-87.57033,36.14792],[-87.57128,36.14814],[-87.57236,36.14791],[-87.57408,36.14779],[-87.57554,36.14827],[-87.57579,36.14853],[-87.57642,36.14876],[-87.5778,36.14902],[-87.57867,36.14893],[-87.5803,36.14946],[-87.58131,36.15049],[-87.58164,36.1512],[-87.58245,36.15194],[-87.58301,36.15328],[-87.58325,36.15345],[-87.58407,36.15355],[-87.58472,36.15382],[-87.58571,36.15476],[-87.58665,36.15638],[-87.58667,36.15753],[-87.58723,36.1587],[-87.58803,36.1596],[-87.58918,36.16046],[-87.58992,36.16058],[-87.59071,36.16112],[-87.59227,36.16143],[-87.59324,36.16195],[-87.59356,36.16245],[-87.59436,36.16266],[-87.59533,36.16358],[-87.59517,36.16414],[-87.59532,36.16466],[-87.59632,36.16491],[-87.5967,36.16518],[-87.59665,36.16625],[-87.59711,36.16677],[-87.59752,36.16684],[-87.59784,36.16714],[-87.59775,36.16753],[-87.59816,36.1682],[-87.59826,36.16877],[-87.59906,36.16916],[-87.60024,36.16927],[-87.60149,36.16986],[-87.60205,36.17075],[-87.60202,36.17108],[-87.60165,36.17163],[-87.60274,36.17283],[-87.60307,36.17343],[-87.60414,36.17369],[-87.60479,36.17341],[-87.60551,36.17407],[-87.60636,36.1743],[-87.60775,36.17579],[-87.60807,36.17736],[-87.60918,36.17764],[-87.60949,36.17792],[-87.61106,36.17863],[-87.61173,36.17872],[-87.61212,36.17921],[-87.61348,36.17943],[-87.61503,36.18019],[-87.61615,36.18019],[-87.6167,36.17989],[-87.61724,36.17989],[-87.61782,36.18043],[-87.61881,36.18082],[-87.61998,36.18156],[-87.62075,36.18179],[-87.6215,36.18173],[-87.62243,36.18225],[-87.62341,36.18333],[-87.6235,36.18374],[-87.62397,36.18412],[-87.62518,36.18402],[-87.62581,36.18425],[-87.62797,36.18582],[-87.62817,36.18637],[-87.62814,36.18723],[-87.62882,36.1879],[-87.62929,36.18875],[-87.62968,36.18901],[-87.62998,36.18903],[-87.63044,36.18944],[-87.6305,36.19008],[-87.6317,36.19144],[-87.63291,36.1913],[-87.63405,36.19188],[-87.63509,36.19209],[-87.63673,36.19283],[-87.63734,36.19325],[-87.63766,36.19426],[-87.63798,36.19443],[-87.63874,36.19457],[-87.63976,36.1945],[-87.64104,36.19407],[-87.64144,36.19406],[-87.64327,36.19537],[-87.64475,36.19594],[-87.64531,36.19657],[-87.64539,36.19728],[-87.6457,36.19774],[-87.64736,36.19857],[-87.64797,36.19851],[-87.6501,36.19882],[-87.651,36.1991],[-87.65187,36.19906],[-87.65285,36.19966],[-87.65533,36.2003],[-87.6583,36.20018],[-87.65937,36.20097],[-87.65975,36.20218],[-87.66116,36.20241],[-87.66181,36.20287],[-87.66278,36.20497],[-87.66402,36.20559],[-87.66546,36.20569],[-87.66698,36.20655],[-87.66835,36.20676],[-87.66869,36.20675],[-87.66967,36.20625],[-87.67076,36.20609],[-87.67136,36.20614],[-87.67185,36.20648],[-87.67266,36.20744],[-87.67313,36.20771],[-87.67556,36.20861],[-87.67632,36.20857],[-87.67708,36.20898],[-87.67816,36.21027],[-87.67905,36.21196],[-87.67978,36.21257],[-87.68049,36.21278],[-87.68142,36.21269],[-87.68219,36.21284],[-87.68304,36.21265],[-87.68432,36.21197],[-87.68595,36.21161],[-87.68749,36.21187],[-87.68864,36.21144],[-87.69119,36.21005],[-87.69221,36.21027],[-87.69595,36.21058],[-87.6963,36.21085],[-87.69673,36.21162],[-87.69722,36.21191],[-87.70115,36.21172],[-87.70162,36.21208],[-87.70211,36.21298],[-87.70397,36.21399],[-87.7054,36.21408],[-87.70614,36.21388],[-87.70664,36.21422],[-87.704,36.21399],[-87.70674,36.2143],[-87.71067,36.21553],[-87.71307,36.21565],[-87.71346,36.21558],[-87.71386,36.21494],[-87.71503,36.21434],[-87.71548,36.21275],[-87.71544,36.21173],[-87.71608,36.21003],[-87.71736,36.20909],[-87.71856,36.2087],[-87.71943,36.20867],[-87.72,36.20838],[-87.7204,36.20795],[-87.72205,36.20814],[-87.7232,36.20881],[-87.72444,36.2103],[-87.7249,36.21113],[-87.72554,36.2116],[-87.72598,36.21162],[-87.72685,36.21124],[-87.72801,36.21128],[-87.72968,36.21081],[-87.73036,36.21095],[-87.73172,36.2118],[-87.73193,36.21177],[-87.73235,36.21135],[-87.73268,36.2113],[-87.73353,36.21214],[-87.73452,36.21255],[-87.7353,36.21317],[-87.73659,36.21462],[-87.73642,36.21504],[-87.73549,36.21548],[-87.7352,36.21591],[-87.7368,36.21876],[-87.73836,36.21959],[-87.7386,36.22071],[-87.73895,36.22126],[-87.74023,36.22234],[-87.74184,36.22312],[-87.74341,36.22359],[-87.74358,36.22348],[-87.74449,36.22217],[-87.74658,36.2205],[-87.74692,36.21992],[-87.74879,36.21833],[-87.75002,36.21761],[-87.75098,36.21786],[-87.75148,36.21904],[-87.7529,36.21975],[-87.75325,36.2211],[-87.75322,36.22216],[-87.75384,36.22369],[-87.75428,36.22451],[-87.75485,36.22512],[-87.75623,36.22602],[-87.75692,36.22604],[-87.75859,36.22652],[-87.76227,36.22602],[-87.76325,36.22648],[-87.76485,36.22662],[-87.7667,36.22712],[-87.76747,36.22684],[-87.76783,36.22625],[-87.76988,36.22495],[-87.77085,36.22477],[-87.77203,36.22506],[-87.77368,36.22742],[-87.77478,36.22817],[-87.77503,36.22821],[-87.77564,36.22782],[-87.77591,36.2278],[-87.77667,36.2282],[-87.77799,36.22913],[-87.77865,36.23017],[-87.77855,36.23086],[-87.77799,36.232],[-87.7779,36.2332],[-87.77699,36.23406],[-87.77678,36.2346],[-87.77681,36.23527],[-87.77734,36.23591],[-87.77929,36.23631],[-87.78031,36.23608],[-87.78087,36.23615],[-87.78159,36.23751],[-87.78549,36.23968],[-87.78702,36.24027],[-87.78755,36.24087],[-87.78791,36.24164],[-87.78824,36.2419],[-87.78917,36.24184],[-87.79141,36.24136],[-87.7927,36.24072],[-87.79323,36.24066],[-87.79412,36.24097],[-87.79417,36.24132],[-87.79251,36.24254],[-87.79099,36.24411],[-87.7908,36.24476],[-87.79138,36.2457],[-87.79218,36.24602],[-87.79469,36.2464],[-87.79744,36.24592],[-87.79969,36.24486],[-87.80035,36.24503],[-87.80227,36.24617],[-87.80336,36.24753],[-87.80365,36.24859],[-87.80373,36.25016],[-87.80337,36.25157],[-87.80348,36.25187],[-87.8038,36.25208],[-87.80441,36.25212],[-87.80782,36.25086],[-87.80898,36.2502],[-87.81082,36.24874],[-87.8114,36.24859],[-87.8121,36.2487],[-87.81228,36.24886],[-87.8127,36.24997],[-87.81277,36.25144],[-87.81241,36.25262],[-87.8125,36.25319],[-87.81282,36.25344],[-87.81359,36.25354],[-87.81453,36.25305],[-87.81572,36.2512],[-87.81573,36.24969],[-87.81646,36.24898],[-87.81695,36.24801],[-87.81852,36.24765],[-87.82044,36.24781],[-87.82134,36.24806],[-87.82402,36.24993],[-87.82541,36.25129],[-87.82592,36.25245],[-87.82612,36.25545],[-87.82642,36.25616],[-87.82793,36.25844],[-87.82874,36.25937],[-87.83037,36.26015],[-87.83134,36.26029],[-87.83423,36.26026],[-87.83987,36.25936],[-87.84226,36.2593],[-87.84265,36.25946],[-87.84294,36.25985],[-87.84306,36.26098],[-87.84345,36.26211],[-87.84416,36.26244],[-87.84466,36.26231],[-87.84565,36.26145],[-87.84802,36.26],[-87.84845,36.2598],[-87.84884,36.25981],[-87.84982,36.26068],[-87.85175,36.26121],[-87.85401,36.26278],[-87.85591,36.26356],[-87.85838,36.26373],[-87.85988,36.26448],[-87.86056,36.26458],[-87.86109,36.26441],[-87.86161,36.26403],[-87.86297,36.26224],[-87.86341,36.26195],[-87.86414,36.26201],[-87.86552,36.26297],[-87.86646,36.26334],[-87.86741,36.26307],[-87.86866,36.26232],[-87.86975,36.26145],[-87.87046,36.26064],[-87.87162,36.25898],[-87.87166,36.25762],[-87.87202,36.25723],[-87.87248,36.25702],[-87.87319,36.25703],[-87.87422,36.25749],[-87.87663,36.25964],[-87.87785,36.26035],[-87.87853,36.26035],[-87.87961,36.25903],[-87.88065,36.2566],[-87.88302,36.2548],[-87.88433,36.25447],[-87.88467,36.25466],[-87.88585,36.25621],[-87.8855,36.25668],[-87.88561,36.25702],[-87.88602,36.25784],[-87.88669,36.25849],[-87.88724,36.25877],[-87.88886,36.25865],[-87.88958,36.25942],[-87.89112,36.25974],[-87.89154,36.26011],[-87.89284,36.2605],[-87.89333,36.26056],[-87.89401,36.26016],[-87.89492,36.26053],[-87.896,36.2606],[-87.89667,36.26079],[-87.90084,36.26324],[-87.90468,36.25974],[-87.90736,36.2586],[-87.91182,36.25889],[-87.91568,36.2604],[-87.91657,36.26031],[-87.92024,36.26061],[-87.92134,36.26054],[-87.92179,36.26038],[-87.92418,36.25875],[-87.92577,36.25792],[-87.92733,36.25659],[-87.93033,36.25494],[-87.93552,36.25408],[-87.94307,36.2519]]]}}
