{"type":"Feature","properties":{"id":"collins-river","name":"Collins River","waterbodyType":"river","throughLakeIds":[],"allowOpenEnds":false,"source":"nhd-hu8-05130107","approximate":false,"labelAnchor":[-85.73184,35.70849],"bounds":[-85.74195,35.31712,-85.54377,35.80591],"crs":"EPSG:4326","coordinateOrder":"longitude,latitude","partCount":1,"vertexCount":721,"lengthKm":113.61,"sourceIds":["51180571","51180597","51180773","51180769","51180767","51180761","51180799","51180877","51181317","51181463","51181483","51181651","51181679","51181743","51181665","51181857","51181979","51182137","51182159","51182221","51182487","51182541","51182809","51182865","51182927","51182997","51183121","51183141","51183139","51183149","51183151","51183157","51183175","51183183","51183219","51183223","51183267","51183293","51183373","51183377","51183509","51183525","51183535","51183587","51183769","51183781","51183797","51183947","51184013","51184029","51184121","51184165","51184229","51184269","51184389","51184439","51184469","51184477","51184493","51184525","51184529","51184547","51184553","51184591","51184621","51184703","51184717","51184735","51184795","51184861","51184913","51184977","51184979","51184973","51184985","51185031","51185057","51185069","51180323","51180305","51180257","51180119","51179851","51179837","51179853","51179909","51179907","51179891","51179819","51179681","51179513","51179455","51179359","51179207"],"sourceRetrieved":"2026-09-11","geometrySource":"nhd","hu8":"05130107","simplification":{"toleranceM":10,"verticesBefore":1564,"verticesAfter":721,"budgetBytes":81920},"trace":{"anchor":{"lat":35.7083,"lon":-85.7318,"snapDistM":21.9},"up":{"spec":"headwater","reason":"headwater","terminus":[-85.585622,35.317121],"distKmFromAnchor":82.28},"down":{"spec":"mouth","reason":"terminal-node","terminus":[-85.6205,35.800084],"enteredNames":null,"distKmFromAnchor":30.53},"vaaUsed":false,"toleranceM":12}},"geometry":{"type":"MultiLineString","coordinates":[[[-85.58562,35.31712],[-85.58408,35.3186],[-85.58353,35.31944],[-85.5824,35.32006],[-85.5804,35.32174],[-85.57973,35.32292],[-85.57875,35.32415],[-85.57776,35.32502],[-85.57475,35.32874],[-85.57404,35.32928],[-85.57355,35.33039],[-85.57345,35.33134],[-85.57187,35.33304],[-85.57209,35.33411],[-85.57169,35.33482],[-85.57191,35.337],[-85.57268,35.33793],[-85.57254,35.33838],[-85.57199,35.33875],[-85.57154,35.3402],[-85.57172,35.34057],[-85.57159,35.34111],[-85.57115,35.34167],[-85.57125,35.34224],[-85.57094,35.3433],[-85.57105,35.3436],[-85.57068,35.34377],[-85.57059,35.344],[-85.57076,35.3464],[-85.57032,35.34712],[-85.56832,35.34861],[-85.56736,35.34977],[-85.56643,35.34949],[-85.56553,35.35045],[-85.56483,35.35083],[-85.5627,35.3516],[-85.56209,35.35204],[-85.56131,35.35222],[-85.56056,35.35194],[-85.56027,35.35157],[-85.56054,35.35051],[-85.56014,35.34818],[-85.55895,35.34739],[-85.55846,35.34727],[-85.55818,35.34734],[-85.55683,35.349],[-85.55596,35.34961],[-85.55553,35.35029],[-85.55487,35.35067],[-85.55429,35.35058],[-85.55345,35.35113],[-85.55344,35.35155],[-85.5532,35.35185],[-85.55342,35.35236],[-85.55292,35.35268],[-85.5528,35.35327],[-85.55193,35.35468],[-85.55135,35.35479],[-85.55023,35.35583],[-85.54954,35.35715],[-85.54951,35.35771],[-85.54895,35.35835],[-85.54814,35.35852],[-85.5478,35.35913],[-85.54395,35.35899],[-85.54377,35.35909],[-85.5447,35.36049],[-85.54478,35.3618],[-85.54499,35.36198],[-85.54661,35.36238],[-85.54757,35.36298],[-85.54778,35.36392],[-85.54721,35.36503],[-85.54747,35.3656],[-85.5482,35.36587],[-85.55019,35.36591],[-85.55135,35.36725],[-85.55206,35.36781],[-85.55263,35.36792],[-85.55271,35.36856],[-85.55377,35.36994],[-85.55343,35.37081],[-85.55295,35.37114],[-85.55275,35.37164],[-85.55393,35.37187],[-85.55408,35.37216],[-85.55438,35.37225],[-85.55456,35.37284],[-85.5525,35.37403],[-85.55238,35.37424],[-85.55249,35.37518],[-85.55143,35.37625],[-85.5516,35.37653],[-85.55204,35.37661],[-85.55345,35.37658],[-85.55434,35.37672],[-85.55502,35.37692],[-85.5553,35.37727],[-85.55538,35.37756],[-85.55497,35.37879],[-85.55494,35.37954],[-85.5541,35.38101],[-85.55428,35.3813],[-85.55518,35.38143],[-85.55523,35.38171],[-85.55394,35.38245],[-85.55349,35.38339],[-85.55422,35.38425],[-85.55465,35.38522],[-85.55559,35.38556],[-85.55525,35.38653],[-85.55587,35.38782],[-85.55645,35.38808],[-85.55727,35.38912],[-85.55785,35.38932],[-85.55857,35.38928],[-85.5595,35.38961],[-85.56086,35.39063],[-85.56134,35.39042],[-85.56161,35.38976],[-85.56201,35.38965],[-85.56516,35.39015],[-85.56603,35.39286],[-85.56635,35.39307],[-85.56891,35.39285],[-85.57067,35.39301],[-85.57159,35.39276],[-85.57238,35.39302],[-85.57377,35.3948],[-85.57491,35.39557],[-85.57663,35.39599],[-85.57906,35.39591],[-85.58141,35.39649],[-85.58144,35.3968],[-85.58083,35.39768],[-85.58081,35.39818],[-85.58123,35.39854],[-85.58245,35.39864],[-85.58298,35.39905],[-85.58289,35.39986],[-85.58351,35.40059],[-85.58374,35.40118],[-85.58401,35.40142],[-85.58483,35.40162],[-85.58553,35.40201],[-85.58572,35.40315],[-85.58782,35.40373],[-85.58785,35.40411],[-85.58686,35.40497],[-85.58678,35.40551],[-85.5877,35.40623],[-85.58792,35.40719],[-85.58891,35.40917],[-85.58971,35.40991],[-85.59059,35.41011],[-85.59091,35.41067],[-85.59201,35.41095],[-85.59236,35.41164],[-85.59345,35.41214],[-85.59394,35.41349],[-85.59438,35.41402],[-85.59566,35.41647],[-85.59568,35.41737],[-85.59537,35.4185],[-85.59547,35.41913],[-85.59623,35.41983],[-85.59823,35.42079],[-85.59933,35.42247],[-85.5993,35.42432],[-85.5998,35.42468],[-85.59975,35.4254],[-85.60006,35.42594],[-85.59985,35.42717],[-85.60104,35.42771],[-85.60158,35.42822],[-85.60171,35.42892],[-85.60273,35.42939],[-85.60299,35.4293],[-85.6033,35.42888],[-85.60367,35.42898],[-85.60428,35.42939],[-85.60478,35.4302],[-85.60434,35.4307],[-85.60433,35.43227],[-85.60402,35.43415],[-85.60384,35.43453],[-85.60314,35.43509],[-85.60283,35.43576],[-85.60356,35.43768],[-85.60394,35.44001],[-85.60443,35.44077],[-85.60599,35.44243],[-85.60655,35.44281],[-85.60726,35.44305],[-85.60877,35.44293],[-85.61075,35.44407],[-85.61426,35.44696],[-85.6156,35.44844],[-85.61591,35.44839],[-85.61709,35.44901],[-85.61823,35.44904],[-85.61987,35.45009],[-85.62047,35.45028],[-85.6209,35.45022],[-85.62126,35.45041],[-85.62143,35.45112],[-85.62195,35.45193],[-85.62327,35.45336],[-85.62365,35.45412],[-85.62351,35.45473],[-85.62373,35.45517],[-85.62491,35.45638],[-85.62587,35.45841],[-85.62653,35.45888],[-85.62722,35.45906],[-85.62747,35.45996],[-85.62802,35.46071],[-85.62986,35.46187],[-85.63065,35.46217],[-85.63124,35.46282],[-85.63123,35.46332],[-85.63159,35.46383],[-85.63196,35.46516],[-85.63157,35.46612],[-85.63157,35.46642],[-85.63212,35.46748],[-85.63162,35.46949],[-85.63187,35.46999],[-85.63244,35.47025],[-85.63338,35.47021],[-85.63419,35.47064],[-85.63483,35.4714],[-85.63521,35.47252],[-85.6373,35.47442],[-85.63891,35.47462],[-85.64089,35.47517],[-85.64157,35.47555],[-85.64166,35.47594],[-85.64127,35.47714],[-85.64273,35.47771],[-85.64582,35.47948],[-85.64626,35.47963],[-85.64718,35.47955],[-85.64929,35.47974],[-85.65078,35.47966],[-85.65146,35.47983],[-85.65221,35.48033],[-85.65246,35.48063],[-85.65262,35.48161],[-85.65352,35.48308],[-85.65346,35.48415],[-85.65223,35.48551],[-85.65192,35.48628],[-85.65205,35.48691],[-85.65283,35.48757],[-85.65298,35.48791],[-85.65316,35.49159],[-85.65336,35.49218],[-85.6539,35.49274],[-85.65439,35.49302],[-85.65517,35.49323],[-85.65572,35.49318],[-85.65653,35.49346],[-85.65748,35.49459],[-85.65926,35.49577],[-85.65973,35.49573],[-85.6602,35.49495],[-85.66071,35.4947],[-85.66294,35.49503],[-85.66332,35.4954],[-85.66351,35.49631],[-85.66602,35.49869],[-85.66617,35.49941],[-85.66604,35.50007],[-85.66515,35.50042],[-85.66457,35.50098],[-85.66411,35.50233],[-85.66422,35.5035],[-85.66498,35.50504],[-85.6659,35.50586],[-85.66798,35.50674],[-85.66955,35.50687],[-85.66994,35.50758],[-85.66983,35.50845],[-85.66916,35.50913],[-85.66889,35.50994],[-85.66864,35.51119],[-85.66867,35.51188],[-85.66889,35.51217],[-85.67155,35.5137],[-85.67196,35.5138],[-85.67218,35.51374],[-85.67285,35.51252],[-85.67388,35.51171],[-85.67454,35.5115],[-85.67485,35.51165],[-85.67561,35.513],[-85.6756,35.51398],[-85.67418,35.51806],[-85.6745,35.51828],[-85.67479,35.5189],[-85.67554,35.51971],[-85.67653,35.52026],[-85.67689,35.52076],[-85.67707,35.52175],[-85.67801,35.5235],[-85.67799,35.52375],[-85.68132,35.52657],[-85.68381,35.52734],[-85.68446,35.529],[-85.68486,35.52933],[-85.68556,35.52947],[-85.6882,35.52935],[-85.68948,35.52914],[-85.68988,35.52924],[-85.69068,35.52907],[-85.69252,35.529],[-85.69393,35.52869],[-85.69573,35.52892],[-85.69645,35.52954],[-85.69656,35.52979],[-85.69634,35.53038],[-85.69539,35.53102],[-85.69364,35.53149],[-85.69294,35.53185],[-85.68814,35.53246],[-85.68753,35.53282],[-85.68769,35.53344],[-85.68815,35.53415],[-85.68988,35.5357],[-85.69378,35.53825],[-85.69385,35.53882],[-85.69198,35.5405],[-85.69184,35.54273],[-85.69198,35.54294],[-85.69358,35.54352],[-85.695,35.54467],[-85.69563,35.54534],[-85.6958,35.54574],[-85.69575,35.54632],[-85.695,35.54701],[-85.69455,35.54719],[-85.69368,35.54726],[-85.69026,35.54615],[-85.68939,35.54597],[-85.68817,35.546],[-85.68502,35.5467],[-85.68439,35.54704],[-85.68376,35.54796],[-85.68377,35.54844],[-85.68442,35.54946],[-85.68487,35.54981],[-85.68531,35.5499],[-85.68676,35.54994],[-85.69072,35.54962],[-85.69159,35.5498],[-85.69266,35.5504],[-85.69352,35.55177],[-85.69358,35.55212],[-85.69327,35.55297],[-85.69358,35.55393],[-85.69352,35.5549],[-85.69333,35.55513],[-85.68928,35.55532],[-85.68753,35.55563],[-85.68677,35.556],[-85.68644,35.55636],[-85.686,35.55742],[-85.6865,35.55875],[-85.68653,35.56031],[-85.68681,35.56072],[-85.68726,35.56101],[-85.6879,35.56101],[-85.68952,35.55986],[-85.69112,35.55896],[-85.69624,35.55712],[-85.69689,35.55705],[-85.69771,35.5572],[-85.69893,35.55765],[-85.69942,35.55812],[-85.69953,35.5587],[-85.69882,35.56167],[-85.69786,35.56382],[-85.69766,35.56471],[-85.6979,35.56561],[-85.69839,35.5662],[-85.69973,35.56687],[-85.70149,35.56654],[-85.7025,35.56652],[-85.70289,35.56671],[-85.70357,35.56743],[-85.70398,35.56861],[-85.70282,35.56943],[-85.70088,35.57009],[-85.70031,35.5706],[-85.70004,35.5711],[-85.70004,35.57264],[-85.70049,35.57436],[-85.70195,35.57607],[-85.70338,35.57718],[-85.70438,35.57767],[-85.7048,35.578],[-85.70485,35.5783],[-85.70463,35.5785],[-85.70361,35.57875],[-85.7029,35.57913],[-85.70179,35.58023],[-85.70064,35.58211],[-85.69975,35.58516],[-85.6999,35.58738],[-85.69969,35.58908],[-85.69891,35.59059],[-85.69904,35.59113],[-85.69939,35.5917],[-85.70192,35.59338],[-85.70387,35.59401],[-85.70704,35.59477],[-85.70815,35.59524],[-85.70838,35.59556],[-85.70799,35.59647],[-85.70684,35.598],[-85.70563,35.59926],[-85.70312,35.60095],[-85.69993,35.6042],[-85.6995,35.60438],[-85.69849,35.60531],[-85.69795,35.60547],[-85.69754,35.60536],[-85.69661,35.60466],[-85.69626,35.60278],[-85.69565,35.60212],[-85.69522,35.60206],[-85.6949,35.60218],[-85.69462,35.60252],[-85.69415,35.60423],[-85.69455,35.60807],[-85.69567,35.6118],[-85.69623,35.61263],[-85.69815,35.61781],[-85.69872,35.61973],[-85.6995,35.6236],[-85.6993,35.6243],[-85.69795,35.62689],[-85.69696,35.62796],[-85.69379,35.62988],[-85.68992,35.63156],[-85.68925,35.63159],[-85.68889,35.63116],[-85.68875,35.6305],[-85.68917,35.62845],[-85.68971,35.62292],[-85.68954,35.62066],[-85.68919,35.6198],[-85.68878,35.61942],[-85.68532,35.61792],[-85.68438,35.6178],[-85.68277,35.61787],[-85.68124,35.61851],[-85.68051,35.61903],[-85.67966,35.62013],[-85.67938,35.62103],[-85.67966,35.62153],[-85.68012,35.62183],[-85.68217,35.62209],[-85.68484,35.62193],[-85.68539,35.62232],[-85.68513,35.62324],[-85.68345,35.62507],[-85.6835,35.62581],[-85.68092,35.63027],[-85.68061,35.63108],[-85.68085,35.63187],[-85.68139,35.63228],[-85.68357,35.63333],[-85.68797,35.6347],[-85.68962,35.63493],[-85.69132,35.63578],[-85.70156,35.63796],[-85.70288,35.63835],[-85.7041,35.63938],[-85.70467,35.64026],[-85.70486,35.64101],[-85.70487,35.64164],[-85.70426,35.64293],[-85.70298,35.64388],[-85.70195,35.64403],[-85.70116,35.64359],[-85.70012,35.64255],[-85.69878,35.64154],[-85.69736,35.64083],[-85.69569,35.64041],[-85.6936,35.64064],[-85.69209,35.64148],[-85.6904,35.64282],[-85.68842,35.64483],[-85.68685,35.64605],[-85.68496,35.6472],[-85.6844,35.64777],[-85.68415,35.64929],[-85.68433,35.65015],[-85.68483,35.65112],[-85.68832,35.65394],[-85.6909,35.65658],[-85.69122,35.65738],[-85.69249,35.6658],[-85.69236,35.66694],[-85.69202,35.66739],[-85.69154,35.66758],[-85.69108,35.66755],[-85.68903,35.66683],[-85.68769,35.66673],[-85.68685,35.66725],[-85.68682,35.66779],[-85.68922,35.67059],[-85.69077,35.67203],[-85.69223,35.67384],[-85.69409,35.67529],[-85.69462,35.67546],[-85.70445,35.67464],[-85.70729,35.67477],[-85.70993,35.67551],[-85.71367,35.67605],[-85.71782,35.67727],[-85.71867,35.67845],[-85.71897,35.68162],[-85.71932,35.68315],[-85.71994,35.68397],[-85.72046,35.68415],[-85.72152,35.68412],[-85.72269,35.68329],[-85.72327,35.68258],[-85.7242,35.68045],[-85.7256,35.67813],[-85.72673,35.67706],[-85.72828,35.67662],[-85.72929,35.67655],[-85.73026,35.67678],[-85.7311,35.67735],[-85.73197,35.67817],[-85.73228,35.67884],[-85.73247,35.68185],[-85.73164,35.68363],[-85.73064,35.68406],[-85.72785,35.68379],[-85.72556,35.68378],[-85.7247,35.68411],[-85.72445,35.68453],[-85.72443,35.68525],[-85.72469,35.68565],[-85.7259,35.68634],[-85.72705,35.68725],[-85.72792,35.68841],[-85.72844,35.68967],[-85.72844,35.69115],[-85.7281,35.6927],[-85.72762,35.69364],[-85.727,35.69403],[-85.726,35.69387],[-85.72499,35.69396],[-85.72244,35.69447],[-85.72197,35.6947],[-85.72172,35.69505],[-85.72156,35.6962],[-85.72172,35.6966],[-85.72289,35.6977],[-85.72714,35.70066],[-85.72852,35.70206],[-85.7288,35.70287],[-85.72846,35.70353],[-85.72487,35.70686],[-85.72438,35.708],[-85.72455,35.7086],[-85.725,35.70916],[-85.72568,35.70941],[-85.72679,35.70935],[-85.73268,35.70837],[-85.73587,35.70827],[-85.73706,35.70834],[-85.73791,35.7086],[-85.73855,35.70902],[-85.73184,35.70849],[-85.73934,35.70959],[-85.74175,35.71333],[-85.74195,35.71441],[-85.74124,35.71887],[-85.74112,35.71921],[-85.74075,35.71949],[-85.74046,35.72053],[-85.73961,35.72139],[-85.73778,35.72211],[-85.73644,35.72292],[-85.73288,35.72915],[-85.73282,35.73027],[-85.73434,35.73507],[-85.73451,35.73643],[-85.73433,35.7371],[-85.73378,35.73763],[-85.73215,35.73821],[-85.72854,35.73897],[-85.72713,35.7396],[-85.72655,35.74022],[-85.72645,35.74091],[-85.72664,35.74151],[-85.7304,35.7454],[-85.73059,35.74596],[-85.73073,35.74721],[-85.73061,35.74793],[-85.72957,35.7495],[-85.72899,35.75007],[-85.72789,35.7507],[-85.7268,35.75105],[-85.7251,35.75097],[-85.72443,35.75057],[-85.72229,35.74858],[-85.72027,35.74721],[-85.71754,35.74597],[-85.717,35.74605],[-85.71571,35.74562],[-85.71376,35.74393],[-85.71285,35.74294],[-85.70906,35.74161],[-85.70288,35.7436],[-85.69978,35.74484],[-85.69893,35.74551],[-85.6983,35.74639],[-85.69816,35.7471],[-85.69857,35.74926],[-85.69991,35.75096],[-85.70061,35.75138],[-85.70629,35.75229],[-85.70784,35.75223],[-85.70922,35.75182],[-85.71233,35.75147],[-85.71492,35.75149],[-85.71604,35.75186],[-85.71702,35.75267],[-85.71737,35.75367],[-85.71755,35.75486],[-85.7173,35.7557],[-85.7161,35.75722],[-85.71533,35.75763],[-85.71359,35.75792],[-85.70939,35.75819],[-85.70764,35.75859],[-85.70665,35.75934],[-85.7062,35.76095],[-85.70691,35.76349],[-85.70756,35.76388],[-85.70845,35.76396],[-85.71219,35.76293],[-85.71346,35.76298],[-85.71411,35.76329],[-85.71442,35.76364],[-85.71457,35.76449],[-85.71418,35.76525],[-85.71318,35.76589],[-85.71021,35.7662],[-85.70824,35.76591],[-85.70584,35.7652],[-85.70411,35.76502],[-85.70255,35.76528],[-85.70136,35.76618],[-85.70101,35.76733],[-85.70146,35.76856],[-85.70211,35.76906],[-85.70417,35.7697],[-85.70665,35.77084],[-85.70795,35.772],[-85.70877,35.77358],[-85.7086,35.77511],[-85.70749,35.77687],[-85.70587,35.77808],[-85.70478,35.77826],[-85.70295,35.77812],[-85.69694,35.77714],[-85.69572,35.77713],[-85.69071,35.77757],[-85.68761,35.77808],[-85.68025,35.78154],[-85.67468,35.78273],[-85.66732,35.78247],[-85.66483,35.78287],[-85.66282,35.78472],[-85.66202,35.78615],[-85.65906,35.78909],[-85.65699,35.79018],[-85.65356,35.79074],[-85.65116,35.79059],[-85.64593,35.78699],[-85.64395,35.78617],[-85.64026,35.78614],[-85.63902,35.78685],[-85.63881,35.78817],[-85.63968,35.79002],[-85.64622,35.79395],[-85.6477,35.79438],[-85.65104,35.79628],[-85.65198,35.79806],[-85.65138,35.80036],[-85.64948,35.80154],[-85.64726,35.80162],[-85.64602,35.80076],[-85.64407,35.79875],[-85.64265,35.79882],[-85.64105,35.79972],[-85.63994,35.8023],[-85.63973,35.80503],[-85.63851,35.80591],[-85.6372,35.80581],[-85.63631,35.80518],[-85.63555,35.80391],[-85.63543,35.79876],[-85.63434,35.79613],[-85.63301,35.79462],[-85.63142,35.79381],[-85.6292,35.79344],[-85.62676,35.79354],[-85.62498,35.79397],[-85.62199,35.79576],[-85.62102,35.79784],[-85.6205,35.80008]]]}}
