{"type":"Feature","properties":{"id":"obey-river","name":"Obey River (Dale Hollow tailwater)","waterbodyType":"tailrace","throughLakeIds":[],"allowOpenEnds":false,"source":"nhd-hu8-05130105","approximate":false,"labelAnchor":[-85.45497,36.53673],"bounds":[-85.51216,36.52481,-85.45113,36.55858],"crs":"EPSG:4326","coordinateOrder":"longitude,latitude","partCount":1,"vertexCount":58,"lengthKm":12.38,"sourceIds":["48157243","48157145","48157140","48157057","48157476","48157703","48157756","48157721","48157654","48157589","48156727","48156687","48156631","48156753"],"sourceRetrieved":"2026-09-11","geometrySource":"nhd","hu8":"05130105","simplification":{"toleranceM":10,"verticesBefore":115,"verticesAfter":58,"budgetBytes":81920},"trace":{"anchor":{"lat":36.5373,"lon":-85.4552,"snapDistM":66.6},"up":{"spec":"dam:Dale Hollow Lake","reason":"dam","terminus":[-85.451132,36.537138],"distKmFromAnchor":0.79},"down":{"spec":"mouth","reason":"terminal-node","terminus":[-85.512165,36.55519],"enteredNames":null,"distKmFromAnchor":11.22},"vaaUsed":false,"toleranceM":12}},"geometry":{"type":"MultiLineString","coordinates":[[[-85.45113,36.53714],[-85.45189,36.53702],[-85.45258,36.53726],[-85.45578,36.53652],[-85.45712,36.53649],[-85.45497,36.53673],[-85.45787,36.53672],[-85.46258,36.53888],[-85.46579,36.53994],[-85.46832,36.54102],[-85.47126,36.54266],[-85.47234,36.54309],[-85.47623,36.54394],[-85.47784,36.54409],[-85.47922,36.54399],[-85.48011,36.54374],[-85.48137,36.54297],[-85.48227,36.54158],[-85.48244,36.54034],[-85.48173,36.53851],[-85.48127,36.53778],[-85.47993,36.53648],[-85.47619,36.5335],[-85.47435,36.5322],[-85.4738,36.532],[-85.47297,36.53122],[-85.47199,36.52937],[-85.47173,36.5285],[-85.47174,36.52744],[-85.47206,36.52655],[-85.4725,36.52593],[-85.47337,36.52528],[-85.4741,36.52493],[-85.47525,36.52481],[-85.47749,36.5253],[-85.47875,36.52569],[-85.4825,36.5273],[-85.4856,36.52819],[-85.48696,36.52889],[-85.49077,36.53031],[-85.49159,36.53092],[-85.4918,36.53207],[-85.49161,36.5336],[-85.49119,36.53491],[-85.48762,36.54131],[-85.48704,36.54255],[-85.4867,36.54431],[-85.48695,36.54736],[-85.48786,36.54996],[-85.4896,36.55208],[-85.49159,36.5539],[-85.49388,36.55566],[-85.49688,36.55694],[-85.4993,36.55821],[-85.50102,36.55858],[-85.50311,36.55843],[-85.50431,36.55812],[-85.51216,36.55519]]]}}
