{"type":"Feature","properties":{"id":"east-fork-stones-river","name":"East Fork Stones River","waterbodyType":"river","throughLakeIds":["j-percy-priest-reservoir"],"allowOpenEnds":false,"source":"nhd-hu8-05130203","approximate":false,"labelAnchor":[-86.33358,35.91847],"bounds":[-86.45875,35.81018,-85.94935,35.98894],"crs":"EPSG:4326","coordinateOrder":"longitude,latitude","partCount":1,"vertexCount":643,"lengthKm":87.03,"sourceIds":["51411861","51411859","51411815","51411887","51411895","51411967","51411971","51411985","51411995","51412009","51412001","51411951","51412011","51412033","51412063","51412061","51412075","51412093","51412101","51412111","51412119","51412143","51412163","51412183","51412201","51412205","51412221","51412243","51412249","51412257","51412265","51412301","51412313","51412319","51412321","51412293","51412285","51412275","51412303","51412283","51412259","51412251","51412261","51412231","51412245","51412211","51412217","51412215","51412189","51412175","51412147","51408581","51408577","51408563","51408571","51408553","51408541","51408521","51408513","51408551","51408547","51408543","51408517","51408491","51408485","51408465","51408455","51408445","51408399","51408353","51408351","51408275","51408185","51408181","51411837","51411835","51411843","51411823","51411801","51411729","51411747","51411733","51411715","51411695","51411673","51411667","51411641","51411631","51411637","51411635","51411613","51411619","51411621","51411609"],"sourceRetrieved":"2026-09-11","geometrySource":"nhd","hu8":"05130203","simplification":{"toleranceM":10,"verticesBefore":1246,"verticesAfter":643,"budgetBytes":81920},"trace":{"anchor":{"lat":35.9184,"lon":-86.3339,"snapDistM":29.5},"up":{"spec":"headwater","reason":"headwater","terminus":[-85.949347,35.844726],"distKmFromAnchor":62.15},"down":{"spec":"mouth","reason":"name-change","terminus":[-86.458698,35.98558],"enteredNames":["West Fork Stones River","Stones River"],"distKmFromAnchor":24.78},"vaaUsed":false,"toleranceM":12}},"geometry":{"type":"MultiLineString","coordinates":[[[-85.94935,35.84473],[-85.95043,35.8457],[-85.95151,35.84634],[-85.95328,35.84694],[-85.9539,35.84686],[-85.95543,35.84567],[-85.9574,35.84551],[-85.9582,35.84508],[-85.95919,35.84486],[-85.96045,35.84419],[-85.96268,35.84464],[-85.96477,35.84563],[-85.96578,35.84566],[-85.96655,35.84529],[-85.96753,35.8438],[-85.9689,35.84363],[-85.96973,35.84315],[-85.96987,35.84265],[-85.97099,35.84228],[-85.97138,35.84228],[-85.97225,35.84166],[-85.97253,35.84026],[-85.97461,35.83787],[-85.97509,35.83768],[-85.97559,35.8377],[-85.97595,35.83789],[-85.9778,35.83727],[-85.98011,35.83804],[-85.98176,35.83808],[-85.98247,35.83796],[-85.98386,35.83746],[-85.98481,35.83668],[-85.98593,35.8366],[-85.98699,35.83628],[-85.98918,35.83521],[-85.99103,35.83452],[-85.99202,35.83441],[-85.99383,35.83457],[-85.99421,35.83421],[-85.99474,35.83313],[-85.99525,35.83294],[-85.99586,35.83206],[-85.99775,35.83225],[-85.99846,35.83206],[-85.99957,35.83134],[-86.00074,35.83161],[-86.00288,35.83165],[-86.00529,35.83109],[-86.00783,35.83023],[-86.00889,35.83024],[-86.01044,35.82914],[-86.01429,35.82749],[-86.01544,35.82715],[-86.01659,35.82727],[-86.01883,35.82803],[-86.02085,35.82794],[-86.02159,35.8282],[-86.02224,35.82883],[-86.02382,35.82912],[-86.02462,35.82946],[-86.02649,35.82939],[-86.02699,35.82925],[-86.02837,35.82825],[-86.03014,35.82836],[-86.0311,35.8288],[-86.03204,35.82878],[-86.0334,35.82968],[-86.03391,35.83062],[-86.03425,35.83187],[-86.03474,35.8323],[-86.0357,35.83224],[-86.03732,35.83158],[-86.0397,35.83149],[-86.04071,35.83168],[-86.04205,35.83123],[-86.04367,35.83117],[-86.04488,35.83177],[-86.04529,35.83162],[-86.04571,35.83165],[-86.04679,35.83084],[-86.04863,35.83007],[-86.05001,35.83061],[-86.05193,35.83091],[-86.0539,35.83044],[-86.05573,35.83044],[-86.05651,35.83002],[-86.05889,35.82969],[-86.06085,35.83052],[-86.06229,35.83099],[-86.0634,35.83109],[-86.06437,35.8315],[-86.06715,35.83088],[-86.06829,35.82985],[-86.069,35.82954],[-86.07048,35.82944],[-86.07099,35.82959],[-86.0725,35.82932],[-86.07477,35.82936],[-86.07587,35.82923],[-86.07738,35.82764],[-86.07836,35.82699],[-86.07912,35.82617],[-86.07948,35.82616],[-86.08091,35.82674],[-86.08152,35.82668],[-86.08186,35.82631],[-86.08194,35.82595],[-86.08207,35.8233],[-86.08221,35.82295],[-86.08255,35.82264],[-86.08369,35.82221],[-86.08744,35.82248],[-86.09214,35.82381],[-86.09367,35.8238],[-86.09483,35.82365],[-86.09555,35.82329],[-86.09709,35.82215],[-86.09934,35.82164],[-86.10076,35.8204],[-86.10123,35.82041],[-86.10186,35.82079],[-86.10242,35.82147],[-86.1026,35.82184],[-86.10251,35.82256],[-86.10281,35.82334],[-86.10371,35.82435],[-86.10465,35.82497],[-86.1054,35.82495],[-86.10673,35.82436],[-86.10807,35.82321],[-86.10837,35.82267],[-86.10855,35.82163],[-86.10805,35.82043],[-86.10791,35.8191],[-86.10839,35.81781],[-86.10868,35.81741],[-86.1091,35.81723],[-86.11144,35.81756],[-86.11229,35.81792],[-86.11282,35.81828],[-86.1144,35.82014],[-86.11481,35.82035],[-86.11678,35.82013],[-86.11712,35.81986],[-86.11719,35.81928],[-86.117,35.8189],[-86.11553,35.81783],[-86.11586,35.81744],[-86.11664,35.81711],[-86.11762,35.81694],[-86.11922,35.81687],[-86.12015,35.81703],[-86.12542,35.81879],[-86.12661,35.81883],[-86.12948,35.81851],[-86.12993,35.81856],[-86.13134,35.81941],[-86.13213,35.8201],[-86.1325,35.82075],[-86.13243,35.82136],[-86.13174,35.822],[-86.13193,35.82256],[-86.13224,35.82271],[-86.13312,35.82255],[-86.13557,35.82162],[-86.13718,35.82117],[-86.13779,35.82067],[-86.13767,35.81947],[-86.13737,35.81888],[-86.13702,35.81708],[-86.13684,35.81681],[-86.13595,35.81622],[-86.13536,35.81485],[-86.1358,35.81341],[-86.13704,35.81139],[-86.13759,35.81111],[-86.13897,35.81174],[-86.14048,35.8129],[-86.14071,35.81312],[-86.14101,35.81403],[-86.14134,35.81426],[-86.14251,35.81462],[-86.14278,35.81503],[-86.14302,35.81635],[-86.14388,35.81687],[-86.14438,35.81697],[-86.14579,35.81656],[-86.14855,35.81442],[-86.14945,35.81403],[-86.15165,35.81365],[-86.15227,35.81335],[-86.15249,35.8126],[-86.15221,35.81159],[-86.15274,35.81111],[-86.1534,35.81081],[-86.15382,35.81031],[-86.15416,35.81021],[-86.15628,35.81038],[-86.15699,35.81018],[-86.1573,35.8104],[-86.15774,35.81183],[-86.15816,35.81234],[-86.15869,35.81264],[-86.15966,35.81287],[-86.16108,35.81267],[-86.16229,35.81276],[-86.16297,35.81311],[-86.16356,35.81294],[-86.16443,35.81237],[-86.16512,35.81239],[-86.16618,35.8127],[-86.16695,35.81317],[-86.16745,35.81407],[-86.16754,35.81633],[-86.16939,35.81888],[-86.17198,35.82048],[-86.17296,35.82064],[-86.17456,35.82057],[-86.17589,35.82135],[-86.17764,35.82212],[-86.17784,35.82238],[-86.17814,35.8235],[-86.17789,35.8241],[-86.17638,35.82565],[-86.1759,35.82584],[-86.17551,35.82644],[-86.17551,35.82674],[-86.17567,35.82705],[-86.17628,35.82748],[-86.17829,35.82869],[-86.17829,35.82977],[-86.17817,35.82993],[-86.177,35.8303],[-86.17675,35.83061],[-86.17678,35.8311],[-86.17703,35.83143],[-86.17937,35.83321],[-86.17985,35.83382],[-86.18009,35.83426],[-86.18034,35.83582],[-86.18055,35.8361],[-86.18179,35.83667],[-86.18516,35.83734],[-86.18645,35.83847],[-86.18695,35.83869],[-86.1879,35.83875],[-86.18891,35.8383],[-86.18919,35.83794],[-86.18948,35.83668],[-86.18973,35.83636],[-86.19113,35.83569],[-86.19253,35.83605],[-86.19353,35.837],[-86.19397,35.83818],[-86.19367,35.84025],[-86.19331,35.84108],[-86.19249,35.84215],[-86.19114,35.84338],[-86.19136,35.84418],[-86.19169,35.84467],[-86.1922,35.84637],[-86.19296,35.8473],[-86.19361,35.84769],[-86.19514,35.84805],[-86.19733,35.84799],[-86.19871,35.84834],[-86.19947,35.84895],[-86.20155,35.85166],[-86.20271,35.85232],[-86.20279,35.85315],[-86.20242,35.85353],[-86.20138,35.8539],[-86.20121,35.85412],[-86.20103,35.85506],[-86.20039,35.85651],[-86.20042,35.85719],[-86.20095,35.85861],[-86.2014,35.86158],[-86.20281,35.8634],[-86.20356,35.86384],[-86.20709,35.86524],[-86.20949,35.86483],[-86.20998,35.86513],[-86.21048,35.86585],[-86.21124,35.86607],[-86.2134,35.86591],[-86.21438,35.86562],[-86.21505,35.86493],[-86.21487,35.86274],[-86.21496,35.86189],[-86.21515,35.86161],[-86.2157,35.86128],[-86.21649,35.86132],[-86.21686,35.86148],[-86.21845,35.86348],[-86.21875,35.86433],[-86.21873,35.86537],[-86.21909,35.8662],[-86.22018,35.86702],[-86.22049,35.86752],[-86.2201,35.871],[-86.22018,35.87141],[-86.22075,35.87219],[-86.22075,35.87408],[-86.22108,35.8747],[-86.22493,35.87464],[-86.22669,35.87286],[-86.22826,35.87212],[-86.22899,35.87227],[-86.22985,35.87292],[-86.22969,35.87429],[-86.22926,35.87506],[-86.22899,35.87764],[-86.22792,35.87892],[-86.22788,35.87922],[-86.22793,35.87998],[-86.22827,35.88093],[-86.22901,35.88164],[-86.23004,35.88179],[-86.23038,35.88173],[-86.23076,35.88143],[-86.23247,35.87929],[-86.23304,35.87828],[-86.23415,35.87792],[-86.2348,35.87738],[-86.23503,35.8761],[-86.2353,35.87577],[-86.23675,35.87468],[-86.23816,35.87401],[-86.23855,35.87397],[-86.23892,35.87402],[-86.23942,35.87443],[-86.23985,35.8754],[-86.23993,35.87643],[-86.23956,35.87834],[-86.23974,35.87948],[-86.24067,35.88031],[-86.24114,35.88096],[-86.24244,35.88159],[-86.24331,35.88143],[-86.24487,35.88047],[-86.2452,35.88052],[-86.24586,35.88099],[-86.24626,35.88162],[-86.24668,35.8819],[-86.24718,35.88207],[-86.24807,35.88203],[-86.24999,35.88125],[-86.2528,35.87979],[-86.25399,35.87805],[-86.25449,35.87687],[-86.25512,35.87652],[-86.25545,35.87653],[-86.25627,35.87684],[-86.25839,35.87814],[-86.25862,35.87855],[-86.25862,35.87906],[-86.25737,35.88105],[-86.25739,35.88133],[-86.25766,35.8815],[-86.25869,35.88157],[-86.26063,35.88063],[-86.26147,35.88052],[-86.26451,35.88062],[-86.26529,35.8814],[-86.26639,35.8836],[-86.26641,35.88409],[-86.26587,35.88605],[-86.26597,35.88692],[-86.26623,35.88726],[-86.2668,35.88753],[-86.26792,35.8876],[-86.26878,35.88726],[-86.26983,35.8859],[-86.27052,35.8835],[-86.27178,35.88261],[-86.27249,35.88255],[-86.27397,35.88277],[-86.27481,35.88336],[-86.27541,35.8842],[-86.27591,35.88453],[-86.27685,35.88446],[-86.27893,35.88386],[-86.27933,35.88393],[-86.27996,35.88448],[-86.28026,35.88513],[-86.28034,35.88772],[-86.28059,35.88815],[-86.28198,35.88916],[-86.28625,35.89148],[-86.28667,35.89197],[-86.28669,35.89291],[-86.28643,35.89346],[-86.28596,35.89363],[-86.28308,35.89402],[-86.28011,35.89522],[-86.27679,35.89578],[-86.27636,35.89604],[-86.2764,35.89675],[-86.2769,35.89722],[-86.27838,35.89935],[-86.28195,35.90269],[-86.28309,35.90329],[-86.28407,35.90355],[-86.28547,35.90372],[-86.28697,35.90341],[-86.28868,35.90331],[-86.28954,35.90374],[-86.29096,35.90511],[-86.29122,35.90512],[-86.29152,35.90497],[-86.29247,35.90359],[-86.29307,35.90191],[-86.29345,35.9013],[-86.29388,35.90105],[-86.29438,35.90101],[-86.29533,35.90131],[-86.29554,35.90167],[-86.29558,35.90229],[-86.29519,35.90333],[-86.29518,35.90444],[-86.29725,35.90638],[-86.29772,35.90727],[-86.29613,35.90966],[-86.29626,35.91062],[-86.29665,35.91128],[-86.29714,35.91152],[-86.30097,35.91281],[-86.30193,35.91397],[-86.30282,35.91634],[-86.30316,35.91667],[-86.30371,35.91675],[-86.30634,35.91656],[-86.30674,35.91661],[-86.30748,35.91708],[-86.30768,35.91777],[-86.30679,35.91918],[-86.30623,35.91982],[-86.30482,35.92023],[-86.30428,35.92066],[-86.30419,35.92095],[-86.30438,35.92135],[-86.30518,35.92204],[-86.30785,35.92377],[-86.30937,35.92402],[-86.31209,35.92383],[-86.31382,35.92401],[-86.31422,35.92393],[-86.31611,35.92277],[-86.31822,35.92063],[-86.31892,35.92035],[-86.31938,35.9204],[-86.31994,35.92072],[-86.32194,35.92295],[-86.32245,35.92382],[-86.32349,35.92648],[-86.32401,35.92692],[-86.32458,35.92711],[-86.32532,35.92717],[-86.32572,35.92701],[-86.32635,35.92626],[-86.32653,35.92557],[-86.3266,35.92443],[-86.32709,35.92217],[-86.32684,35.91963],[-86.32739,35.91803],[-86.32754,35.91704],[-86.32745,35.91658],[-86.3272,35.91632],[-86.32642,35.91595],[-86.32524,35.91568],[-86.32482,35.91537],[-86.32457,35.91476],[-86.32481,35.9138],[-86.32521,35.91322],[-86.32615,35.91241],[-86.32647,35.91234],[-86.32938,35.91302],[-86.33073,35.91373],[-86.33347,35.91814],[-86.33394,35.91954],[-86.33436,35.92013],[-86.33467,35.92023],[-86.33358,35.91847],[-86.33548,35.9203],[-86.33678,35.92023],[-86.33752,35.92007],[-86.33805,35.91979],[-86.33868,35.91897],[-86.33905,35.91787],[-86.33944,35.91746],[-86.34008,35.91721],[-86.34117,35.91709],[-86.34238,35.91736],[-86.3441,35.91805],[-86.34501,35.91862],[-86.34578,35.91937],[-86.34629,35.9202],[-86.34688,35.92193],[-86.3468,35.92237],[-86.34538,35.92436],[-86.34525,35.92493],[-86.34709,35.92714],[-86.34766,35.92757],[-86.34938,35.92748],[-86.35008,35.92719],[-86.35272,35.92518],[-86.35481,35.925],[-86.35749,35.92503],[-86.35855,35.92478],[-86.36017,35.92298],[-86.36073,35.9211],[-86.36121,35.92075],[-86.36196,35.92062],[-86.3624,35.92072],[-86.36584,35.92367],[-86.36645,35.9239],[-86.36715,35.92395],[-86.36782,35.92359],[-86.37027,35.92068],[-86.37136,35.92057],[-86.37269,35.9209],[-86.37295,35.92116],[-86.37366,35.92418],[-86.37272,35.92758],[-86.37308,35.928],[-86.37499,35.92838],[-86.3762,35.9288],[-86.37711,35.9294],[-86.37858,35.93105],[-86.37867,35.93141],[-86.37846,35.93284],[-86.37729,35.93486],[-86.37621,35.93612],[-86.37499,35.93693],[-86.37435,35.93759],[-86.37402,35.93842],[-86.37404,35.93972],[-86.37474,35.94286],[-86.37564,35.94315],[-86.37634,35.94306],[-86.37677,35.94282],[-86.37733,35.94211],[-86.37866,35.94148],[-86.38037,35.94144],[-86.38209,35.94169],[-86.38355,35.94222],[-86.38423,35.94274],[-86.38603,35.94532],[-86.38656,35.94644],[-86.38716,35.94699],[-86.38765,35.94714],[-86.39137,35.94666],[-86.39202,35.94673],[-86.39255,35.94705],[-86.3925,35.94801],[-86.39215,35.94879],[-86.39158,35.9497],[-86.38857,35.9534],[-86.38775,35.95549],[-86.38779,35.95601],[-86.38868,35.95862],[-86.38924,35.9598],[-86.38944,35.96157],[-86.3898,35.96231],[-86.39063,35.96257],[-86.39107,35.9624],[-86.39486,35.9581],[-86.39545,35.95766],[-86.39667,35.95759],[-86.3995,35.95884],[-86.39974,35.95949],[-86.40007,35.96382],[-86.40042,35.96426],[-86.40092,35.96438],[-86.40449,35.96442],[-86.40614,35.96493],[-86.40652,35.96541],[-86.40639,35.96829],[-86.40675,35.96881],[-86.40718,35.96905],[-86.40837,35.96944],[-86.40998,35.96961],[-86.41157,35.9696],[-86.41398,35.96916],[-86.41514,35.96871],[-86.41614,35.96854],[-86.41743,35.96856],[-86.41909,35.96879],[-86.42035,35.96925],[-86.42058,35.96952],[-86.42058,35.96997],[-86.42029,35.97083],[-86.41974,35.97163],[-86.4191,35.97216],[-86.418,35.97263],[-86.41659,35.9728],[-86.41561,35.97315],[-86.41529,35.97365],[-86.41525,35.97469],[-86.4157,35.97555],[-86.41843,35.97824],[-86.42116,35.97989],[-86.42201,35.98329],[-86.42275,35.98425],[-86.42452,35.98535],[-86.42648,35.98686],[-86.42731,35.98685],[-86.42798,35.98645],[-86.42952,35.98366],[-86.42954,35.98299],[-86.42912,35.9814],[-86.42961,35.97878],[-86.43139,35.978],[-86.4345,35.97631],[-86.43548,35.97626],[-86.43784,35.97699],[-86.43972,35.97778],[-86.44097,35.97866],[-86.44202,35.97974],[-86.44352,35.98029],[-86.44481,35.98141],[-86.44509,35.98233],[-86.44501,35.98322],[-86.44436,35.98519],[-86.44304,35.9878],[-86.44321,35.98845],[-86.44435,35.9889],[-86.44528,35.98894],[-86.44661,35.98838],[-86.44895,35.98709],[-86.4496,35.98641],[-86.45016,35.98547],[-86.45027,35.98428],[-86.44972,35.98247],[-86.44997,35.98149],[-86.45035,35.98115],[-86.45098,35.98116],[-86.45299,35.9825],[-86.45645,35.98408],[-86.45831,35.98513],[-86.4587,35.98558],[-86.45875,35.98592]]]}}
