{"type":"Feature","properties":{"id":"west-fork-stones-river","name":"West Fork Stones River","waterbodyType":"river","throughLakeIds":["sterling-farmer-lake"],"allowOpenEnds":false,"source":"nhd-hu8-05130203","approximate":false,"labelAnchor":[-86.43007,35.90308],"bounds":[-86.48184,35.64788,-86.40985,35.98578],"crs":"EPSG:4326","coordinateOrder":"longitude,latitude","partCount":1,"vertexCount":466,"lengthKm":62.87,"sourceIds":["51411911","51411941","51411945","51412017","51412013","51412047","51412071","51412155","51412289","51412343","51412359","51412381","51412393","51412397","51412409","51412465","51412495","51412515","51412523","51412549","51412555","51412557","51412571","51412579","51412591","51412621","51412625","51412629","51412643","51412647","51412651","51412657","51412659","51410519","51410531","51410545","51410725","51410767","51410795","51410801","51410837","51410917","51410929","51410939","51410973","51411005","51411003","51411015","51411865","51411847","51411851","51411853","51411817","51411809","51411787","51411781","51411771","51411763","51411753","51411741","51411703","51411689","51411679","51411649"],"sourceRetrieved":"2026-09-11","geometrySource":"nhd","hu8":"05130203","simplification":{"toleranceM":10,"verticesBefore":1054,"verticesAfter":466,"budgetBytes":81920},"trace":{"anchor":{"lat":35.9029,"lon":-86.43,"snapDistM":21.2},"up":{"spec":"headwater","reason":"headwater","terminus":[-86.438369,35.647884],"distKmFromAnchor":46.47},"down":{"spec":"confluence:Stones River","reason":"confluence","terminus":[-86.458698,35.98558],"enteredNames":["Stones River"],"distKmFromAnchor":16.44},"vaaUsed":false,"toleranceM":12}},"geometry":{"type":"MultiLineString","coordinates":[[[-86.43837,35.64788],[-86.43988,35.64975],[-86.43996,35.65029],[-86.44314,35.6526],[-86.44371,35.65345],[-86.44489,35.6541],[-86.44559,35.65549],[-86.44619,35.65623],[-86.44694,35.65621],[-86.45028,35.65698],[-86.45207,35.65714],[-86.45275,35.65745],[-86.4533,35.65711],[-86.45521,35.6572],[-86.45588,35.657],[-86.45622,35.65672],[-86.45732,35.6569],[-86.45834,35.65675],[-86.45924,35.65694],[-86.45982,35.65676],[-86.46044,35.65712],[-86.46165,35.65746],[-86.46272,35.65933],[-86.46367,35.6594],[-86.46449,35.65926],[-86.4656,35.65961],[-86.46579,35.66034],[-86.46608,35.66063],[-86.46709,35.66099],[-86.46744,35.66081],[-86.46803,35.66125],[-86.46919,35.66176],[-86.46954,35.66228],[-86.47043,35.66265],[-86.47114,35.66272],[-86.47134,35.66238],[-86.47184,35.66232],[-86.47278,35.66239],[-86.47378,35.66285],[-86.47503,35.66273],[-86.4757,35.66358],[-86.47608,35.6646],[-86.47569,35.66575],[-86.47523,35.6664],[-86.47522,35.66711],[-86.47567,35.66753],[-86.47569,35.66803],[-86.47621,35.66887],[-86.47595,35.67018],[-86.47612,35.67068],[-86.47674,35.67089],[-86.47688,35.67136],[-86.47787,35.67203],[-86.48014,35.67233],[-86.48066,35.67299],[-86.48027,35.67548],[-86.48044,35.67671],[-86.47986,35.67736],[-86.47982,35.67762],[-86.48017,35.67909],[-86.47943,35.67982],[-86.47967,35.68029],[-86.48067,35.68076],[-86.48125,35.68225],[-86.48082,35.683],[-86.4802,35.68302],[-86.48014,35.6835],[-86.47962,35.68377],[-86.47958,35.68395],[-86.47982,35.68433],[-86.48087,35.68512],[-86.48066,35.68561],[-86.48161,35.68616],[-86.48184,35.68668],[-86.48163,35.68714],[-86.48067,35.6878],[-86.47955,35.68819],[-86.47917,35.68851],[-86.47897,35.68909],[-86.47969,35.6895],[-86.47976,35.68971],[-86.47957,35.68991],[-86.47903,35.68992],[-86.47882,35.69006],[-86.47868,35.69129],[-86.47798,35.69174],[-86.47771,35.69222],[-86.4772,35.69238],[-86.47646,35.69306],[-86.47583,35.69339],[-86.47507,35.69404],[-86.47471,35.69461],[-86.474,35.69492],[-86.47361,35.69532],[-86.47139,35.70025],[-86.47091,35.70097],[-86.468,35.70193],[-86.46794,35.70226],[-86.46828,35.70264],[-86.46781,35.70284],[-86.46674,35.70298],[-86.46606,35.70324],[-86.46548,35.70318],[-86.46446,35.70279],[-86.46325,35.70305],[-86.46005,35.70544],[-86.4568,35.70659],[-86.45618,35.70702],[-86.45626,35.70718],[-86.45576,35.70773],[-86.45536,35.70869],[-86.45586,35.70958],[-86.45647,35.71011],[-86.45683,35.71023],[-86.45726,35.71074],[-86.45692,35.71201],[-86.45693,35.71402],[-86.45629,35.71486],[-86.45441,35.71604],[-86.45355,35.71632],[-86.45275,35.71621],[-86.45216,35.71656],[-86.45187,35.71624],[-86.45142,35.71622],[-86.45087,35.7166],[-86.45052,35.71667],[-86.45003,35.71728],[-86.44869,35.71822],[-86.44779,35.71864],[-86.44761,35.71898],[-86.44765,35.71938],[-86.44816,35.72015],[-86.44826,35.72078],[-86.44798,35.72135],[-86.44742,35.72175],[-86.44475,35.7229],[-86.44398,35.72257],[-86.44291,35.72273],[-86.44201,35.72312],[-86.44151,35.72358],[-86.44116,35.7245],[-86.44053,35.72522],[-86.44094,35.72579],[-86.44125,35.72782],[-86.44054,35.72939],[-86.43827,35.73008],[-86.43827,35.73053],[-86.43883,35.73171],[-86.43859,35.73234],[-86.43715,35.73331],[-86.43619,35.73361],[-86.43518,35.73373],[-86.43455,35.73409],[-86.43399,35.73585],[-86.43323,35.73715],[-86.43286,35.73751],[-86.43171,35.73805],[-86.43246,35.74015],[-86.43374,35.74145],[-86.43393,35.74309],[-86.4336,35.74432],[-86.43299,35.74504],[-86.43296,35.74679],[-86.43215,35.74815],[-86.42872,35.74984],[-86.42565,35.74987],[-86.4251,35.74957],[-86.42416,35.74857],[-86.42242,35.74895],[-86.42163,35.75025],[-86.42041,35.75119],[-86.41898,35.75195],[-86.41828,35.75262],[-86.4182,35.75316],[-86.41865,35.75423],[-86.41857,35.75623],[-86.41608,35.7572],[-86.41515,35.7569],[-86.41513,35.75927],[-86.41624,35.75997],[-86.41599,35.76049],[-86.41606,35.76066],[-86.41939,35.76267],[-86.41991,35.76334],[-86.41975,35.76387],[-86.41952,35.76404],[-86.41659,35.76486],[-86.4162,35.76519],[-86.41619,35.76553],[-86.41643,35.76585],[-86.41894,35.76796],[-86.41916,35.7688],[-86.41879,35.76946],[-86.41631,35.77054],[-86.41603,35.77081],[-86.41597,35.77119],[-86.41615,35.77202],[-86.41707,35.77293],[-86.41735,35.77368],[-86.41969,35.77632],[-86.42047,35.77876],[-86.4207,35.77972],[-86.42052,35.78132],[-86.4194,35.78276],[-86.41945,35.78343],[-86.42054,35.78508],[-86.42199,35.78681],[-86.42277,35.78748],[-86.4241,35.78798],[-86.42544,35.78873],[-86.42539,35.78921],[-86.42468,35.7901],[-86.42495,35.79119],[-86.42571,35.79193],[-86.42582,35.79237],[-86.4254,35.79596],[-86.42581,35.79695],[-86.42596,35.79808],[-86.42767,35.79926],[-86.42911,35.80064],[-86.42905,35.8011],[-86.42801,35.80251],[-86.42712,35.8042],[-86.42494,35.80521],[-86.4224,35.80673],[-86.42268,35.80791],[-86.42239,35.80919],[-86.4205,35.81136],[-86.41941,35.81196],[-86.41871,35.81265],[-86.4186,35.81293],[-86.41888,35.81398],[-86.41892,35.8152],[-86.41875,35.81565],[-86.41728,35.81685],[-86.41659,35.81767],[-86.41587,35.81943],[-86.41593,35.82066],[-86.41678,35.82177],[-86.41825,35.82238],[-86.41905,35.82293],[-86.42069,35.8244],[-86.42416,35.82688],[-86.42447,35.82729],[-86.42436,35.82917],[-86.42397,35.83024],[-86.4226,35.8325],[-86.42256,35.83339],[-86.42283,35.83406],[-86.42318,35.83443],[-86.42362,35.83459],[-86.42746,35.83425],[-86.42806,35.83436],[-86.42892,35.83469],[-86.43018,35.83554],[-86.4306,35.83622],[-86.43076,35.83698],[-86.42995,35.83912],[-86.42929,35.83996],[-86.42829,35.84062],[-86.42622,35.84132],[-86.42506,35.84191],[-86.42421,35.84207],[-86.42222,35.8419],[-86.42089,35.84194],[-86.41725,35.8425],[-86.41572,35.84243],[-86.41437,35.84289],[-86.41397,35.84332],[-86.41385,35.84457],[-86.41503,35.84808],[-86.41476,35.85108],[-86.41519,35.85174],[-86.41578,35.8521],[-86.41704,35.85237],[-86.42087,35.85239],[-86.42414,35.85193],[-86.4246,35.85208],[-86.42545,35.85297],[-86.42572,35.85425],[-86.42539,35.85475],[-86.42471,35.85524],[-86.42382,35.85558],[-86.42161,35.85563],[-86.41841,35.85641],[-86.41715,35.85636],[-86.41604,35.85603],[-86.41488,35.85533],[-86.41436,35.85519],[-86.41358,35.85512],[-86.41277,35.85539],[-86.4121,35.85608],[-86.412,35.8568],[-86.41079,35.85884],[-86.40985,35.86174],[-86.40999,35.86275],[-86.41032,35.86336],[-86.41225,35.86435],[-86.41301,35.86484],[-86.41356,35.86546],[-86.41388,35.86618],[-86.41429,35.86807],[-86.41543,35.86864],[-86.41785,35.86915],[-86.41855,35.86949],[-86.41967,35.8707],[-86.42196,35.87222],[-86.42283,35.87291],[-86.42309,35.87336],[-86.423,35.87423],[-86.42245,35.87507],[-86.42189,35.87694],[-86.42137,35.87788],[-86.42118,35.87974],[-86.42011,35.88161],[-86.41926,35.88429],[-86.4198,35.88563],[-86.42089,35.88696],[-86.42166,35.8875],[-86.42286,35.88798],[-86.42335,35.88848],[-86.42463,35.88908],[-86.42484,35.88931],[-86.42457,35.89177],[-86.42473,35.89218],[-86.42606,35.89263],[-86.42648,35.89259],[-86.42734,35.89221],[-86.42883,35.8907],[-86.43064,35.88949],[-86.43303,35.88862],[-86.43428,35.88857],[-86.43455,35.88882],[-86.43426,35.88964],[-86.43443,35.89112],[-86.43423,35.89162],[-86.43368,35.89243],[-86.43157,35.89435],[-86.43081,35.89639],[-86.43047,35.89675],[-86.42736,35.89808],[-86.42597,35.89818],[-86.42574,35.89835],[-86.42492,35.89934],[-86.42485,35.90009],[-86.4241,35.90072],[-86.42359,35.90156],[-86.42355,35.90305],[-86.42441,35.90388],[-86.42545,35.90417],[-86.42681,35.90407],[-86.42813,35.9035],[-86.43118,35.90291],[-86.43161,35.90299],[-86.43007,35.90308],[-86.43282,35.90357],[-86.43566,35.90481],[-86.43692,35.90568],[-86.43764,35.90665],[-86.43982,35.90862],[-86.44116,35.91119],[-86.44178,35.91185],[-86.44244,35.91226],[-86.44407,35.9129],[-86.44729,35.91469],[-86.44942,35.91544],[-86.44969,35.91566],[-86.45067,35.91695],[-86.45111,35.91812],[-86.45116,35.91963],[-86.45094,35.92007],[-86.44949,35.92126],[-86.44722,35.92205],[-86.44698,35.9231],[-86.44746,35.92525],[-86.44862,35.92631],[-86.44913,35.92643],[-86.45037,35.92639],[-86.45199,35.92603],[-86.45242,35.92556],[-86.45303,35.9241],[-86.45365,35.92357],[-86.45442,35.92344],[-86.45572,35.92423],[-86.45653,35.92499],[-86.45686,35.92573],[-86.45707,35.92725],[-86.45709,35.92826],[-86.4565,35.93029],[-86.45568,35.93119],[-86.45545,35.9317],[-86.45558,35.93233],[-86.4565,35.93382],[-86.45703,35.9342],[-86.45865,35.93433],[-86.45991,35.93472],[-86.46153,35.93618],[-86.46405,35.9373],[-86.46509,35.93815],[-86.46543,35.93898],[-86.4654,35.93973],[-86.46514,35.94037],[-86.46368,35.94124],[-86.46207,35.94166],[-86.46145,35.94204],[-86.46124,35.94243],[-86.46144,35.9428],[-86.46378,35.94456],[-86.46422,35.94464],[-86.46775,35.94422],[-86.47012,35.94421],[-86.47073,35.94478],[-86.47143,35.94626],[-86.47151,35.94733],[-86.47123,35.9475],[-86.46821,35.94776],[-86.46397,35.94911],[-86.46094,35.94928],[-86.46024,35.94947],[-86.45828,35.95113],[-86.45751,35.95241],[-86.45575,35.95472],[-86.45542,35.95566],[-86.45533,35.95652],[-86.45561,35.95786],[-86.45658,35.95963],[-86.45664,35.96019],[-86.45615,35.96216],[-86.45638,35.96286],[-86.45821,35.96426],[-86.45832,35.96467],[-86.45808,35.96529],[-86.45644,35.96735],[-86.45616,35.968],[-86.45631,35.96846],[-86.45701,35.96891],[-86.45884,35.96957],[-86.46126,35.96991],[-86.46304,35.96993],[-86.46387,35.97015],[-86.46575,35.97166],[-86.46677,35.97192],[-86.46885,35.97206],[-86.4693,35.97233],[-86.4695,35.97271],[-86.46941,35.97337],[-86.46904,35.97397],[-86.46775,35.9753],[-86.46571,35.97688],[-86.46503,35.97773],[-86.46215,35.97885],[-86.46177,35.97935],[-86.46182,35.97984],[-86.46306,35.98057],[-86.46503,35.9814],[-86.47028,35.98126],[-86.47115,35.98173],[-86.47305,35.98378],[-86.47303,35.9843],[-86.47248,35.98477],[-86.47109,35.98522],[-86.46919,35.98547],[-86.46652,35.98539],[-86.46209,35.98565],[-86.46031,35.98561],[-86.4595,35.98578]]]}}
