{"type":"Feature","properties":{"id":"north-prong-barren-fork","name":"North Prong Barren Fork River","waterbodyType":"creek","throughLakeIds":[],"allowOpenEnds":false,"source":"nhd-hu8-05130107","approximate":false,"labelAnchor":[-85.9551,35.6913],"bounds":[-86.02572,35.65508,-85.6205,35.80591],"crs":"EPSG:4326","coordinateOrder":"longitude,latitude","partCount":1,"vertexCount":552,"lengthKm":89.58,"sourceIds":["51180879","51180743","51180741","51180691","51180549","51180533","51180535","51180517","51180507","51180495","51180497","51180499","51180457","51180451","51180463","51180465","51180443","51180441","51180439","51180409","51180371","51180345","51180325","51180127","51180029","51180003","51179937","51180895","51180923","51180989","51180987","51181011","51181057","51181085","51181099","51181165","51181203","51181213","51181227","51181215","51181179","51181023","51181041","51181065","51181125","51181109","51181323","51181365","51181385","51181377","51181375","51181373","51181349","51181421","51181427","51181389","51181329","51181043","51181095","51181149","51181181","51181303","51181405","51181403","51181413","51181411","51181273","51181327","51181295","51181197","51181135","51181017","51180977","51180901","51180859","51180889","51180915","51180913","51180853","51180861","51180867","51180871","51180723","51180699","51180647","51180627","51180623","51180641","51180639","51180595","51180597","51180571","51180323","51180305","51180257","51180119","51179851","51179837","51179853","51179909","51179907","51179891","51179819","51179681","51179513","51179455","51179359","51179207"],"sourceRetrieved":"2026-09-11","geometrySource":"nhd","hu8":"05130107","simplification":{"toleranceM":10,"verticesBefore":1128,"verticesAfter":552,"budgetBytes":81920},"trace":{"anchor":{"lat":35.6913,"lon":-85.9551,"snapDistM":0},"up":{"spec":"headwater","reason":"headwater","terminus":[-86.009593,35.772759],"distKmFromAnchor":15.53},"down":{"spec":"confluence:Barren Fork River","reason":"terminal-node","terminus":[-85.6205,35.800084],"enteredNames":null,"distKmFromAnchor":74.01},"vaaUsed":false,"toleranceM":12}},"geometry":{"type":"MultiLineString","coordinates":[[[-86.00959,35.77276],[-86.00985,35.7722],[-86.00988,35.77058],[-86.01047,35.76891],[-86.01171,35.76824],[-86.01235,35.76701],[-86.01335,35.76613],[-86.01397,35.76581],[-86.01511,35.76549],[-86.01639,35.76478],[-86.01724,35.76387],[-86.01794,35.76373],[-86.0183,35.76346],[-86.01827,35.76293],[-86.01907,35.76155],[-86.02069,35.76012],[-86.02116,35.75951],[-86.02125,35.75847],[-86.02059,35.75817],[-86.02053,35.75775],[-86.0208,35.75693],[-86.02144,35.75678],[-86.02215,35.75606],[-86.02289,35.75367],[-86.02338,35.75295],[-86.02343,35.75243],[-86.02286,35.75129],[-86.02277,35.75047],[-86.02399,35.74778],[-86.02403,35.74714],[-86.02439,35.74682],[-86.0246,35.74571],[-86.02548,35.74382],[-86.02549,35.74251],[-86.02572,35.74201],[-86.02555,35.74135],[-86.02449,35.74053],[-86.02276,35.7403],[-86.02243,35.73892],[-86.02118,35.7377],[-86.01966,35.73774],[-86.01755,35.73747],[-86.01637,35.73689],[-86.01586,35.73685],[-86.01447,35.73619],[-86.01408,35.73585],[-86.01084,35.73459],[-86.00939,35.73421],[-86.0082,35.73357],[-86.00777,35.73355],[-86.00531,35.73406],[-86.00346,35.73411],[-86.00263,35.73397],[-85.99999,35.73287],[-85.99921,35.73232],[-85.99863,35.73146],[-85.99715,35.73067],[-85.99604,35.72979],[-85.99517,35.72991],[-85.99449,35.72963],[-85.99246,35.72944],[-85.99182,35.72893],[-85.99131,35.72876],[-85.98982,35.72903],[-85.98921,35.7288],[-85.98694,35.7284],[-85.98597,35.72855],[-85.98496,35.7294],[-85.98382,35.72941],[-85.98335,35.72886],[-85.98336,35.72832],[-85.98372,35.72768],[-85.98359,35.72717],[-85.9822,35.72497],[-85.9814,35.7242],[-85.98009,35.72365],[-85.97895,35.72397],[-85.97875,35.7243],[-85.97728,35.72409],[-85.97693,35.72387],[-85.97636,35.7231],[-85.97545,35.72253],[-85.97335,35.72258],[-85.97267,35.72116],[-85.97192,35.7206],[-85.9706,35.72001],[-85.96985,35.71944],[-85.96944,35.71943],[-85.96834,35.71978],[-85.96595,35.71979],[-85.96488,35.72011],[-85.9637,35.71993],[-85.9627,35.71817],[-85.96258,35.71745],[-85.96272,35.71617],[-85.96236,35.71509],[-85.96165,35.71397],[-85.96123,35.71363],[-85.96074,35.71362],[-85.95969,35.71388],[-85.95876,35.71432],[-85.95794,35.71376],[-85.95708,35.71284],[-85.95737,35.71184],[-85.95706,35.71154],[-85.95702,35.71091],[-85.95747,35.71044],[-85.95759,35.71006],[-85.9571,35.70893],[-85.95704,35.7068],[-85.95665,35.70523],[-85.95644,35.70468],[-85.95569,35.70368],[-85.95591,35.70126],[-85.95624,35.70062],[-85.95684,35.70043],[-85.957,35.69993],[-85.95669,35.69882],[-85.95573,35.6988],[-85.95552,35.69832],[-85.95641,35.6973],[-85.95698,35.6958],[-85.9573,35.6955],[-85.9585,35.69505],[-85.95851,35.69492],[-85.95804,35.69422],[-85.95777,35.69286],[-85.9572,35.69199],[-85.95696,35.6919],[-85.95601,35.69198],[-85.95542,35.69167],[-85.9551,35.69129],[-85.95522,35.69094],[-85.95617,35.69037],[-85.9563,35.69021],[-85.9551,35.6913],[-85.95634,35.69003],[-85.95633,35.68975],[-85.95522,35.68879],[-85.95323,35.68863],[-85.95235,35.68824],[-85.95095,35.68705],[-85.95062,35.68647],[-85.94804,35.68516],[-85.94745,35.68505],[-85.9457,35.68372],[-85.94494,35.68336],[-85.94492,35.68251],[-85.94529,35.68189],[-85.94465,35.6816],[-85.94436,35.68118],[-85.94361,35.68083],[-85.94232,35.68071],[-85.94188,35.68026],[-85.94077,35.67963],[-85.93978,35.6786],[-85.93907,35.6783],[-85.9379,35.67742],[-85.93614,35.67669],[-85.93581,35.67632],[-85.93586,35.67446],[-85.93526,35.67374],[-85.93183,35.67257],[-85.9306,35.67176],[-85.93017,35.67166],[-85.92647,35.67132],[-85.92427,35.67097],[-85.92329,35.67097],[-85.92142,35.67139],[-85.92055,35.67183],[-85.91936,35.67281],[-85.91915,35.67345],[-85.91917,35.6748],[-85.91897,35.67521],[-85.91824,35.67578],[-85.91788,35.67708],[-85.91762,35.67723],[-85.9171,35.67737],[-85.91578,35.67731],[-85.91398,35.677],[-85.9114,35.67692],[-85.90788,35.67652],[-85.90754,35.67634],[-85.90668,35.67515],[-85.90688,35.67204],[-85.90675,35.67173],[-85.90448,35.67152],[-85.90341,35.67156],[-85.9016,35.67251],[-85.90027,35.67203],[-85.89908,35.67205],[-85.899,35.67103],[-85.89815,35.67008],[-85.89793,35.66963],[-85.8983,35.66666],[-85.89801,35.6662],[-85.89589,35.66608],[-85.89208,35.66711],[-85.89034,35.66798],[-85.88823,35.66963],[-85.88732,35.67008],[-85.88622,35.67014],[-85.88363,35.66888],[-85.88221,35.6678],[-85.88077,35.66628],[-85.88059,35.66562],[-85.88137,35.6636],[-85.88057,35.66234],[-85.8799,35.66202],[-85.87773,35.6616],[-85.87595,35.66165],[-85.8723,35.66145],[-85.87199,35.66178],[-85.86903,35.66358],[-85.86825,35.66388],[-85.86757,35.66384],[-85.86612,35.66264],[-85.86527,35.66173],[-85.86501,35.66125],[-85.8648,35.65982],[-85.86409,35.65803],[-85.86332,35.65756],[-85.8615,35.65731],[-85.85914,35.6573],[-85.85782,35.65743],[-85.85683,35.65775],[-85.8547,35.65927],[-85.85479,35.65973],[-85.85428,35.66097],[-85.85228,35.66155],[-85.85197,35.66181],[-85.85235,35.66263],[-85.85268,35.66469],[-85.85361,35.66647],[-85.8534,35.66726],[-85.85255,35.66798],[-85.85012,35.66915],[-85.84746,35.6696],[-85.84649,35.6697],[-85.84282,35.66956],[-85.84196,35.66941],[-85.84084,35.6688],[-85.8394,35.66754],[-85.83896,35.66734],[-85.83796,35.66734],[-85.83705,35.667],[-85.83671,35.66629],[-85.83466,35.66474],[-85.83455,35.66394],[-85.83527,35.66296],[-85.83541,35.66251],[-85.83535,35.66175],[-85.83661,35.66046],[-85.83681,35.65984],[-85.83769,35.65895],[-85.83877,35.65745],[-85.83889,35.65684],[-85.83877,35.65644],[-85.83814,35.6561],[-85.83505,35.65602],[-85.8331,35.65539],[-85.82945,35.65508],[-85.8283,35.65542],[-85.82769,35.65587],[-85.82736,35.65634],[-85.82734,35.65669],[-85.82803,35.65801],[-85.82772,35.65864],[-85.82723,35.65897],[-85.82671,35.65914],[-85.82606,35.65959],[-85.82256,35.6601],[-85.81922,35.66146],[-85.81895,35.66178],[-85.82046,35.66538],[-85.82124,35.66641],[-85.82127,35.66698],[-85.82104,35.66739],[-85.82057,35.66774],[-85.82001,35.66785],[-85.81778,35.6677],[-85.81693,35.66731],[-85.81417,35.66369],[-85.81386,35.66271],[-85.81427,35.66082],[-85.81384,35.65999],[-85.81286,35.65882],[-85.81141,35.65841],[-85.8098,35.65824],[-85.80747,35.65884],[-85.80477,35.65892],[-85.8042,35.65917],[-85.80225,35.66146],[-85.80056,35.66237],[-85.80015,35.66451],[-85.80042,35.66587],[-85.80073,35.66683],[-85.80122,35.66763],[-85.80153,35.66893],[-85.80363,35.67197],[-85.80402,35.67202],[-85.80466,35.67182],[-85.80579,35.67113],[-85.80771,35.66973],[-85.80852,35.66947],[-85.80912,35.66956],[-85.80954,35.66983],[-85.80988,35.67166],[-85.80965,35.67213],[-85.80923,35.67248],[-85.80786,35.67293],[-85.80444,35.67473],[-85.80199,35.67539],[-85.79983,35.67556],[-85.79805,35.67515],[-85.79714,35.67529],[-85.79582,35.67609],[-85.79248,35.6832],[-85.79086,35.68506],[-85.78991,35.68534],[-85.78893,35.68541],[-85.78752,35.68496],[-85.78547,35.68398],[-85.77918,35.67812],[-85.77615,35.67372],[-85.77485,35.67276],[-85.77353,35.67224],[-85.77311,35.67213],[-85.77213,35.67227],[-85.77133,35.67259],[-85.76781,35.67507],[-85.76654,35.67583],[-85.76585,35.67598],[-85.76532,35.67594],[-85.76136,35.67394],[-85.76107,35.67362],[-85.76054,35.67337],[-85.75925,35.67318],[-85.75827,35.67367],[-85.75777,35.67457],[-85.75772,35.6753],[-85.75789,35.67589],[-85.75983,35.67945],[-85.76526,35.68248],[-85.76585,35.6832],[-85.7659,35.68414],[-85.7645,35.68478],[-85.76331,35.6851],[-85.75738,35.68506],[-85.75598,35.68461],[-85.7547,35.68387],[-85.75401,35.68329],[-85.7533,35.68238],[-85.75227,35.68162],[-85.75062,35.68128],[-85.75022,35.6815],[-85.7497,35.6825],[-85.74951,35.68479],[-85.74992,35.68543],[-85.74986,35.68754],[-85.749,35.68891],[-85.74719,35.69001],[-85.74576,35.69053],[-85.74237,35.69121],[-85.74095,35.69197],[-85.73941,35.69227],[-85.73842,35.69265],[-85.73804,35.69246],[-85.73686,35.69023],[-85.73641,35.69009],[-85.73568,35.68926],[-85.73537,35.68848],[-85.73492,35.68822],[-85.73397,35.68867],[-85.73364,35.68908],[-85.73315,35.68987],[-85.73287,35.69088],[-85.73297,35.69173],[-85.73481,35.69395],[-85.7357,35.69642],[-85.73549,35.69765],[-85.73488,35.69867],[-85.73386,35.69922],[-85.73294,35.69899],[-85.73078,35.69795],[-85.72924,35.69701],[-85.72851,35.69634],[-85.72793,35.69466],[-85.7276,35.69429],[-85.727,35.69403],[-85.726,35.69387],[-85.72499,35.69396],[-85.72244,35.69447],[-85.72197,35.6947],[-85.72172,35.69505],[-85.72156,35.6962],[-85.72172,35.6966],[-85.72289,35.6977],[-85.72714,35.70066],[-85.72852,35.70206],[-85.7288,35.70287],[-85.72846,35.70353],[-85.72487,35.70686],[-85.72438,35.708],[-85.72455,35.7086],[-85.725,35.70916],[-85.72568,35.70941],[-85.72679,35.70935],[-85.73268,35.70837],[-85.73587,35.70827],[-85.73706,35.70834],[-85.73791,35.7086],[-85.73934,35.70959],[-85.74175,35.71333],[-85.74195,35.71441],[-85.74124,35.71887],[-85.74112,35.71921],[-85.74075,35.71949],[-85.74046,35.72053],[-85.73961,35.72139],[-85.73778,35.72211],[-85.73644,35.72292],[-85.73288,35.72915],[-85.73282,35.73027],[-85.73434,35.73507],[-85.73451,35.73643],[-85.73433,35.7371],[-85.73378,35.73763],[-85.73215,35.73821],[-85.72854,35.73897],[-85.72713,35.7396],[-85.72655,35.74022],[-85.72645,35.74091],[-85.72664,35.74151],[-85.7304,35.7454],[-85.73059,35.74596],[-85.73073,35.74721],[-85.73061,35.74793],[-85.72957,35.7495],[-85.72899,35.75007],[-85.72789,35.7507],[-85.7268,35.75105],[-85.7251,35.75097],[-85.72443,35.75057],[-85.72229,35.74858],[-85.72027,35.74721],[-85.71754,35.74597],[-85.717,35.74605],[-85.71571,35.74562],[-85.71376,35.74393],[-85.71285,35.74294],[-85.70906,35.74161],[-85.70288,35.7436],[-85.69978,35.74484],[-85.69893,35.74551],[-85.6983,35.74639],[-85.69816,35.7471],[-85.69857,35.74926],[-85.69991,35.75096],[-85.70061,35.75138],[-85.70629,35.75229],[-85.70784,35.75223],[-85.70922,35.75182],[-85.71233,35.75147],[-85.71492,35.75149],[-85.71604,35.75186],[-85.71702,35.75267],[-85.71737,35.75367],[-85.71755,35.75486],[-85.7173,35.7557],[-85.7161,35.75722],[-85.71533,35.75763],[-85.71359,35.75792],[-85.70939,35.75819],[-85.70764,35.75859],[-85.70665,35.75934],[-85.7062,35.76095],[-85.70691,35.76349],[-85.70756,35.76388],[-85.70845,35.76396],[-85.71219,35.76293],[-85.71346,35.76298],[-85.71411,35.76329],[-85.71442,35.76364],[-85.71457,35.76449],[-85.71418,35.76525],[-85.71318,35.76589],[-85.71021,35.7662],[-85.70824,35.76591],[-85.70584,35.7652],[-85.70411,35.76502],[-85.70255,35.76528],[-85.70136,35.76618],[-85.70101,35.76733],[-85.70146,35.76856],[-85.70211,35.76906],[-85.70417,35.7697],[-85.70665,35.77084],[-85.70795,35.772],[-85.70877,35.77358],[-85.7086,35.77511],[-85.70749,35.77687],[-85.70587,35.77808],[-85.70478,35.77826],[-85.70295,35.77812],[-85.69694,35.77714],[-85.69572,35.77713],[-85.69071,35.77757],[-85.68761,35.77808],[-85.68025,35.78154],[-85.67468,35.78273],[-85.66732,35.78247],[-85.66483,35.78287],[-85.66282,35.78472],[-85.66202,35.78615],[-85.65906,35.78909],[-85.65699,35.79018],[-85.65356,35.79074],[-85.65116,35.79059],[-85.64593,35.78699],[-85.64395,35.78617],[-85.64026,35.78614],[-85.63902,35.78685],[-85.63881,35.78817],[-85.63968,35.79002],[-85.64622,35.79395],[-85.6477,35.79438],[-85.65104,35.79628],[-85.65198,35.79806],[-85.65138,35.80036],[-85.64948,35.80154],[-85.64726,35.80162],[-85.64602,35.80076],[-85.64407,35.79875],[-85.64265,35.79882],[-85.64105,35.79972],[-85.63994,35.8023],[-85.63973,35.80503],[-85.63851,35.80591],[-85.6372,35.80581],[-85.63631,35.80518],[-85.63555,35.80391],[-85.63543,35.79876],[-85.63434,35.79613],[-85.63301,35.79462],[-85.63142,35.79381],[-85.6292,35.79344],[-85.62676,35.79354],[-85.62498,35.79397],[-85.62199,35.79576],[-85.62102,35.79784],[-85.6205,35.80008]]]}}
