{"type":"Feature","properties":{"id":"duck-river-lower","name":"Duck River (Shelbyville to Columbia)","waterbodyType":"river","throughLakeIds":[],"allowOpenEnds":false,"source":"nhd-hu8-06040002","approximate":false,"labelAnchor":[-86.73307,35.5823],"bounds":[-87.00473,35.46472,-86.46465,35.63149],"crs":"EPSG:4326","coordinateOrder":"longitude,latitude","partCount":1,"vertexCount":436,"lengthKm":141.7,"sourceIds":["136616490","136616761","136616762","136616763","136616764","136616765","136616766","136616767","136616775","136616776","136616777","136616526","136616527","136616528","{1A33AA4E-2B6D-48D0-9170-42E147BAA6BD}","136616529","136616569","136616571","136616570","136616572","136616573","136616574","136616575","136616576","136616769","136616770","136616751","136616756","136616752","136616753","136616754","136616755","136616757","136616758","136616759","136616760","136616875","{12E956F0-9427-4E90-A2C5-349784A88D18}","136616724","136616723","136616589","136616590","136616591","136616592","136616721","136616594","136616720","136616596","136616597","136616599","136616598","136616600","136616601","136616602","136616603","136616604","136616605","136616607","136616606","136616774","136616773","136616772","136616771","136616961","136616957","136616956","136616955","136616954","136616369","136616368","136616367","136616366","136616361","136616362","136616365","136616364","136616363","136616350","136616351","136616352","136616353","136616354","136616355","136616356","136616357","136616358","136616359","136616360","136616343","136616348","136616347","136616346","136616345","136616344","136616342","136616341","136616340","136616339","136616338","{E773111E-A185-4A31-B697-BB0C7625D6A5}","136616336","136616337","136616335","136616334","136616309","136616308","136616310","136616414","136616413","136616418","136616415","136616416","136616417","136616426","136616424","136616425","{5AC70F27-2C64-44AA-A42B-BDD1AE217988}","136555436"],"sourceRetrieved":"2026-09-11","geometrySource":"nhd","hu8":"06040002","simplification":{"toleranceM":25,"verticesBefore":8081,"verticesAfter":436,"budgetBytes":49152},"trace":{"anchor":{"lat":35.5823,"lon":-86.73307,"snapDistM":0.3},"up":{"spec":"point:35.483468,-86.464221","reason":"point","terminus":[-86.464653,35.48352],"distKmFromAnchor":66.72},"down":{"spec":"mouth","reason":"terminal-node","terminus":[-87.00155,35.607065],"enteredNames":null,"distKmFromAnchor":69.05},"vaaUsed":false,"toleranceM":12}},"geometry":{"type":"MultiLineString","coordinates":[[[-86.46465,35.48352],[-86.46991,35.48248],[-86.47035,35.47969],[-86.46986,35.47674],[-86.4727,35.47543],[-86.47429,35.4755],[-86.47903,35.47726],[-86.48339,35.47799],[-86.48489,35.47786],[-86.48687,35.47517],[-86.48752,35.47101],[-86.48731,35.46998],[-86.48818,35.46826],[-86.48853,35.46625],[-86.48938,35.46522],[-86.4904,35.46472],[-86.49187,35.46551],[-86.49398,35.46762],[-86.49382,35.4683],[-86.49171,35.47072],[-86.49243,35.47179],[-86.49359,35.47198],[-86.49525,35.47167],[-86.49888,35.46831],[-86.50216,35.46726],[-86.50381,35.46908],[-86.50497,35.47181],[-86.50534,35.47586],[-86.50493,35.47708],[-86.50049,35.47935],[-86.49875,35.48176],[-86.49568,35.48488],[-86.49529,35.48596],[-86.49571,35.48639],[-86.49778,35.48659],[-86.50169,35.48566],[-86.50376,35.48673],[-86.50672,35.48913],[-86.50915,35.48929],[-86.51264,35.48804],[-86.51485,35.48651],[-86.51573,35.48516],[-86.51635,35.4829],[-86.51818,35.48032],[-86.5206,35.48059],[-86.52333,35.482],[-86.5269,35.48531],[-86.52858,35.48856],[-86.52883,35.49278],[-86.52845,35.49551],[-86.52645,35.49796],[-86.52629,35.49888],[-86.52794,35.49969],[-86.53344,35.49979],[-86.53445,35.50065],[-86.53444,35.50198],[-86.53295,35.50624],[-86.53123,35.50786],[-86.53218,35.51008],[-86.53315,35.51039],[-86.53605,35.50811],[-86.53746,35.50764],[-86.54035,35.50426],[-86.54153,35.50444],[-86.54241,35.50569],[-86.54208,35.5078],[-86.54249,35.51151],[-86.54195,35.51417],[-86.54086,35.51523],[-86.53819,35.51594],[-86.53724,35.51666],[-86.53829,35.51928],[-86.5383,35.52148],[-86.53739,35.52187],[-86.53599,35.52174],[-86.53036,35.51986],[-86.52889,35.52083],[-86.52831,35.52209],[-86.52828,35.5244],[-86.52951,35.52675],[-86.53026,35.5321],[-86.52932,35.53416],[-86.52655,35.53694],[-86.52632,35.53849],[-86.52659,35.53925],[-86.52846,35.53999],[-86.5305,35.54011],[-86.5339,35.53652],[-86.53635,35.53512],[-86.53998,35.53693],[-86.5419,35.53887],[-86.54238,35.53978],[-86.54209,35.54009],[-86.54287,35.5412],[-86.54374,35.542],[-86.54465,35.54224],[-86.54572,35.54173],[-86.54727,35.53822],[-86.54944,35.53686],[-86.55218,35.53672],[-86.55569,35.53716],[-86.56275,35.5388],[-86.56477,35.53788],[-86.56684,35.53624],[-86.56872,35.53612],[-86.57006,35.53681],[-86.57325,35.5395],[-86.57319,35.54345],[-86.57228,35.54619],[-86.57248,35.55109],[-86.57313,35.55252],[-86.57432,35.55331],[-86.5757,35.55351],[-86.57996,35.55239],[-86.58184,35.55249],[-86.58272,35.55387],[-86.58451,35.55501],[-86.58638,35.55532],[-86.58744,35.55508],[-86.58822,35.55431],[-86.58908,35.55077],[-86.5893,35.54708],[-86.59024,35.54576],[-86.59188,35.54538],[-86.59619,35.54552],[-86.59879,35.5472],[-86.59972,35.54742],[-86.60166,35.54685],[-86.60287,35.54529],[-86.60275,35.54447],[-86.6011,35.54345],[-86.59836,35.54272],[-86.5966,35.54272],[-86.59585,35.54224],[-86.59459,35.53649],[-86.59533,35.53297],[-86.59682,35.53305],[-86.60288,35.53556],[-86.60766,35.53962],[-86.61148,35.5387],[-86.61517,35.53708],[-86.6188,35.533],[-86.62332,35.53444],[-86.62615,35.54038],[-86.6258,35.54227],[-86.62903,35.5442],[-86.63064,35.54927],[-86.63135,35.54953],[-86.63294,35.54923],[-86.63822,35.5492],[-86.64484,35.54851],[-86.64578,35.549],[-86.64612,35.55013],[-86.64525,35.55281],[-86.64515,35.55496],[-86.64384,35.55646],[-86.64271,35.55898],[-86.63735,35.56071],[-86.63113,35.5611],[-86.62814,35.56191],[-86.62624,35.56442],[-86.62626,35.56882],[-86.62693,35.56953],[-86.63049,35.57141],[-86.63365,35.57541],[-86.63686,35.57806],[-86.64111,35.57971],[-86.64246,35.58271],[-86.64317,35.58315],[-86.64471,35.58316],[-86.64854,35.58235],[-86.65012,35.58136],[-86.65137,35.57911],[-86.65656,35.57816],[-86.66314,35.58048],[-86.66381,35.58135],[-86.66373,35.58269],[-86.66279,35.58554],[-86.66085,35.58909],[-86.6641,35.59482],[-86.66401,35.59839],[-86.66455,35.60003],[-86.66606,35.60112],[-86.66735,35.60052],[-86.66947,35.59789],[-86.67026,35.59451],[-86.67014,35.5929],[-86.67107,35.59095],[-86.67292,35.58995],[-86.67504,35.58962],[-86.68059,35.59009],[-86.68457,35.58808],[-86.68631,35.58784],[-86.68749,35.58883],[-86.68945,35.59346],[-86.69111,35.59391],[-86.6934,35.59393],[-86.6955,35.59267],[-86.69959,35.59109],[-86.70084,35.58852],[-86.70117,35.58652],[-86.70281,35.58524],[-86.70595,35.58365],[-86.70885,35.58283],[-86.71248,35.58088],[-86.71379,35.58119],[-86.71907,35.58571],[-86.7214,35.58674],[-86.72276,35.58636],[-86.72463,35.58447],[-86.72588,35.5838],[-86.73032,35.58296],[-86.73168,35.58314],[-86.73263,35.58274],[-86.73314,35.58199],[-86.73263,35.57746],[-86.73606,35.57591],[-86.7374,35.57613],[-86.74073,35.57937],[-86.74313,35.58091],[-86.74841,35.58201],[-86.75047,35.58164],[-86.75176,35.58094],[-86.75338,35.57872],[-86.75452,35.57782],[-86.75889,35.57855],[-86.76226,35.5778],[-86.76472,35.5748],[-86.76786,35.57487],[-86.77218,35.57758],[-86.77525,35.5766],[-86.73307,35.5823],[-86.77659,35.57637],[-86.7783,35.57639],[-86.78045,35.57723],[-86.78175,35.57992],[-86.78183,35.58248],[-86.7807,35.58537],[-86.78089,35.5863],[-86.78278,35.58702],[-86.78921,35.5857],[-86.79008,35.586],[-86.79066,35.58714],[-86.79042,35.58796],[-86.78789,35.59074],[-86.78584,35.59187],[-86.78339,35.59259],[-86.78092,35.59275],[-86.7778,35.59421],[-86.77577,35.59875],[-86.7781,35.60242],[-86.78078,35.60369],[-86.78271,35.6067],[-86.78382,35.60772],[-86.78973,35.60911],[-86.79195,35.60877],[-86.79381,35.60663],[-86.79668,35.6047],[-86.80193,35.60516],[-86.80525,35.60629],[-86.80719,35.60742],[-86.80897,35.60965],[-86.80983,35.61132],[-86.80979,35.61302],[-86.81054,35.61419],[-86.81581,35.61831],[-86.82145,35.62436],[-86.82287,35.62437],[-86.82414,35.62338],[-86.8246,35.62228],[-86.82256,35.61632],[-86.82127,35.61437],[-86.81956,35.61286],[-86.8206,35.60994],[-86.82134,35.60909],[-86.82225,35.60875],[-86.82686,35.60957],[-86.82923,35.60945],[-86.83294,35.60574],[-86.83691,35.60308],[-86.83662,35.59655],[-86.83603,35.59508],[-86.83689,35.59282],[-86.83804,35.59211],[-86.84025,35.59172],[-86.84353,35.59271],[-86.84583,35.59482],[-86.84776,35.59884],[-86.84811,35.60142],[-86.84773,35.60482],[-86.85084,35.60826],[-86.85355,35.60977],[-86.8549,35.61172],[-86.85604,35.61449],[-86.85346,35.61937],[-86.85105,35.62184],[-86.85025,35.62329],[-86.84574,35.626],[-86.84481,35.62773],[-86.84632,35.62927],[-86.84948,35.63049],[-86.85405,35.63046],[-86.85907,35.63149],[-86.86335,35.62989],[-86.86433,35.62827],[-86.86415,35.6261],[-86.86255,35.62496],[-86.86023,35.62209],[-86.86032,35.62128],[-86.86242,35.61856],[-86.86382,35.61791],[-86.86865,35.6175],[-86.87214,35.61669],[-86.878,35.61456],[-86.87985,35.6129],[-86.88006,35.61203],[-86.87956,35.61023],[-86.87525,35.6044],[-86.87526,35.60212],[-86.87576,35.60085],[-86.87654,35.60046],[-86.87759,35.60073],[-86.88387,35.60484],[-86.88873,35.61037],[-86.89023,35.61173],[-86.89106,35.61192],[-86.89272,35.61122],[-86.89548,35.60822],[-86.8995,35.60057],[-86.89956,35.59914],[-86.89836,35.59837],[-86.8941,35.59722],[-86.88827,35.59633],[-86.8856,35.59289],[-86.88302,35.59189],[-86.88064,35.59216],[-86.87396,35.5939],[-86.86866,35.5971],[-86.86716,35.59742],[-86.86627,35.59696],[-86.8654,35.59577],[-86.86334,35.59056],[-86.86344,35.58819],[-86.86308,35.58715],[-86.86434,35.58346],[-86.86549,35.58174],[-86.86583,35.57881],[-86.86532,35.57548],[-86.86813,35.57276],[-86.87047,35.57142],[-86.87197,35.57006],[-86.87474,35.56864],[-86.87609,35.56687],[-86.87815,35.55851],[-86.87981,35.55524],[-86.8826,35.55237],[-86.8924,35.55057],[-86.89717,35.55087],[-86.89892,35.55199],[-86.89959,35.55318],[-86.8995,35.55453],[-86.89772,35.55946],[-86.89458,35.56169],[-86.89395,35.56257],[-86.89385,35.56773],[-86.89588,35.56864],[-86.89713,35.56858],[-86.90245,35.56499],[-86.90574,35.56492],[-86.90803,35.566],[-86.91286,35.56933],[-86.9167,35.57264],[-86.91828,35.57316],[-86.92151,35.57304],[-86.92473,35.5714],[-86.92623,35.56768],[-86.92738,35.56598],[-86.92729,35.56517],[-86.92839,35.56406],[-86.9301,35.56018],[-86.9331,35.55855],[-86.93622,35.55743],[-86.93847,35.55804],[-86.93945,35.55982],[-86.93543,35.56443],[-86.93441,35.56691],[-86.93453,35.56839],[-86.93538,35.57024],[-86.94026,35.57468],[-86.94359,35.57458],[-86.94765,35.57357],[-86.95143,35.56833],[-86.95335,35.56698],[-86.96382,35.56837],[-86.96973,35.57006],[-86.97046,35.57076],[-86.97066,35.57199],[-86.96876,35.57753],[-86.96907,35.57858],[-86.97031,35.57917],[-86.97825,35.58055],[-86.98478,35.58083],[-86.98668,35.58229],[-86.98795,35.5846],[-86.98822,35.58637],[-86.98794,35.58816],[-86.98748,35.58863],[-86.98657,35.58876],[-86.97979,35.58719],[-86.97543,35.58734],[-86.96749,35.58471],[-86.96597,35.58463],[-86.96323,35.58689],[-86.95964,35.59209],[-86.9579,35.59575],[-86.95819,35.59814],[-86.96444,35.60014],[-86.96731,35.59989],[-86.96906,35.59838],[-86.97065,35.59235],[-86.97189,35.59032],[-86.97483,35.58966],[-86.97832,35.58989],[-86.9812,35.59112],[-86.98521,35.59372],[-86.98951,35.59718],[-86.99219,35.59837],[-86.99353,35.59824],[-86.99827,35.5951],[-87.0019,35.59536],[-87.00301,35.59588],[-87.00445,35.59826],[-87.00473,35.60027],[-87.00412,35.6042],[-87.00194,35.60551],[-87.00155,35.60707]]]}}
