{"type":"Feature","properties":{"id":"puncheon-camp-creek","name":"Puncheon Camp Creek","waterbodyType":"creek","throughLakeIds":["norris-lake"],"allowOpenEnds":false,"source":"nhd-hu8-06010205","approximate":false,"labelAnchor":[-83.521,36.32595],"bounds":[-83.56631,36.30661,-83.5014,36.35152],"crs":"EPSG:4326","coordinateOrder":"longitude,latitude","partCount":1,"vertexCount":97,"lengthKm":10.43,"sourceIds":["44779502","44779696","44779742","44779944","44780004","44780056","44780140","44780204","44780234","44780328","44780514","44780630","44779414","44779400","44779236","44779196","44778948","44778934","44778840","44778744","44778656","44778630","44778578","44778564","44778496","44778438","44778456"],"sourceRetrieved":"2026-09-11","geometrySource":"nhd","hu8":"06010205","simplification":{"toleranceM":10,"verticesBefore":466,"verticesAfter":97,"budgetBytes":81920},"trace":{"anchor":{"lat":36.325955,"lon":-83.521001,"snapDistM":0},"up":{"spec":"headwater","reason":"headwater","terminus":[-83.566312,36.306845],"distKmFromAnchor":5.01},"down":{"spec":"mouth","reason":"name-change","terminus":[-83.523865,36.350723],"enteredNames":["Cracker Creek"],"distKmFromAnchor":5.39},"vaaUsed":false,"toleranceM":12}},"geometry":{"type":"MultiLineString","coordinates":[[[-83.56631,36.30685],[-83.56588,36.30671],[-83.56373,36.30661],[-83.56247,36.3073],[-83.56122,36.30721],[-83.56019,36.30744],[-83.55881,36.30833],[-83.55762,36.30808],[-83.55625,36.30882],[-83.55342,36.30955],[-83.55102,36.30989],[-83.55006,36.31056],[-83.54883,36.31106],[-83.5483,36.31165],[-83.54796,36.31272],[-83.54697,36.31317],[-83.54619,36.31377],[-83.54315,36.31425],[-83.53987,36.31547],[-83.53863,36.31575],[-83.53861,36.31612],[-83.53823,36.31646],[-83.53328,36.31842],[-83.53169,36.31965],[-83.53015,36.32017],[-83.52892,36.32109],[-83.52881,36.32184],[-83.52818,36.322],[-83.52667,36.32311],[-83.52659,36.32397],[-83.52611,36.3242],[-83.5261,36.32466],[-83.52532,36.32453],[-83.52499,36.32507],[-83.52456,36.32499],[-83.52368,36.32548],[-83.52298,36.32556],[-83.52266,36.32596],[-83.52215,36.32586],[-83.52161,36.32545],[-83.521,36.32595],[-83.52152,36.32548],[-83.521,36.32595],[-83.52077,36.32703],[-83.52047,36.32728],[-83.51987,36.32741],[-83.51954,36.32723],[-83.51924,36.32731],[-83.5182,36.32777],[-83.5171,36.32866],[-83.51642,36.32863],[-83.51589,36.32915],[-83.5148,36.32941],[-83.51401,36.33023],[-83.51317,36.33011],[-83.51256,36.33054],[-83.51218,36.33127],[-83.51153,36.33095],[-83.51125,36.33148],[-83.51092,36.33169],[-83.5105,36.33173],[-83.51018,36.33139],[-83.50974,36.3313],[-83.50939,36.33147],[-83.50917,36.33195],[-83.50865,36.33192],[-83.50849,36.33171],[-83.50823,36.3317],[-83.50718,36.33302],[-83.50625,36.33328],[-83.50597,36.33364],[-83.50549,36.33379],[-83.50519,36.33423],[-83.50445,36.33427],[-83.5034,36.33489],[-83.50297,36.33524],[-83.50263,36.33589],[-83.50202,36.33613],[-83.50153,36.33609],[-83.5014,36.33635],[-83.50204,36.337],[-83.50332,36.33742],[-83.50475,36.33768],[-83.50532,36.33895],[-83.50614,36.33971],[-83.5068,36.34069],[-83.50839,36.34225],[-83.51081,36.34427],[-83.51259,36.34505],[-83.51392,36.34582],[-83.51527,36.34683],[-83.51608,36.34785],[-83.51987,36.34958],[-83.5201,36.35024],[-83.52108,36.35152],[-83.52174,36.3515],[-83.52386,36.35072]]]}}
