{"type":"Feature","properties":{"id":"middle-prong-little-pigeon","name":"Middle Prong Little Pigeon River (Tremont)","waterbodyType":"creek","throughLakeIds":[],"allowOpenEnds":false,"source":"nhd-hu8-06010107","approximate":false,"labelAnchor":[-83.3383,35.70336],"bounds":[-83.38254,35.65757,-83.30528,35.7083],"crs":"EPSG:4326","coordinateOrder":"longitude,latitude","partCount":1,"vertexCount":119,"lengthKm":12.26,"sourceIds":["{91C0D233-B356-46DC-952D-1168CAAE894A}","51637776","51637856","51637922","51637938","51638002","51638188","{66BB1F7A-2240-4AFE-B386-08FBEE5D7247}","51638378","{BC70B52D-9A6D-4ADC-9FD5-112A5388B42F}","51638448","51638458","51638582","{2B0E309C-10DB-4332-8730-B5141528E7F6}","51638600","{EEDAA708-F92D-4386-BDB7-A61C5D56D0F6}","51638700","51637842","{4CAEA166-E409-4CED-B2A7-610352FF1ECE}","51637844","{9F9D3C94-453F-490A-AEF1-0EE56A7BF7C6}","51637828","{C72A64D0-8448-4DF5-8FBC-8A86230BBFC5}","51637808","{C1C89FE9-CBC0-4308-8401-7ADE39F72466}","{B61FD71C-146C-4C40-986C-7DED706DB2E0}","{167C11B4-FDEF-4FF7-B8C1-79F1E3290DA6}","51637814","51637812"],"sourceRetrieved":"2026-09-11","geometrySource":"nhd","hu8":"06010107","simplification":{"toleranceM":10,"verticesBefore":1376,"verticesAfter":119,"budgetBytes":81920},"trace":{"anchor":{"lat":35.703526,"lon":-83.338255,"snapDistM":19.1},"up":{"spec":"headwater","reason":"headwater","terminus":[-83.305277,35.657567],"distKmFromAnchor":7.74},"down":{"spec":"mouth","reason":"name-change","terminus":[-83.382537,35.708296],"enteredNames":["Little Pigeon River"],"distKmFromAnchor":4.18},"vaaUsed":false,"toleranceM":12}},"geometry":{"type":"MultiLineString","coordinates":[[[-83.30528,35.65757],[-83.30532,35.65796],[-83.30578,35.65851],[-83.30565,35.65908],[-83.30578,35.66],[-83.30622,35.66046],[-83.30642,35.66107],[-83.3063,35.66194],[-83.30673,35.66252],[-83.30577,35.66472],[-83.30592,35.66541],[-83.30546,35.66639],[-83.30646,35.66673],[-83.30715,35.66745],[-83.30748,35.66822],[-83.30812,35.66901],[-83.30985,35.67015],[-83.31134,35.67159],[-83.31187,35.67169],[-83.31225,35.67202],[-83.31236,35.67237],[-83.31264,35.67239],[-83.31329,35.67285],[-83.31359,35.67359],[-83.31399,35.67395],[-83.31371,35.67463],[-83.3138,35.67503],[-83.31424,35.6752],[-83.31461,35.67557],[-83.31611,35.67618],[-83.317,35.67708],[-83.31874,35.67733],[-83.31918,35.67781],[-83.31908,35.6784],[-83.31816,35.67865],[-83.31783,35.67915],[-83.31727,35.67959],[-83.31723,35.68026],[-83.31676,35.68061],[-83.31666,35.68111],[-83.31685,35.6821],[-83.31815,35.68348],[-83.31849,35.6835],[-83.31936,35.68396],[-83.31992,35.68485],[-83.3204,35.68627],[-83.32039,35.68673],[-83.32021,35.687],[-83.31943,35.68741],[-83.31927,35.68822],[-83.32018,35.6895],[-83.32027,35.69012],[-83.32075,35.6906],[-83.3207,35.69191],[-83.32103,35.69219],[-83.32273,35.69254],[-83.32271,35.69318],[-83.32335,35.6943],[-83.32392,35.69437],[-83.32445,35.69472],[-83.32466,35.69509],[-83.32477,35.69602],[-83.32533,35.69649],[-83.32624,35.69698],[-83.32663,35.69695],[-83.32736,35.69661],[-83.32803,35.69681],[-83.32833,35.69713],[-83.32828,35.6978],[-83.32855,35.69814],[-83.32931,35.6983],[-83.33026,35.69874],[-83.33191,35.69981],[-83.332,35.70023],[-83.33276,35.70101],[-83.33315,35.70221],[-83.33366,35.70276],[-83.33483,35.70282],[-83.33568,35.7038],[-83.33639,35.70406],[-83.33819,35.70335],[-83.33968,35.70358],[-83.3406,35.70314],[-83.34142,35.70313],[-83.3383,35.70336],[-83.3419,35.70308],[-83.34359,35.70332],[-83.34443,35.70307],[-83.34728,35.70268],[-83.34802,35.70231],[-83.34869,35.70228],[-83.34971,35.70178],[-83.35266,35.70176],[-83.3532,35.70196],[-83.35383,35.70264],[-83.35511,35.70257],[-83.35603,35.70302],[-83.3578,35.70306],[-83.35846,35.70332],[-83.36027,35.70457],[-83.36389,35.70482],[-83.36426,35.70503],[-83.36439,35.70536],[-83.36509,35.70519],[-83.3658,35.70465],[-83.36643,35.70438],[-83.36688,35.70454],[-83.36731,35.70511],[-83.369,35.70506],[-83.37059,35.70581],[-83.37171,35.70609],[-83.37306,35.70599],[-83.37453,35.70566],[-83.3781,35.70561],[-83.37935,35.70614],[-83.37983,35.7069],[-83.38089,35.7078],[-83.38209,35.70826],[-83.38254,35.7083]]]}}
