{"type":"Feature","properties":{"id":"elk-river","name":"Elk River (Tims Ford tailwater)","waterbodyType":"tailrace","throughLakeIds":[],"allowOpenEnds":false,"source":"nhd-hu8-06030003","approximate":false,"labelAnchor":[-86.2808,35.19219],"bounds":[-86.90213,35.02289,-86.27709,35.19719],"crs":"EPSG:4326","coordinateOrder":"longitude,latitude","partCount":1,"vertexCount":748,"lengthKm":140.41,"sourceIds":["138655458","138655459","138655805","138655457","138655456","138655455","138655454","138655453","138655452","138655451","138655450","138655446","138655447","138655448","138655449","138655587","138655442","138655441","138655440","138655439","138655438","138655437","138655436","138655435","138655434","138655433","138655592","138655593","138655594","138655429","138655430","138655428","138655427","138655424","138655423","138655421","138655422","138655425","138655426","138655404","138655403","138655402","138655401","138655400","138655399","138655398","138655397","138655687","138655686","138655680","138655396","138655394","138655395","138655392","138655393","138655391","138655389","138655390","138655388","138655387","138655386","138655385","138655384","138655383","138655382","138655381","138655380","138655379","138655378","138655377","138655376","138655373","138655374","138655375","138655372","138655371","138655370","138655369","138655368","138655367","138655685","138655684","138655683","138655682","138655681","138655613","138655612","138655615","138655364","138655363","138655362","138655361","138655360","138655356","138655355","138655357","138655358","138655359","138655354","138655353","138655352","138655351","138655349","138655348","138655350","138655627","138655345","138655628","138655343","138655629","138655341","138655630","138655632","138655339","138655633","138655336","138655635","138655634","138655334","138655333","138655332","138655331","138655330","138655329","138655639","138655640","138655326","138655325","138655324","138655323","138655322","138655321","138655320","138655319","138655318","138655317","138655316","138655654","138655314","138655313","138655312","138655311","138655310","138655670","138655308","138655307","138655306","138655305","138655304","138655303","138655302","138655300","138655301","138655299","138655298","138655297","138655674","138655294","138655293","138655292","138655291","138655290","138655288","138655289","138655991","138655989","138655990","138656030","138656031","138655986","138656084","138655985","138655984","138655983","138656034","138656033","138656052","138655979","138655977","138655974","138655975","138655976","138655978","138655980","138656036","138655971","138655970","138655969","138655968","138655967","138656037","138655965","138655964","138655963","138655960","138655961","138655962","138655956","138655957","138655958","138655959","138655954","138655953","138655952","138655951","138655950","138655949","138655948","138656213","138656210","138656211","138656212","138656207","138656208","138656209","138656206","138656205","138656203","138656204","138656202","138656201","138656199","138656200","138656198","138656197","138656195","138656196","138656194","138656192","138656190","138656191","138656189","138656607","138656605","138656606","138656604","138656602","138656603","138656596","138656597","138656598","138656599","138656600","138656601","138656595","138656594","138656593","138656591","138656592","138656589","{6EEE8B46-578F-4315-B7E7-4EE3A09DB3D1}","138656590"],"sourceRetrieved":"2026-09-11","geometrySource":"nhd","hu8":"06030003","simplification":{"toleranceM":10,"verticesBefore":7281,"verticesAfter":748,"budgetBytes":81920},"trace":{"anchor":{"lat":35.1923,"lon":-86.2811,"snapDistM":29.6},"up":{"spec":"dam:Tims Ford Lake","reason":"headwater","terminus":[-86.277094,35.194443],"distKmFromAnchor":0.67},"down":{"spec":"mouth","reason":"terminal-node","terminus":[-86.884887,35.022886],"enteredNames":null,"distKmFromAnchor":140.06},"vaaUsed":false,"toleranceM":12}},"geometry":{"type":"MultiLineString","coordinates":[[[-86.27709,35.19444],[-86.27883,35.19352],[-86.28036,35.193],[-86.28055,35.19272],[-86.28098,35.19176],[-86.28114,35.19109],[-86.2808,35.19219],[-86.28124,35.19046],[-86.28157,35.1871],[-86.28146,35.18508],[-86.28171,35.18475],[-86.28251,35.18458],[-86.2836,35.18485],[-86.28546,35.18598],[-86.28669,35.18715],[-86.28849,35.18939],[-86.28924,35.1911],[-86.28988,35.19411],[-86.28969,35.1953],[-86.28881,35.19577],[-86.2888,35.1961],[-86.28917,35.19664],[-86.29009,35.19713],[-86.29048,35.19719],[-86.2911,35.19702],[-86.29364,35.19565],[-86.29481,35.19418],[-86.29656,35.19107],[-86.29679,35.19016],[-86.29719,35.18989],[-86.29788,35.18977],[-86.29919,35.18989],[-86.30057,35.19029],[-86.30293,35.19153],[-86.30613,35.19362],[-86.30829,35.196],[-86.30896,35.19648],[-86.31021,35.19657],[-86.3113,35.19627],[-86.31169,35.19599],[-86.31178,35.19534],[-86.31064,35.19331],[-86.31011,35.19126],[-86.3094,35.19032],[-86.30615,35.18739],[-86.30584,35.18667],[-86.3062,35.18587],[-86.30696,35.18504],[-86.30833,35.18409],[-86.30917,35.18378],[-86.31082,35.18218],[-86.311,35.18163],[-86.3108,35.18106],[-86.30767,35.17911],[-86.30567,35.17821],[-86.30415,35.17784],[-86.30095,35.17736],[-86.29705,35.17822],[-86.29606,35.1779],[-86.29292,35.17748],[-86.29152,35.1767],[-86.29097,35.17621],[-86.29102,35.17483],[-86.29188,35.17166],[-86.29301,35.16904],[-86.29395,35.16783],[-86.2952,35.16678],[-86.29643,35.16603],[-86.29741,35.16564],[-86.2985,35.16553],[-86.30124,35.16572],[-86.30266,35.16623],[-86.3038,35.16716],[-86.30448,35.16807],[-86.3082,35.17146],[-86.30887,35.17184],[-86.31058,35.17198],[-86.3121,35.17232],[-86.31278,35.17216],[-86.31416,35.17147],[-86.31674,35.16887],[-86.31728,35.1681],[-86.31785,35.16695],[-86.31897,35.16354],[-86.31991,35.16207],[-86.31998,35.16107],[-86.31935,35.15838],[-86.31953,35.15593],[-86.31991,35.15496],[-86.31999,35.1537],[-86.31975,35.15309],[-86.31901,35.15214],[-86.31715,35.15056],[-86.31691,35.15018],[-86.31653,35.14885],[-86.31675,35.14664],[-86.31693,35.14648],[-86.31729,35.14649],[-86.31951,35.14676],[-86.32086,35.14719],[-86.32207,35.14714],[-86.3231,35.14733],[-86.32386,35.14761],[-86.32533,35.14847],[-86.32624,35.14855],[-86.32727,35.14923],[-86.32801,35.14945],[-86.32909,35.1492],[-86.33099,35.14845],[-86.33228,35.14766],[-86.33335,35.1467],[-86.33333,35.14642],[-86.33264,35.14563],[-86.33001,35.14358],[-86.32593,35.14108],[-86.32382,35.13961],[-86.32129,35.1369],[-86.32031,35.13642],[-86.31893,35.13605],[-86.31667,35.1357],[-86.3156,35.13538],[-86.31427,35.13536],[-86.31297,35.13477],[-86.31261,35.13436],[-86.3128,35.13389],[-86.31466,35.13134],[-86.31796,35.12711],[-86.31912,35.12635],[-86.32242,35.12507],[-86.32376,35.12445],[-86.32637,35.1229],[-86.32771,35.12246],[-86.32882,35.12241],[-86.33206,35.12347],[-86.33515,35.12571],[-86.33581,35.12667],[-86.33632,35.12792],[-86.3372,35.12889],[-86.33808,35.12911],[-86.34062,35.12923],[-86.34353,35.12909],[-86.34437,35.12929],[-86.34493,35.12968],[-86.34552,35.1307],[-86.34699,35.1326],[-86.34758,35.13311],[-86.34883,35.13587],[-86.34917,35.13831],[-86.34849,35.14197],[-86.34862,35.14464],[-86.34896,35.1454],[-86.34984,35.14632],[-86.35058,35.14662],[-86.35123,35.14654],[-86.35197,35.14623],[-86.35393,35.14491],[-86.35481,35.14368],[-86.35632,35.14071],[-86.35641,35.1399],[-86.35571,35.13812],[-86.35564,35.13751],[-86.35597,35.13658],[-86.35668,35.13558],[-86.35638,35.13371],[-86.35647,35.13291],[-86.35596,35.13182],[-86.35569,35.13155],[-86.35527,35.13142],[-86.35514,35.13099],[-86.3569,35.12862],[-86.35735,35.12687],[-86.35806,35.12565],[-86.35851,35.1253],[-86.35902,35.12449],[-86.35898,35.12425],[-86.35928,35.12366],[-86.35978,35.12316],[-86.36085,35.12285],[-86.36243,35.12281],[-86.36312,35.12295],[-86.3662,35.12438],[-86.36861,35.12756],[-86.36906,35.12868],[-86.36946,35.13155],[-86.36985,35.13285],[-86.37013,35.13566],[-86.36928,35.13927],[-86.36901,35.13991],[-86.36792,35.14086],[-86.36789,35.14129],[-86.36978,35.14359],[-86.37053,35.14424],[-86.37116,35.1444],[-86.37268,35.14408],[-86.37518,35.14319],[-86.37717,35.1422],[-86.3792,35.14142],[-86.37983,35.1409],[-86.38053,35.14068],[-86.38085,35.14073],[-86.38142,35.14045],[-86.38426,35.13797],[-86.38485,35.13731],[-86.38551,35.13614],[-86.38624,35.13571],[-86.38741,35.13404],[-86.38805,35.13365],[-86.38946,35.13336],[-86.39113,35.13329],[-86.39392,35.1338],[-86.39605,35.13458],[-86.39697,35.13507],[-86.39777,35.13578],[-86.39792,35.13619],[-86.3977,35.13753],[-86.39716,35.13874],[-86.39722,35.13933],[-86.3979,35.13993],[-86.39856,35.14021],[-86.4002,35.14001],[-86.40256,35.13805],[-86.40342,35.1363],[-86.40375,35.13472],[-86.40347,35.13296],[-86.40351,35.13211],[-86.40394,35.13095],[-86.40477,35.13003],[-86.40817,35.12734],[-86.40874,35.12736],[-86.41027,35.12807],[-86.41289,35.13059],[-86.4151,35.132],[-86.41777,35.13454],[-86.41973,35.13469],[-86.42339,35.13437],[-86.42571,35.13433],[-86.42654,35.13409],[-86.42786,35.1331],[-86.42879,35.13292],[-86.42959,35.13312],[-86.43054,35.13358],[-86.43404,35.13645],[-86.43511,35.13684],[-86.43549,35.13679],[-86.4358,35.13649],[-86.43634,35.13511],[-86.43642,35.13424],[-86.43594,35.13352],[-86.43552,35.13159],[-86.43615,35.13013],[-86.43568,35.12896],[-86.43574,35.12844],[-86.43601,35.12812],[-86.43669,35.12803],[-86.43758,35.12822],[-86.43825,35.12857],[-86.43893,35.12925],[-86.44058,35.12885],[-86.44245,35.12963],[-86.44537,35.13016],[-86.44609,35.12999],[-86.44804,35.12866],[-86.45016,35.12771],[-86.45195,35.1272],[-86.45265,35.12724],[-86.45349,35.12776],[-86.45389,35.12826],[-86.45411,35.12906],[-86.45397,35.13005],[-86.45337,35.13096],[-86.45202,35.13218],[-86.44983,35.13319],[-86.44875,35.13421],[-86.44828,35.13595],[-86.44817,35.1382],[-86.44761,35.1403],[-86.44771,35.14067],[-86.44805,35.14095],[-86.44873,35.1412],[-86.44945,35.14124],[-86.45253,35.14106],[-86.45602,35.14115],[-86.458,35.14093],[-86.45852,35.14103],[-86.46066,35.1405],[-86.46365,35.13929],[-86.46477,35.13911],[-86.46605,35.13912],[-86.46877,35.13814],[-86.47253,35.13629],[-86.47313,35.13635],[-86.47369,35.13694],[-86.47448,35.13841],[-86.47503,35.14017],[-86.47553,35.14304],[-86.47541,35.14402],[-86.47516,35.14427],[-86.47327,35.14508],[-86.47182,35.14608],[-86.47083,35.14707],[-86.4688,35.14801],[-86.46778,35.14879],[-86.46701,35.15041],[-86.46609,35.15305],[-86.46599,35.15382],[-86.4661,35.15424],[-86.46651,35.1547],[-86.47067,35.15799],[-86.47087,35.15834],[-86.47092,35.15925],[-86.47141,35.16012],[-86.47207,35.1608],[-86.47356,35.16185],[-86.4745,35.16286],[-86.4776,35.16342],[-86.4787,35.1634],[-86.47942,35.16322],[-86.48144,35.16234],[-86.48387,35.16159],[-86.48447,35.16123],[-86.48469,35.16088],[-86.48474,35.16014],[-86.48243,35.15789],[-86.48183,35.15737],[-86.48105,35.15709],[-86.47927,35.15601],[-86.47822,35.15486],[-86.47685,35.15371],[-86.47624,35.15276],[-86.47601,35.1519],[-86.4786,35.14563],[-86.48229,35.14153],[-86.48325,35.14078],[-86.48315,35.1404],[-86.48333,35.14008],[-86.4849,35.1388],[-86.48613,35.13818],[-86.4874,35.13789],[-86.49119,35.13781],[-86.49282,35.13753],[-86.49568,35.13795],[-86.49729,35.13882],[-86.49787,35.13936],[-86.50061,35.14336],[-86.50117,35.14453],[-86.50188,35.148],[-86.50292,35.14999],[-86.50363,35.15076],[-86.50398,35.15093],[-86.50473,35.15092],[-86.50694,35.15026],[-86.50972,35.14985],[-86.51122,35.14948],[-86.51238,35.14898],[-86.5131,35.14818],[-86.51353,35.14647],[-86.51403,35.14527],[-86.51405,35.1442],[-86.51274,35.1409],[-86.51229,35.14025],[-86.51134,35.13926],[-86.50957,35.13799],[-86.50898,35.13732],[-86.5082,35.13694],[-86.50758,35.13634],[-86.5076,35.13575],[-86.50807,35.13511],[-86.50993,35.1341],[-86.5119,35.13377],[-86.51255,35.13379],[-86.51547,35.13535],[-86.51617,35.13524],[-86.51836,35.13573],[-86.51904,35.13557],[-86.52229,35.13572],[-86.52481,35.13534],[-86.52542,35.13553],[-86.52809,35.13518],[-86.53117,35.1343],[-86.53261,35.13414],[-86.53465,35.13438],[-86.53771,35.135],[-86.53873,35.13502],[-86.53915,35.1349],[-86.53968,35.13443],[-86.53993,35.13368],[-86.53971,35.13091],[-86.53956,35.1305],[-86.53768,35.12938],[-86.53706,35.12775],[-86.53714,35.12666],[-86.53776,35.1242],[-86.53803,35.12389],[-86.54163,35.12251],[-86.54438,35.12116],[-86.54534,35.12053],[-86.54717,35.11895],[-86.54863,35.11839],[-86.55032,35.11842],[-86.55236,35.11811],[-86.55411,35.11824],[-86.55498,35.11812],[-86.55765,35.11858],[-86.55865,35.119],[-86.5602,35.12064],[-86.56062,35.12138],[-86.56226,35.12658],[-86.5623,35.12803],[-86.56133,35.13107],[-86.56132,35.1316],[-86.56253,35.13399],[-86.56304,35.13539],[-86.56325,35.13907],[-86.56344,35.13957],[-86.5633,35.14151],[-86.56361,35.14214],[-86.56426,35.14262],[-86.56662,35.14357],[-86.56748,35.14366],[-86.56892,35.14284],[-86.57113,35.14116],[-86.5744,35.13578],[-86.57513,35.13476],[-86.57566,35.13437],[-86.58087,35.13381],[-86.58309,35.13407],[-86.58461,35.13452],[-86.58666,35.13636],[-86.58762,35.1368],[-86.59079,35.13782],[-86.60207,35.14777],[-86.60588,35.14942],[-86.60808,35.15091],[-86.60963,35.15138],[-86.61039,35.15098],[-86.61074,35.15061],[-86.61126,35.149],[-86.61143,35.14654],[-86.61103,35.14487],[-86.60762,35.13963],[-86.60599,35.13809],[-86.60523,35.13773],[-86.60499,35.13744],[-86.60376,35.13693],[-86.60272,35.13616],[-86.60071,35.13384],[-86.60044,35.13324],[-86.60042,35.13264],[-86.60097,35.13153],[-86.60336,35.12939],[-86.60553,35.12778],[-86.60729,35.12586],[-86.60796,35.12498],[-86.60986,35.12135],[-86.61035,35.12077],[-86.61133,35.12016],[-86.61235,35.11994],[-86.61459,35.12045],[-86.61617,35.12141],[-86.61727,35.12291],[-86.61769,35.12413],[-86.61793,35.12689],[-86.61783,35.12877],[-86.6174,35.13029],[-86.61695,35.13081],[-86.61496,35.13206],[-86.61411,35.13283],[-86.61375,35.13357],[-86.61319,35.13577],[-86.61321,35.1373],[-86.61373,35.1392],[-86.61457,35.14077],[-86.61518,35.14142],[-86.61775,35.14242],[-86.61982,35.14244],[-86.62146,35.14263],[-86.62264,35.14247],[-86.62357,35.14132],[-86.62397,35.13978],[-86.62391,35.13844],[-86.62427,35.13738],[-86.62489,35.1364],[-86.62736,35.13482],[-86.62829,35.13479],[-86.63128,35.13425],[-86.63391,35.13457],[-86.63641,35.1353],[-86.63749,35.13609],[-86.63977,35.13702],[-86.64127,35.13796],[-86.64323,35.13857],[-86.64421,35.13968],[-86.64403,35.14273],[-86.64379,35.1436],[-86.64309,35.14487],[-86.64233,35.14545],[-86.64099,35.1459],[-86.63923,35.14624],[-86.63495,35.14644],[-86.63076,35.14645],[-86.63016,35.14658],[-86.62949,35.14703],[-86.62788,35.14887],[-86.62796,35.14925],[-86.62771,35.14993],[-86.62661,35.15122],[-86.62614,35.15148],[-86.62552,35.15259],[-86.62544,35.15393],[-86.62613,35.15525],[-86.62645,35.15536],[-86.63054,35.15517],[-86.6316,35.15494],[-86.63279,35.15439],[-86.63336,35.15434],[-86.63407,35.15451],[-86.63675,35.15582],[-86.63869,35.15639],[-86.64007,35.15664],[-86.64112,35.15657],[-86.64183,35.15636],[-86.64524,35.15351],[-86.64793,35.15171],[-86.64881,35.15062],[-86.65027,35.14827],[-86.65109,35.14753],[-86.65253,35.14701],[-86.65692,35.14667],[-86.65793,35.14607],[-86.6589,35.14472],[-86.65919,35.14386],[-86.65908,35.13965],[-86.65917,35.13896],[-86.65944,35.13868],[-86.65935,35.13738],[-86.65959,35.13608],[-86.65928,35.13412],[-86.65908,35.1337],[-86.66246,35.13122],[-86.66639,35.13034],[-86.67159,35.13099],[-86.67484,35.13192],[-86.67577,35.13267],[-86.67883,35.13591],[-86.67926,35.13661],[-86.67939,35.13732],[-86.67909,35.13951],[-86.67883,35.14062],[-86.67808,35.14161],[-86.67794,35.14256],[-86.67687,35.14512],[-86.67678,35.147],[-86.67706,35.14808],[-86.67782,35.14939],[-86.67869,35.14995],[-86.67952,35.15027],[-86.68048,35.15038],[-86.68115,35.15023],[-86.6842,35.14794],[-86.68539,35.14643],[-86.68729,35.14505],[-86.68944,35.14206],[-86.69042,35.1411],[-86.69317,35.1395],[-86.69481,35.13815],[-86.69589,35.13641],[-86.69636,35.13617],[-86.69757,35.13473],[-86.69888,35.13244],[-86.69991,35.13018],[-86.70032,35.128],[-86.70098,35.12672],[-86.70383,35.12405],[-86.70535,35.12112],[-86.70711,35.11878],[-86.70835,35.11783],[-86.70978,35.11727],[-86.71189,35.11724],[-86.71253,35.11738],[-86.71295,35.11764],[-86.7147,35.11951],[-86.7169,35.12221],[-86.71731,35.12308],[-86.71761,35.12656],[-86.71733,35.12861],[-86.71648,35.13101],[-86.71592,35.13144],[-86.71423,35.1339],[-86.71286,35.13655],[-86.71274,35.13701],[-86.71289,35.1377],[-86.71265,35.13876],[-86.71317,35.13988],[-86.71419,35.14095],[-86.71621,35.14195],[-86.71742,35.142],[-86.71806,35.14168],[-86.71897,35.13975],[-86.71971,35.13874],[-86.72093,35.13781],[-86.72249,35.13713],[-86.72713,35.13609],[-86.72879,35.13527],[-86.7295,35.13465],[-86.72995,35.13331],[-86.73011,35.13156],[-86.72981,35.12927],[-86.72985,35.12798],[-86.73049,35.1254],[-86.73069,35.12231],[-86.73118,35.11984],[-86.73106,35.11718],[-86.7305,35.11513],[-86.73049,35.11388],[-86.73072,35.11283],[-86.73125,35.11191],[-86.73228,35.11071],[-86.73307,35.10999],[-86.7348,35.10884],[-86.73973,35.10371],[-86.74199,35.10043],[-86.74334,35.09757],[-86.74423,35.09618],[-86.74498,35.09522],[-86.74654,35.09381],[-86.74726,35.0934],[-86.74776,35.09325],[-86.7485,35.09326],[-86.7536,35.09448],[-86.75569,35.09515],[-86.75849,35.09643],[-86.75998,35.09744],[-86.76178,35.09826],[-86.7632,35.09916],[-86.76402,35.10008],[-86.76496,35.10447],[-86.76663,35.1085],[-86.7679,35.11038],[-86.76972,35.11237],[-86.77057,35.11292],[-86.7715,35.11312],[-86.77235,35.11279],[-86.77661,35.1092],[-86.77732,35.10889],[-86.7782,35.10757],[-86.77838,35.10651],[-86.77815,35.10465],[-86.77737,35.10375],[-86.77226,35.1001],[-86.76933,35.09879],[-86.76845,35.09782],[-86.76822,35.09656],[-86.76877,35.09447],[-86.76943,35.09277],[-86.7702,35.09215],[-86.77188,35.09147],[-86.7734,35.09144],[-86.77435,35.09211],[-86.77493,35.09329],[-86.77525,35.09554],[-86.77582,35.09658],[-86.77665,35.09759],[-86.77737,35.09817],[-86.77859,35.09854],[-86.78018,35.09862],[-86.78132,35.0985],[-86.78464,35.09786],[-86.78765,35.09642],[-86.79245,35.09454],[-86.79601,35.09366],[-86.79688,35.09371],[-86.79972,35.09454],[-86.80306,35.0952],[-86.8076,35.09656],[-86.80865,35.09662],[-86.81034,35.09643],[-86.81323,35.09528],[-86.81441,35.09454],[-86.81808,35.09123],[-86.82067,35.0882],[-86.82191,35.08707],[-86.82238,35.08637],[-86.8239,35.08485],[-86.82583,35.08319],[-86.82717,35.0824],[-86.82883,35.08223],[-86.83343,35.08231],[-86.83629,35.08269],[-86.83768,35.08314],[-86.84119,35.08492],[-86.84627,35.08706],[-86.84895,35.08766],[-86.85087,35.08777],[-86.85498,35.08597],[-86.85739,35.08449],[-86.85891,35.08306],[-86.85963,35.08266],[-86.86106,35.0823],[-86.86373,35.082],[-86.86888,35.08013],[-86.87258,35.0793],[-86.87437,35.07849],[-86.87649,35.0771],[-86.87737,35.07639],[-86.87825,35.07536],[-86.87872,35.07396],[-86.87869,35.07233],[-86.87758,35.07056],[-86.87612,35.06919],[-86.87408,35.06806],[-86.87153,35.067],[-86.86997,35.0668],[-86.86807,35.06596],[-86.86617,35.06489],[-86.86463,35.06329],[-86.86447,35.06297],[-86.86455,35.06245],[-86.86494,35.06215],[-86.86747,35.05897],[-86.86895,35.05766],[-86.86993,35.05591],[-86.87105,35.05441],[-86.87256,35.05291],[-86.87387,35.0519],[-86.87513,35.05119],[-86.87735,35.05059],[-86.88093,35.05031],[-86.88303,35.04969],[-86.88678,35.04769],[-86.89509,35.04381],[-86.8982,35.04204],[-86.90012,35.04053],[-86.90182,35.03853],[-86.90213,35.0376],[-86.90185,35.03497],[-86.90109,35.0339],[-86.9005,35.0326],[-86.90028,35.02884],[-86.89992,35.02774],[-86.8994,35.02704],[-86.89877,35.02665],[-86.89734,35.02622],[-86.89368,35.02613],[-86.88703,35.0254],[-86.88581,35.02484],[-86.88511,35.02425],[-86.88469,35.02343],[-86.88489,35.02289]]]}}
