{"type":"Feature","properties":{"id":"barren-fork-river","name":"Barren Fork River","waterbodyType":"river","throughLakeIds":[],"allowOpenEnds":false,"source":"nhd-hu8-05130107","approximate":false,"labelAnchor":[-85.77719,35.6752],"bounds":[-86.10712,35.62768,-85.727,35.69922],"crs":"EPSG:4326","coordinateOrder":"longitude,latitude","partCount":1,"vertexCount":497,"lengthKm":59.67,"sourceIds":["51180859","51180901","51180977","51181017","51181135","51181197","51181295","51181327","51181273","51181411","51181413","51181403","51181405","51181303","51181181","51181149","51181095","51181043","51181329","51181389","51181427","51181421","51181349","51181373","51181375","51181377","51181385","51181365","51181323","51181109","51181125","51181065","51181041","51181023","51181179","51181215","51181227","51181213","51181203","51181165","51181099","51181085","51181057","51181011","51180987","51180997","51180973","51181107","51181117","51181157","51181175","51181233","51181251","51181325","51181445","51181453","51181459","51181495","51181505","51181541","51181591","51181597","51181621","51181681","51181685","51181699","51181705","51181707","51181727","51181741","51181773","51181847","51181853","51181873","51181883","51181877","51181861","51181843","51181833","51181759","51181781","51181923","51181961","51181987","51182031","51182039","51182075","51182121","51180889","51180915","51180913","51180853","51180861","51180867","51180871","51180723","51180699","51180647","51180627","51180623","51180641","51180639","51180595"],"sourceRetrieved":"2026-09-11","geometrySource":"nhd","hu8":"05130107","simplification":{"toleranceM":10,"verticesBefore":1283,"verticesAfter":497,"budgetBytes":81920},"trace":{"anchor":{"lat":35.6752,"lon":-85.7772,"snapDistM":0.6},"up":{"spec":"headwater","reason":"headwater","terminus":[-86.107117,35.632157],"distKmFromAnchor":50.12},"down":{"spec":"mouth","reason":"name-change","terminus":[-85.726998,35.694025],"enteredNames":["Collins River"],"distKmFromAnchor":10.08},"vaaUsed":false,"toleranceM":12}},"geometry":{"type":"MultiLineString","coordinates":[[[-86.10712,35.63216],[-86.10625,35.63148],[-86.10583,35.63084],[-86.10488,35.63024],[-86.10416,35.62927],[-86.10293,35.62861],[-86.10194,35.6285],[-86.10059,35.62787],[-86.09907,35.62768],[-86.0988,35.62775],[-86.09855,35.62826],[-86.09764,35.6292],[-86.09544,35.63047],[-86.09465,35.6303],[-86.09417,35.63068],[-86.09274,35.63074],[-86.09241,35.63096],[-86.09155,35.63107],[-86.09137,35.63127],[-86.09093,35.63136],[-86.09053,35.63184],[-86.09004,35.63197],[-86.08831,35.63192],[-86.08806,35.63207],[-86.08792,35.63259],[-86.08747,35.63293],[-86.08635,35.63269],[-86.08611,35.63301],[-86.08514,35.63346],[-86.08443,35.63332],[-86.08377,35.6339],[-86.08322,35.634],[-86.08269,35.63386],[-86.08238,35.63355],[-86.08179,35.63366],[-86.08136,35.63354],[-86.0813,35.63298],[-86.08066,35.63258],[-86.07908,35.6332],[-86.07826,35.63303],[-86.07733,35.63345],[-86.07689,35.63327],[-86.07636,35.63364],[-86.07507,35.63351],[-86.07383,35.63451],[-86.07262,35.63507],[-86.07252,35.63549],[-86.07212,35.63576],[-86.07219,35.63615],[-86.07154,35.63623],[-86.07119,35.63653],[-86.07066,35.63646],[-86.07024,35.63688],[-86.06984,35.63693],[-86.06964,35.63711],[-86.06953,35.63751],[-86.06924,35.63741],[-86.06878,35.63768],[-86.06832,35.6377],[-86.06802,35.63823],[-86.06726,35.63824],[-86.06687,35.63805],[-86.06649,35.63805],[-86.06623,35.63771],[-86.06563,35.63776],[-86.06485,35.63791],[-86.06483,35.63835],[-86.06423,35.63838],[-86.06405,35.63877],[-86.06374,35.63899],[-86.06172,35.63884],[-86.06085,35.63957],[-86.06017,35.63967],[-86.05988,35.64023],[-86.0599,35.64059],[-86.05949,35.6408],[-86.05891,35.64068],[-86.05874,35.64093],[-86.05896,35.64108],[-86.05888,35.64137],[-86.05727,35.64198],[-86.05531,35.64347],[-86.0548,35.64464],[-86.05438,35.64482],[-86.05412,35.64566],[-86.05371,35.64609],[-86.05335,35.64852],[-86.05317,35.64859],[-86.05272,35.64831],[-86.05254,35.64861],[-86.0511,35.64925],[-86.05052,35.64907],[-86.05017,35.64927],[-86.04919,35.64927],[-86.04849,35.64837],[-86.0479,35.64846],[-86.04759,35.64822],[-86.04644,35.64786],[-86.04572,35.64801],[-86.04529,35.64777],[-86.04444,35.64784],[-86.04404,35.64752],[-86.04339,35.64743],[-86.04252,35.64624],[-86.0411,35.64522],[-86.04065,35.6451],[-86.04014,35.64464],[-86.03997,35.64425],[-86.03909,35.64372],[-86.03826,35.64353],[-86.03798,35.64299],[-86.03699,35.64187],[-86.03618,35.64126],[-86.03571,35.64104],[-86.03488,35.64105],[-86.03393,35.64066],[-86.03369,35.64023],[-86.03314,35.63986],[-86.03301,35.63933],[-86.03271,35.63932],[-86.03118,35.63836],[-86.03097,35.6385],[-86.03094,35.63907],[-86.03051,35.63921],[-86.02983,35.63902],[-86.02951,35.63862],[-86.02871,35.63858],[-86.02834,35.63828],[-86.02825,35.6391],[-86.02759,35.63939],[-86.02701,35.63934],[-86.02642,35.63981],[-86.02588,35.63982],[-86.02561,35.63917],[-86.0246,35.6394],[-86.02357,35.63996],[-86.02283,35.63991],[-86.02158,35.64035],[-86.02062,35.6403],[-86.02019,35.64005],[-86.01865,35.64074],[-86.01735,35.64045],[-86.01609,35.64057],[-86.0142,35.64045],[-86.01362,35.64056],[-86.01282,35.64131],[-86.0123,35.6416],[-86.01215,35.64216],[-86.01081,35.642],[-86.01064,35.64275],[-86.01022,35.64295],[-86.00976,35.64282],[-86.00864,35.64386],[-86.00796,35.64515],[-86.00819,35.64567],[-86.00706,35.64665],[-86.00588,35.64651],[-86.00412,35.64663],[-86.00323,35.64614],[-86.00285,35.64632],[-86.00185,35.64618],[-86.00125,35.64539],[-86.00022,35.64558],[-85.99952,35.64508],[-85.99895,35.64505],[-85.99791,35.64586],[-85.99733,35.64583],[-85.99658,35.64615],[-85.99608,35.64601],[-85.99528,35.64551],[-85.99453,35.6458],[-85.99402,35.64623],[-85.99362,35.64623],[-85.99321,35.64581],[-85.9925,35.64576],[-85.99234,35.64511],[-85.99214,35.64498],[-85.99165,35.64494],[-85.99147,35.64505],[-85.99122,35.64591],[-85.99155,35.6465],[-85.99124,35.64688],[-85.99057,35.64686],[-85.99069,35.64742],[-85.98842,35.64798],[-85.98778,35.64835],[-85.98565,35.64863],[-85.98474,35.64926],[-85.98394,35.65051],[-85.9834,35.65308],[-85.98168,35.65467],[-85.98107,35.65484],[-85.98,35.65469],[-85.9794,35.65444],[-85.97872,35.65346],[-85.97786,35.65336],[-85.97604,35.6544],[-85.9745,35.65504],[-85.97423,35.65534],[-85.97433,35.65603],[-85.97302,35.6569],[-85.97276,35.65701],[-85.97165,35.65697],[-85.9707,35.6572],[-85.96914,35.65786],[-85.96933,35.65846],[-85.96865,35.65882],[-85.96846,35.65913],[-85.96842,35.65948],[-85.96865,35.65981],[-85.96582,35.66164],[-85.96502,35.66174],[-85.96476,35.66205],[-85.96491,35.66225],[-85.96405,35.66295],[-85.96334,35.66379],[-85.96369,35.66419],[-85.96457,35.6645],[-85.96471,35.66516],[-85.96558,35.66567],[-85.96585,35.6666],[-85.96567,35.66707],[-85.96569,35.6678],[-85.96575,35.66798],[-85.96631,35.66811],[-85.96672,35.66844],[-85.96682,35.66893],[-85.96669,35.66919],[-85.96527,35.6696],[-85.96464,35.66935],[-85.9641,35.66955],[-85.96425,35.67056],[-85.96381,35.67183],[-85.96388,35.67211],[-85.96295,35.67287],[-85.96019,35.67268],[-85.95959,35.67228],[-85.95938,35.67161],[-85.95887,35.67133],[-85.95805,35.67169],[-85.95695,35.67188],[-85.95516,35.67435],[-85.9548,35.67451],[-85.95402,35.67545],[-85.95418,35.67592],[-85.95388,35.67642],[-85.95272,35.67714],[-85.95203,35.6779],[-85.95108,35.67811],[-85.95039,35.67858],[-85.94962,35.67987],[-85.94933,35.68144],[-85.94884,35.682],[-85.94834,35.68217],[-85.94734,35.68206],[-85.94587,35.68109],[-85.94468,35.68067],[-85.94382,35.68019],[-85.94321,35.68009],[-85.94259,35.68068],[-85.94232,35.68071],[-85.94188,35.68026],[-85.94077,35.67963],[-85.93978,35.6786],[-85.93907,35.6783],[-85.9379,35.67742],[-85.93663,35.67698],[-85.93592,35.6765],[-85.93579,35.67592],[-85.93586,35.67446],[-85.93549,35.6739],[-85.93183,35.67257],[-85.9306,35.67176],[-85.93017,35.67166],[-85.92647,35.67132],[-85.92427,35.67097],[-85.9226,35.67107],[-85.92142,35.67139],[-85.92055,35.67183],[-85.91936,35.67281],[-85.91915,35.67345],[-85.91927,35.67428],[-85.91897,35.67521],[-85.91824,35.67578],[-85.91788,35.67708],[-85.9171,35.67737],[-85.91543,35.67728],[-85.91398,35.677],[-85.9114,35.67692],[-85.9077,35.67647],[-85.90668,35.67515],[-85.90688,35.67204],[-85.90675,35.67173],[-85.90448,35.67152],[-85.90341,35.67156],[-85.9016,35.67251],[-85.90027,35.67203],[-85.89908,35.67205],[-85.899,35.67103],[-85.89815,35.67008],[-85.89793,35.66963],[-85.8983,35.66666],[-85.89801,35.6662],[-85.89589,35.66608],[-85.89208,35.66711],[-85.89034,35.66798],[-85.88823,35.66963],[-85.88732,35.67008],[-85.88622,35.67014],[-85.88363,35.66888],[-85.88221,35.6678],[-85.88077,35.66628],[-85.88059,35.66562],[-85.88137,35.6636],[-85.88057,35.66234],[-85.8799,35.66202],[-85.87773,35.6616],[-85.87595,35.66165],[-85.8723,35.66145],[-85.87199,35.66178],[-85.86903,35.66358],[-85.86825,35.66388],[-85.86757,35.66384],[-85.86612,35.66264],[-85.86527,35.66173],[-85.86501,35.66125],[-85.8648,35.65982],[-85.86409,35.65803],[-85.86332,35.65756],[-85.8615,35.65731],[-85.85914,35.6573],[-85.85782,35.65743],[-85.85683,35.65775],[-85.8547,35.65927],[-85.85479,35.65973],[-85.85428,35.66097],[-85.85228,35.66155],[-85.85197,35.66181],[-85.85235,35.66263],[-85.85268,35.66469],[-85.85361,35.66647],[-85.8534,35.66726],[-85.85255,35.66798],[-85.85012,35.66915],[-85.84746,35.6696],[-85.84649,35.6697],[-85.84282,35.66956],[-85.84196,35.66941],[-85.84084,35.6688],[-85.8394,35.66754],[-85.83896,35.66734],[-85.83796,35.66734],[-85.83705,35.667],[-85.83671,35.66629],[-85.83466,35.66474],[-85.83455,35.66394],[-85.83527,35.66296],[-85.83541,35.66251],[-85.83535,35.66175],[-85.83661,35.66046],[-85.83681,35.65984],[-85.83769,35.65895],[-85.83877,35.65745],[-85.83889,35.65684],[-85.83877,35.65644],[-85.83814,35.6561],[-85.83505,35.65602],[-85.8331,35.65539],[-85.82945,35.65508],[-85.8283,35.65542],[-85.82769,35.65587],[-85.82736,35.65634],[-85.82734,35.65669],[-85.82803,35.65801],[-85.82772,35.65864],[-85.82723,35.65897],[-85.82671,35.65914],[-85.82606,35.65959],[-85.82256,35.6601],[-85.81922,35.66146],[-85.81895,35.66178],[-85.82046,35.66538],[-85.82124,35.66641],[-85.82127,35.66698],[-85.82104,35.66739],[-85.82057,35.66774],[-85.82001,35.66785],[-85.81778,35.6677],[-85.81693,35.66731],[-85.81417,35.66369],[-85.81386,35.66271],[-85.81427,35.66082],[-85.81384,35.65999],[-85.81286,35.65882],[-85.81141,35.65841],[-85.8098,35.65824],[-85.80747,35.65884],[-85.80477,35.65892],[-85.8042,35.65917],[-85.80225,35.66146],[-85.80056,35.66237],[-85.80015,35.66451],[-85.80042,35.66587],[-85.80073,35.66683],[-85.80122,35.66763],[-85.80153,35.66893],[-85.80363,35.67197],[-85.80402,35.67202],[-85.80466,35.67182],[-85.80579,35.67113],[-85.80771,35.66973],[-85.80852,35.66947],[-85.80912,35.66956],[-85.80954,35.66983],[-85.80988,35.67166],[-85.80965,35.67213],[-85.80923,35.67248],[-85.80786,35.67293],[-85.80444,35.67473],[-85.80199,35.67539],[-85.79983,35.67556],[-85.79805,35.67515],[-85.79714,35.67529],[-85.79582,35.67609],[-85.79248,35.6832],[-85.79086,35.68506],[-85.78991,35.68534],[-85.78893,35.68541],[-85.78752,35.68496],[-85.78547,35.68398],[-85.77918,35.67812],[-85.77615,35.67372],[-85.77485,35.67276],[-85.77353,35.67224],[-85.77311,35.67213],[-85.77213,35.67227],[-85.77133,35.67259],[-85.76781,35.67507],[-85.76654,35.67583],[-85.76585,35.67598],[-85.76532,35.67594],[-85.76136,35.67394],[-85.76107,35.67362],[-85.76054,35.67337],[-85.75925,35.67318],[-85.75827,35.67367],[-85.75777,35.67457],[-85.75772,35.6753],[-85.75789,35.67589],[-85.75983,35.67945],[-85.76526,35.68248],[-85.76585,35.6832],[-85.7659,35.68414],[-85.7645,35.68478],[-85.76331,35.6851],[-85.75738,35.68506],[-85.75598,35.68461],[-85.7547,35.68387],[-85.75401,35.68329],[-85.7533,35.68238],[-85.75227,35.68162],[-85.75062,35.68128],[-85.75022,35.6815],[-85.7497,35.6825],[-85.74951,35.68479],[-85.74992,35.68543],[-85.74986,35.68754],[-85.749,35.68891],[-85.74719,35.69001],[-85.74576,35.69053],[-85.74237,35.69121],[-85.74095,35.69197],[-85.73941,35.69227],[-85.73842,35.69265],[-85.73804,35.69246],[-85.73686,35.69023],[-85.73641,35.69009],[-85.73568,35.68926],[-85.73537,35.68848],[-85.73492,35.68822],[-85.73397,35.68867],[-85.73364,35.68908],[-85.73315,35.68987],[-85.73287,35.69088],[-85.73297,35.69173],[-85.73481,35.69395],[-85.7357,35.69642],[-85.73549,35.69765],[-85.73488,35.69867],[-85.73386,35.69922],[-85.73294,35.69899],[-85.73078,35.69795],[-85.72924,35.69701],[-85.72851,35.69634],[-85.72793,35.69466],[-85.7276,35.69429],[-85.727,35.69403]]]}}
