{"type":"FeatureCollection","features":[{"type":"Feature","geometry":{"type":"Point","coordinates":[-84.554697,36.385525]},"properties":{"id":"03408500","name":"NEW RIVER AT NEW RIVER, TN","county":"Scott","huc":"05130104","drainSqMi":382,"types":"dv+iv","wired":1,"wiredTo":"new-river"}},{"type":"Feature","geometry":{"type":"Point","coordinates":[-84.630169,36.388298]},"properties":{"id":"03409500","name":"CLEAR FORK NEAR ROBBINS, TN","county":"Scott","huc":"05130104","drainSqMi":272,"types":"dv+iv","wired":1,"wiredTo":"clear-fork"}},{"type":"Feature","geometry":{"type":"Point","coordinates":[-84.669351,36.477391]},"properties":{"id":"03410210","name":"SOUTH FK CUMBERLAND RIVER AT LEATHERWOOD FORD, TN","county":"Scott","huc":"05130104","drainSqMi":806,"types":"dv+iv","wired":1,"wiredTo":"south-fork-cumberland"}},{"type":"Feature","geometry":{"type":"Point","coordinates":[-85.174449,36.397387]},"properties":{"id":"03415000","name":"WEST FORK OBEY RIVER NEAR ALPINE, TN","county":"Overton","huc":"05130105","drainSqMi":115,"types":"dv+iv","wired":0,"wiredTo":""}},{"type":"Feature","geometry":{"type":"Point","coordinates":[-85.073056,36.560278]},"properties":{"id":"03416000","name":"WOLF RIVER NEAR BYRDSTOWN, TN","county":"Pickett","huc":"05130105","drainSqMi":106,"types":"dv+iv","wired":0,"wiredTo":""}},{"type":"Feature","geometry":{"type":"Point","coordinates":[-85.514394,36.554251]},"properties":{"id":"03417500","name":"CUMBERLAND RIVER AT CELINA, TN","county":"Clay","huc":"05130106","drainSqMi":7307,"types":"iv","wired":0,"wiredTo":""}},{"type":"Feature","geometry":{"type":"Point","coordinates":[-85.42636,36.340895]},"properties":{"id":"03418000","name":"ROARING RIVER NEAR HILHAM, TN","county":"Overton","huc":"05130106","drainSqMi":78.7,"types":"dv+iv","wired":0,"wiredTo":""}},{"type":"Feature","geometry":{"type":"Point","coordinates":[-85.674722,36.440278]},"properties":{"id":"03418224","name":"JENNINGS CREEK AT RILEY CR RD AT WHITLEYVILLE, TN","county":"Jackson","huc":"05130106","drainSqMi":67.4,"types":"dv+iv","wired":0,"wiredTo":""}},{"type":"Feature","geometry":{"type":"Point","coordinates":[-85.940796,36.286756]},"properties":{"id":"03418420","name":"CUMBERLAND RIVER BELOW CORDELL HULL DAM, TN","county":"Smith","huc":"05130106","drainSqMi":8095,"types":"iv","wired":0,"wiredTo":""}},{"type":"Feature","geometry":{"type":"Point","coordinates":[-85.467431,35.9265]},"properties":{"id":"03419530","name":"CALFKILLER RIVER AT HWY 70 AT SPARTA, TN","county":"White","huc":"05130108","drainSqMi":157,"types":"dv+iv","wired":1,"wiredTo":"calfkiller-river"}},{"type":"Feature","geometry":{"type":"Point","coordinates":[-85.731834,35.708284]},"properties":{"id":"03421000","name":"COLLINS RIVER NEAR MCMINNVILLE, TN","county":"Warren","huc":"05130107","drainSqMi":640,"types":"dv+iv","wired":1,"wiredTo":"collins-river"}},{"type":"Feature","geometry":{"type":"Point","coordinates":[-85.521366,36.077285]},"properties":{"id":"03423000","name":"FALLING WATER RIVER NEAR COOKEVILLE, TN","county":"White","huc":"05130108","drainSqMi":67,"types":"dv+iv","wired":0,"wiredTo":""}},{"type":"Feature","geometry":{"type":"Point","coordinates":[-85.907426,36.087346]},"properties":{"id":"03424730","name":"SMITH FORK AT TEMPERANCE HALL, TN","county":"DeKalb","huc":"05130108","drainSqMi":214,"types":"dv+iv","wired":0,"wiredTo":""}},{"type":"Feature","geometry":{"type":"Point","coordinates":[-85.904444,36.186111]},"properties":{"id":"03424860","name":"CANEY FORK AT STONEWALL","county":"Smith","huc":"05130108","drainSqMi":2520,"types":"dv+iv","wired":1,"wiredTo":"caney-fork-river"}},{"type":"Feature","geometry":{"type":"Point","coordinates":[-86.105821,36.408384]},"properties":{"id":"03425290","name":"GOOSE CREEK NEAR HARTSVILLE, TN","county":"Trousdale","huc":"05130201","drainSqMi":64,"types":"dv+iv","wired":0,"wiredTo":""}},{"type":"Feature","geometry":{"type":"Point","coordinates":[-86.246669,36.252951]},"properties":{"id":"03425520","name":"SPRING CREEK BELOW LEBANON, TN","county":"Wilson","huc":"05130201","drainSqMi":49.7,"types":"dv+iv","wired":0,"wiredTo":""}},{"type":"Feature","geometry":{"type":"Point","coordinates":[-86.332003,36.445644]},"properties":{"id":"03425622","name":"BLEDSOE CREEK NEAR BETHPAGE, TN","county":"Sumner","huc":"05130201","drainSqMi":55.8,"types":"dv+iv","wired":0,"wiredTo":""}},{"type":"Feature","geometry":{"type":"Point","coordinates":[-86.658632,36.297118]},"properties":{"id":"03426310","name":"CUMBERLAND RIVER AT OLD HICKORY DAM (TW), TN","county":"Davidson","huc":"05130202","drainSqMi":11673,"types":"dv+iv","wired":0,"wiredTo":""}},{"type":"Feature","geometry":{"type":"Point","coordinates":[-86.725,36.3575]},"properties":{"id":"03426387","name":"MANSKER CREEK AT HWY 41 NEAR MILLERSVILLE, TN","county":"Davidson","huc":"05130202","drainSqMi":4.97,"types":"dv+iv","wired":0,"wiredTo":""}},{"type":"Feature","geometry":{"type":"Point","coordinates":[-86.706331,36.284489]},"properties":{"id":"03426470","name":"DRY CREEK NEAR EDENWOLD, TN","county":"Davidson","huc":"05130202","drainSqMi":7.64,"types":"dv+iv","wired":0,"wiredTo":""}},{"type":"Feature","geometry":{"type":"Point","coordinates":[-86.688333,36.2875]},"properties":{"id":"03426490","name":"CUMBERLAND RIVER AT EDENWOLD, TN","county":"Davidson","huc":"05130202","drainSqMi":11735,"types":"dv+iv","wired":0,"wiredTo":""}},{"type":"Feature","geometry":{"type":"Point","coordinates":[-86.333881,35.918398]},"properties":{"id":"03427500","name":"EAST FORK STONES RIVER NEAR LASCASSAS, TN","county":"Rutherford","huc":"05130203","drainSqMi":262,"types":"dv+iv","wired":1,"wiredTo":"east-fork-stones-river"}},{"type":"Feature","geometry":{"type":"Point","coordinates":[-86.425548,35.898953]},"properties":{"id":"03428180","name":"WF STONES R AT BLANTON RD MURFREESBORO, TN","county":"Rutherford","huc":"05130203","drainSqMi":170,"types":"dv+iv","wired":0,"wiredTo":""}},{"type":"Feature","geometry":{"type":"Point","coordinates":[-86.429978,35.902874]},"properties":{"id":"03428200","name":"WEST FORK STONES RIVER AT MURFREESBORO, TN","county":"Rutherford","huc":"05130203","drainSqMi":177,"types":"dv+iv","wired":1,"wiredTo":"west-fork-stones-river"}},{"type":"Feature","geometry":{"type":"Point","coordinates":[-86.50248,35.974262]},"properties":{"id":"03429498","name":"STEWARTS CREEK AT SMYRNA,TN","county":"Rutherford","huc":"05130203","drainSqMi":null,"types":"dv+iv","wired":0,"wiredTo":""}},{"type":"Feature","geometry":{"type":"Point","coordinates":[-86.632762,36.18648]},"properties":{"id":"03430200","name":"STONES RIVER AT US HWY 70 NEAR DONELSON, TN","county":"Davidson","huc":"05130203","drainSqMi":934,"types":"dv+iv","wired":1,"wiredTo":"stones-river"}},{"type":"Feature","geometry":{"type":"Point","coordinates":[-86.665278,36.191667]},"properties":{"id":"03430250","name":"CUMBERLAND RIVER AT STONES RIVER NEAR HERMITAGE,TN","county":"Davidson","huc":"05130202","drainSqMi":12685,"types":"dv+iv","wired":0,"wiredTo":""}},{"type":"Feature","geometry":{"type":"Point","coordinates":[-86.701509,36.009236]},"properties":{"id":"03430550","name":"MILL CREEK NEAR NOLENSVILLE, TN","county":"Davidson","huc":"05130202","drainSqMi":40.53,"types":"dv+iv","wired":0,"wiredTo":""}},{"type":"Feature","geometry":{"type":"Point","coordinates":[-86.733321,36.072593]},"properties":{"id":"03431040","name":"SEVENMILE CREEK AT BLACKMAN RD,NR NASHVILLE TN","county":"Davidson","huc":"05130202","drainSqMi":12.2,"types":"dv+iv","wired":0,"wiredTo":""}},{"type":"Feature","geometry":{"type":"Point","coordinates":[-86.719048,36.117575]},"properties":{"id":"03431060","name":"MILL CREEK AT THOMPSON LANE, NEAR WOODBINE, TN","county":"Davidson","huc":"05130202","drainSqMi":93.4,"types":"dv+iv","wired":0,"wiredTo":""}},{"type":"Feature","geometry":{"type":"Point","coordinates":[-86.699164,36.163945]},"properties":{"id":"03431083","name":"MILL CREEK AT LEBANON ROAD AT NASHVILLE, TN","county":"Davidson","huc":"05130202","drainSqMi":107,"types":"dv+iv","wired":0,"wiredTo":""}},{"type":"Feature","geometry":{"type":"Point","coordinates":[-86.721387,36.165334]},"properties":{"id":"03431091","name":"CUMBERLAND R AT OMOHUNDRO WTR PLT AT NASHVILLE, TN","county":"Davidson","huc":"05130202","drainSqMi":12819,"types":"dv+iv","wired":0,"wiredTo":""}},{"type":"Feature","geometry":{"type":"Point","coordinates":[-86.793878,36.09426]},"properties":{"id":"03431100","name":"W F BROWNS C AT GLENDALE LANE AT NASHVILLE, TN","county":"Davidson","huc":"05130202","drainSqMi":1.51,"types":"dv+iv","wired":0,"wiredTo":""}},{"type":"Feature","geometry":{"type":"Point","coordinates":[-86.76105,36.129928]},"properties":{"id":"03431300","name":"BROWNS CREEK AT STATE FAIRGROUNDS AT NASHVILLE, TN","county":"Davidson","huc":"05130202","drainSqMi":11.8,"types":"dv+iv","wired":0,"wiredTo":""}},{"type":"Feature","geometry":{"type":"Point","coordinates":[-86.772676,36.161498]},"properties":{"id":"03431500","name":"CUMBERLAND RIVER AT NASHVILLE, TN","county":"Davidson","huc":"05130202","drainSqMi":12856,"types":"dv+iv","wired":0,"wiredTo":""}},{"type":"Feature","geometry":{"type":"Point","coordinates":[-86.828396,36.188972]},"properties":{"id":"03431514","name":"CUMBERLAND RIVER NEAR BORDEAUX, TN","county":"Davidson","huc":"05130202","drainSqMi":12862,"types":"dv+iv","wired":0,"wiredTo":""}},{"type":"Feature","geometry":{"type":"Point","coordinates":[-86.816935,36.273978]},"properties":{"id":"03431530","name":"WHITES C AT OLD HICKORY BLVD AT WHITES CREEK, TN","county":"Davidson","huc":"05130202","drainSqMi":13.8,"types":"dv+iv","wired":0,"wiredTo":""}},{"type":"Feature","geometry":{"type":"Point","coordinates":[-86.820221,36.217655]},"properties":{"id":"03431599","name":"WHITES CREEK NEAR BORDEAUX, TN","county":"Davidson","huc":"05130202","drainSqMi":51.3,"types":"dv+iv","wired":0,"wiredTo":""}},{"type":"Feature","geometry":{"type":"Point","coordinates":[-86.868056,36.101667]},"properties":{"id":"03431655","name":"RICHLAND CREEK AT HARDING PLACE AT BELLE MEADE, TN","county":"Davidson","huc":"05130202","drainSqMi":6.17,"types":"dv+iv","wired":0,"wiredTo":""}},{"type":"Feature","geometry":{"type":"Point","coordinates":[-86.854263,36.151259]},"properties":{"id":"03431700","name":"RICHLAND CREEK AT CHARLOTTE AVE, AT NASHVILLE, TN","county":"Davidson","huc":"05130202","drainSqMi":24.3,"types":"dv+iv","wired":0,"wiredTo":""}},{"type":"Feature","geometry":{"type":"Point","coordinates":[-86.865222,36.183333]},"properties":{"id":"03431712","name":"CUMBERLAND RIVER AT BRILEY PKWY AT COCKRILL BEND","county":"Davidson","huc":"05130202","drainSqMi":12900,"types":"dv+iv","wired":0,"wiredTo":""}},{"type":"Feature","geometry":{"type":"Point","coordinates":[-87.076111,36.270556]},"properties":{"id":"03431790","name":"CUMBERLAND RIVER AT ASHLAND CITY, TN","county":"Cheatham","huc":"05130202","drainSqMi":13117,"types":"dv+iv","wired":0,"wiredTo":""}},{"type":"Feature","geometry":{"type":"Point","coordinates":[-87.051194,36.320022]},"properties":{"id":"03431800","name":"SYCAMORE CREEK NEAR ASHLAND CITY, TN","county":"Cheatham","huc":"05130202","drainSqMi":97.2,"types":"dv+iv","wired":0,"wiredTo":""}},{"type":"Feature","geometry":{"type":"Point","coordinates":[-86.698875,35.832598]},"properties":{"id":"03432100","name":"HARPETH RIVER AT MCDANIEL, TN","county":"Williamson","huc":"05130204","drainSqMi":66.6,"types":"dv+iv","wired":0,"wiredTo":""}},{"type":"Feature","geometry":{"type":"Point","coordinates":[-86.865489,35.920849]},"properties":{"id":"03432350","name":"HARPETH RIVER AT FRANKLIN, TN","county":"Williamson","huc":"05130204","drainSqMi":192,"types":"dv+iv","wired":1,"wiredTo":"harpeth-river"}},{"type":"Feature","geometry":{"type":"Point","coordinates":[-86.881734,35.948199]},"properties":{"id":"03432400","name":"HARPETH RIVER BELOW FRANKLIN, TN","county":"Williamson","huc":"05130204","drainSqMi":210,"types":"dv+iv","wired":0,"wiredTo":""}},{"type":"Feature","geometry":{"type":"Point","coordinates":[-86.928502,36.054597]},"properties":{"id":"03433500","name":"HARPETH RIVER AT BELLEVUE, TN","county":"Davidson","huc":"05130204","drainSqMi":409,"types":"dv+iv","wired":1,"wiredTo":"harpeth-river"}},{"type":"Feature","geometry":{"type":"Point","coordinates":[-87.098888,36.122037]},"properties":{"id":"03434500","name":"HARPETH RIVER NEAR KINGSTON SPRINGS, TN","county":"Cheatham","huc":"05130204","drainSqMi":683,"types":"dv+iv","wired":0,"wiredTo":""}},{"type":"Feature","geometry":{"type":"Point","coordinates":[-87.228264,36.322903]},"properties":{"id":"03435000","name":"CUMBERLAND RIVER BELOW CHEATHAM DAM, TN","county":"Cheatham","huc":"05130205","drainSqMi":14163,"types":"dv+iv","wired":0,"wiredTo":""}},{"type":"Feature","geometry":{"type":"Point","coordinates":[-87.141944,36.554722]},"properties":{"id":"03436100","name":"RED RIVER AT PORT ROYAL, TN","county":"Montgomery","huc":"05130206","drainSqMi":926,"types":"dv+iv","wired":1,"wiredTo":"red-river-clarksville"}},{"type":"Feature","geometry":{"type":"Point","coordinates":[-87.553941,36.310683]},"properties":{"id":"03436690","name":"YELLOW CREEK AT ELLIS MILLS, TN","county":"Houston","huc":"05130205","drainSqMi":103,"types":"dv+iv","wired":0,"wiredTo":""}},{"type":"Feature","geometry":{"type":"Point","coordinates":[-83.161208,35.981514]},"properties":{"id":"03455000","name":"FRENCH BROAD RIVER NEAR NEWPORT, TN","county":"Cocke","huc":"06010105","drainSqMi":1858,"types":"dv+iv","wired":0,"wiredTo":""}},{"type":"Feature","geometry":{"type":"Point","coordinates":[-83.174322,35.960649]},"properties":{"id":"03461500","name":"PIGEON RIVER AT NEWPORT, TN","county":"Cocke","huc":"06010106","drainSqMi":666,"types":"dv+iv","wired":1,"wiredTo":"pigeon-river"}},{"type":"Feature","geometry":{"type":"Point","coordinates":[-82.455166,36.17825]},"properties":{"id":"03465500","name":"NOLICHUCKY RIVER AT EMBREEVILLE, TN","county":"Washington","huc":"06010108","drainSqMi":805,"types":"dv+iv","wired":1,"wiredTo":"nolichucky-river"}},{"type":"Feature","geometry":{"type":"Point","coordinates":[-82.650416,36.205922]},"properties":{"id":"03466208","name":"BIG LIMESTONE CREEK NEAR LIMESTONE, TN","county":"Greene","huc":"06010108","drainSqMi":79,"types":"dv+iv","wired":0,"wiredTo":""}},{"type":"Feature","geometry":{"type":"Point","coordinates":[-82.866449,36.065627]},"properties":{"id":"03466500","name":"NOLICHUCKY RIVER BELOW NOLICHUCKY DAM, TN","county":"Greene","huc":"06010108","drainSqMi":1184,"types":"dv+iv","wired":0,"wiredTo":""}},{"type":"Feature","geometry":{"type":"Point","coordinates":[-83.175297,36.126332]},"properties":{"id":"03467609","name":"NOLICHUCKY RIVER NEAR LOWLAND","county":"Cocke","huc":"06010108","drainSqMi":1688.4,"types":"dv+iv","wired":0,"wiredTo":""}},{"type":"Feature","geometry":{"type":"Point","coordinates":[-83.527109,35.699537]},"properties":{"id":"03469251","name":"WEST PRONG LITTLE PIGEON R NR GATLINBURG, TN","county":"Sevier","huc":"06010107","drainSqMi":31.5,"types":"dv+iv","wired":1,"wiredTo":"west-prong-little-pigeon"}},{"type":"Feature","geometry":{"type":"Point","coordinates":[-83.577539,35.878469]},"properties":{"id":"03470000","name":"LITTLE PIGEON RIVER AT SEVIERVILLE, TN","county":"Sevier","huc":"06010107","drainSqMi":353,"types":"dv+iv","wired":1,"wiredTo":"little-pigeon-river"}},{"type":"Feature","geometry":{"type":"Point","coordinates":[-82.210125,36.34453]},"properties":{"id":"03485500","name":"DOE RIVER AT ELIZABETHTON, TN","county":"Carter","huc":"06010103","drainSqMi":137,"types":"dv+iv","wired":1,"wiredTo":"doe-river"}},{"type":"Feature","geometry":{"type":"Point","coordinates":[-82.223692,36.355811]},"properties":{"id":"03486000","name":"WATAUGA RIVER AT ELIZABETHTON, TN","county":"Carter","huc":"06010103","drainSqMi":692,"types":"dv+iv","wired":1,"wiredTo":"watauga-river"}},{"type":"Feature","geometry":{"type":"Point","coordinates":[-82.951944,36.426111]},"properties":{"id":"03491000","name":"BIG CREEK NEAR ROGERSVILLE, TN","county":"Hawkins","huc":"06010104","drainSqMi":47.3,"types":"dv+iv","wired":0,"wiredTo":""}},{"type":"Feature","geometry":{"type":"Point","coordinates":[-83.046667,36.379722]},"properties":{"id":"03491544","name":"CROCKETT CREEK BELOW ROGERSVILLE, TN","county":"Hawkins","huc":"06010104","drainSqMi":4.67,"types":"dv+iv","wired":0,"wiredTo":""}},{"type":"Feature","geometry":{"type":"Point","coordinates":[-83.742958,36.077585]},"properties":{"id":"03495005","name":"FLAT CREEK NEAR MASCOT, TN","county":"Knox","huc":"06010104","drainSqMi":67.2,"types":"dv+iv","wired":0,"wiredTo":""}},{"type":"Feature","geometry":{"type":"Point","coordinates":[-83.711282,35.664533]},"properties":{"id":"03497300","name":"LITTLE RIVER ABOVE TOWNSEND, TN","county":"Blount","huc":"06010201","drainSqMi":106,"types":"dv+iv","wired":1,"wiredTo":"little-river"}},{"type":"Feature","geometry":{"type":"Point","coordinates":[-83.884602,35.785634]},"properties":{"id":"03498500","name":"LITTLE RIVER NEAR MARYVILLE, TN","county":"Blount","huc":"06010201","drainSqMi":269,"types":"dv+iv","wired":1,"wiredTo":"little-river"}},{"type":"Feature","geometry":{"type":"Point","coordinates":[-83.926578,35.808839]},"properties":{"id":"03498850","name":"LITTLE RIVER NEAR ALCOA, TN","county":"Blount","huc":"06010201","drainSqMi":300,"types":"dv+iv","wired":0,"wiredTo":""}},{"type":"Feature","geometry":{"type":"Point","coordinates":[-84.279014,35.362016]},"properties":{"id":"03518500","name":"TELLICO RIVER AT TELLICO PLAINS, TN","county":"Monroe","huc":"06010204","drainSqMi":118,"types":"dv+iv","wired":1,"wiredTo":"tellico-river"}},{"type":"Feature","geometry":{"type":"Point","coordinates":[-83.041261,36.569526]},"properties":{"id":"03527620","name":"CLINCH RIVER AT KYLES FORD, TN","county":"Hancock","huc":"06010205","drainSqMi":1267,"types":"dv+iv","wired":0,"wiredTo":""}},{"type":"Feature","geometry":{"type":"Point","coordinates":[-83.398235,36.425087]},"properties":{"id":"03528000","name":"CLINCH RIVER ABOVE TAZEWELL, TN","county":"Claiborne","huc":"06010205","drainSqMi":1474,"types":"dv+iv","wired":0,"wiredTo":""}},{"type":"Feature","geometry":{"type":"Point","coordinates":[-83.630029,36.542522]},"properties":{"id":"03532000","name":"POWELL RIVER NEAR ARTHUR, TN","county":"Claiborne","huc":"06010206","drainSqMi":685,"types":"dv+iv","wired":1,"wiredTo":"powell-river"}},{"type":"Feature","geometry":{"type":"Point","coordinates":[-83.988174,36.114413]},"properties":{"id":"03535000","name":"BULLRUN CREEK NEAR HALLS CROSSROADS, TN","county":"Knox","huc":"06010207","drainSqMi":68.5,"types":"dv+iv","wired":0,"wiredTo":""}},{"type":"Feature","geometry":{"type":"Point","coordinates":[-84.05158,36.018414]},"properties":{"id":"03535200","name":"BEAVER C NR POWELL TENN","county":"Knox","huc":"06010207","drainSqMi":56.1,"types":"dv+iv","wired":0,"wiredTo":""}},{"type":"Feature","geometry":{"type":"Point","coordinates":[-84.178653,35.96503]},"properties":{"id":"03535400","name":"BEAVER CREEK AT SOLWAY, TN","county":"Knox","huc":"06010207","drainSqMi":86.8,"types":"dv+iv","wired":0,"wiredTo":""}},{"type":"Feature","geometry":{"type":"Point","coordinates":[-84.216694,35.920361]},"properties":{"id":"03535618","name":"Conner Ck at E Gallaher Ferry Rd nr Farragut TN","county":"Knox","huc":"06010207","drainSqMi":null,"types":"dv+iv","wired":0,"wiredTo":""}},{"type":"Feature","geometry":{"type":"Point","coordinates":[-84.961389,36.061667]},"properties":{"id":"03538830","name":"OBED RIVER AT ADAMS BRIDGE NEAR CROSSVILLE, TN","county":"Cumberland","huc":"06010208","drainSqMi":91.79,"types":"dv+iv","wired":1,"wiredTo":"obed-river"}},{"type":"Feature","geometry":{"type":"Point","coordinates":[-85.054722,35.850833]},"properties":{"id":"03538970","name":"BASSES CREEK AT LAKE TANSI NR CROSSVILLE,TN","county":"Cumberland","huc":"06010208","drainSqMi":8.07,"types":"dv+iv","wired":0,"wiredTo":""}},{"type":"Feature","geometry":{"type":"Point","coordinates":[-84.822495,35.997665]},"properties":{"id":"03539600","name":"DADDYS CREEK NEAR HEBBERTSBURG, TN","county":"Cumberland","huc":"06010208","drainSqMi":139,"types":"dv+iv","wired":1,"wiredTo":"daddys-creek"}},{"type":"Feature","geometry":{"type":"Point","coordinates":[-84.718277,36.103129]},"properties":{"id":"03539778","name":"CLEAR CREEK AT LILLY BRIDGE NEAR LANCING, TN","county":"Morgan","huc":"06010208","drainSqMi":170,"types":"dv+iv","wired":1,"wiredTo":"clear-creek-obed"}},{"type":"Feature","geometry":{"type":"Point","coordinates":[-84.670311,36.081494]},"properties":{"id":"03539800","name":"OBED RIVER NEAR LANCING, TN","county":"Morgan","huc":"06010208","drainSqMi":518,"types":"dv+iv","wired":0,"wiredTo":""}},{"type":"Feature","geometry":{"type":"Point","coordinates":[-84.557992,35.983131]},"properties":{"id":"03540500","name":"EMORY RIVER AT OAKDALE, TN","county":"Morgan","huc":"06010208","drainSqMi":764,"types":"dv+iv","wired":1,"wiredTo":"emory-river"}},{"type":"Feature","geometry":{"type":"Point","coordinates":[-84.748051,35.581316]},"properties":{"id":"03543500","name":"SEWEE CREEK NEAR DECATUR, TN","county":"Meigs","huc":"06020001","drainSqMi":117,"types":"dv+iv","wired":0,"wiredTo":""}},{"type":"Feature","geometry":{"type":"Point","coordinates":[-85.016011,35.490517]},"properties":{"id":"03544600","name":"Richland Creek at Dayton, TN","county":"Rhea","huc":"06020001","drainSqMi":null,"types":"dv+iv","wired":0,"wiredTo":""}},{"type":"Feature","geometry":{"type":"Point","coordinates":[-85.000925,35.507475]},"properties":{"id":"03544611","name":"Little Richland Creek at 16th AVE at Dayton, TN","county":"Rhea","huc":"06020001","drainSqMi":null,"types":"dv+iv","wired":0,"wiredTo":""}},{"type":"Feature","geometry":{"type":"Point","coordinates":[-84.5025,35.188333]},"properties":{"id":"03556590","name":"HIWASSEE RIVER ABOVE RELIANCE","county":"Polk","huc":"06020002","drainSqMi":null,"types":"iv","wired":1,"wiredTo":"hiwassee-river"}},{"type":"Feature","geometry":{"type":"Point","coordinates":[-84.37659,34.991469]},"properties":{"id":"03559500","name":"OCOEE RIVER AT COPPERHILL, TN","county":"Polk","huc":"06020003","drainSqMi":352,"types":"dv+iv","wired":1,"wiredTo":"ocoee-river"}},{"type":"Feature","geometry":{"type":"Point","coordinates":[-84.705106,35.327631]},"properties":{"id":"03565500","name":"OOSTANAULA CREEK NEAR SANFORD, TN","county":"Macon","huc":"06020002","drainSqMi":57,"types":"dv+iv","wired":0,"wiredTo":""}},{"type":"Feature","geometry":{"type":"Point","coordinates":[-85.066384,35.062199]},"properties":{"id":"03566420","name":"WOLFTEVER CREEK NEAR OOLTEWAH, TN","county":"Hamilton","huc":"06020001","drainSqMi":18.8,"types":"dv+iv","wired":0,"wiredTo":""}},{"type":"Feature","geometry":{"type":"Point","coordinates":[-85.215235,35.211181]},"properties":{"id":"03566535","name":"NORTH CHICKAMAUGA CR AT MILE STRAIGHT, TN","county":"Hamilton","huc":"06020001","drainSqMi":74,"types":"dv+iv","wired":1,"wiredTo":"north-chickamauga-creek"}},{"type":"Feature","geometry":{"type":"Point","coordinates":[-85.20941,35.013895]},"properties":{"id":"03567500","name":"SOUTH CHICKAMAUGA CREEK NEAR CHICKAMAUGA, TN","county":"Hamilton","huc":"06020001","drainSqMi":428,"types":"dv+iv","wired":0,"wiredTo":""}},{"type":"Feature","geometry":{"type":"Point","coordinates":[-85.193378,35.046986]},"properties":{"id":"03567595","name":"FRIAR BRANCH AT POLYMER DR AT CHATTANOOGA, TN","county":"Hamilton","huc":"06020001","drainSqMi":null,"types":"dv+iv","wired":0,"wiredTo":""}},{"type":"Feature","geometry":{"type":"Point","coordinates":[-85.367594,35.007397]},"properties":{"id":"03569008","name":"LOOKOUT CREEK AT MILE 2.6 NR WAUHATCHIE, TN","county":"Hamilton","huc":"06020001","drainSqMi":null,"types":"iv","wired":0,"wiredTo":""}},{"type":"Feature","geometry":{"type":"Point","coordinates":[-85.320778,35.109279]},"properties":{"id":"03569190","name":"MOUNTAIN CREEK NEAR  GLENDALE, TN","county":"Hamilton","huc":"06020001","drainSqMi":5.07,"types":"dv+iv","wired":0,"wiredTo":""}},{"type":"Feature","geometry":{"type":"Point","coordinates":[-85.49703,35.205721]},"properties":{"id":"03571000","name":"SEQUATCHIE RIVER NEAR WHITWELL, TN","county":"Maury","huc":"06020004","drainSqMi":402,"types":"dv+iv","wired":1,"wiredTo":"sequatchie-river"}},{"type":"Feature","geometry":{"type":"Point","coordinates":[-85.869736,35.296828]},"properties":{"id":"03578000","name":"ELK RIVER NEAR PELHAM, TN","county":"Grundy","huc":"06030003","drainSqMi":65.6,"types":"dv+iv","wired":1,"wiredTo":"elk-river"}},{"type":"Feature","geometry":{"type":"Point","coordinates":[-85.979023,35.356332]},"properties":{"id":"03578500","name":"BRADLEY CREEK NR PRAIRIE PLAINS, TN","county":"Coffee","huc":"06030003","drainSqMi":41.3,"types":"dv+iv","wired":0,"wiredTo":""}},{"type":"Feature","geometry":{"type":"Point","coordinates":[-86.539704,35.134557]},"properties":{"id":"03582000","name":"ELK RIVER ABOVE FAYETTEVILLE, TN","county":"Lincoln","huc":"06030003","drainSqMi":827,"types":"dv+iv","wired":1,"wiredTo":"elk-river-lower"}},{"type":"Feature","geometry":{"type":"Point","coordinates":[-87.063889,35.195]},"properties":{"id":"03584045","name":"RICHLAND CREEK AT HWY 64 BYPASS AT PULASKI, TN","county":"Giles","huc":"06030004","drainSqMi":375,"types":"dv+iv","wired":0,"wiredTo":""}},{"type":"Feature","geometry":{"type":"Point","coordinates":[-86.994657,35.014236]},"properties":{"id":"03584600","name":"ELK RIVER AT PROSPECT, TN","county":"Giles","huc":"06030004","drainSqMi":1805,"types":"dv+iv","wired":0,"wiredTo":""}},{"type":"Feature","geometry":{"type":"Point","coordinates":[-87.579022,35.024153]},"properties":{"id":"03588500","name":"SHOAL CREEK AT IRON CITY, TN","county":"Lawrence","huc":"06030005","drainSqMi":348,"types":"dv+iv","wired":1,"wiredTo":"shoal-creek"}},{"type":"Feature","geometry":{"type":"Point","coordinates":[-88.209605,35.180686]},"properties":{"id":"03593800","name":"HORSE CREEK NEAR SAVANNAH, TN (TVA)","county":"Hardin","huc":"06040001","drainSqMi":104,"types":"dv+iv","wired":0,"wiredTo":""}},{"type":"Feature","geometry":{"type":"Point","coordinates":[-86.121635,35.470938]},"properties":{"id":"03596000","name":"DUCK RIVER BELOW MANCHESTER, TN","county":"Coffee","huc":"06040002","drainSqMi":107,"types":"dv+iv","wired":0,"wiredTo":""}},{"type":"Feature","geometry":{"type":"Point","coordinates":[-86.069709,35.410078]},"properties":{"id":"03596075","name":"SINKING POND AT AEDC, TN","county":"Coffee","huc":"06040002","drainSqMi":null,"types":"dv+iv","wired":0,"wiredTo":""}},{"type":"Feature","geometry":{"type":"Point","coordinates":[-86.340271,35.527295]},"properties":{"id":"03597590","name":"WARTRACE CREEK BELOW COUNTY ROAD AT WARTRACE, TN","county":"Bedford","huc":"06040002","drainSqMi":35.7,"types":"dv+iv","wired":0,"wiredTo":""}},{"type":"Feature","geometry":{"type":"Point","coordinates":[-86.462582,35.482933]},"properties":{"id":"03597860","name":"DUCK RIVER AT SHELBYVILLE, TN","county":"Bedford","huc":"06040002","drainSqMi":425,"types":"dv+iv","wired":1,"wiredTo":"duck-river-lower,duck-river-tailwater"}},{"type":"Feature","geometry":{"type":"Point","coordinates":[-86.499161,35.48035]},"properties":{"id":"03598000","name":"DUCK RIVER NEAR SHELBYVILLE, TN","county":"Bedford","huc":"06040002","drainSqMi":481,"types":"dv+iv","wired":1,"wiredTo":"duck-river-lower"}},{"type":"Feature","geometry":{"type":"Point","coordinates":[-86.582251,35.55289]},"properties":{"id":"03598185","name":"DUCK RIVER AT HALLS MILL BRIDGE, TN","county":"Bedford","huc":"06040002","drainSqMi":584.68,"types":"dv+iv","wired":0,"wiredTo":""}},{"type":"Feature","geometry":{"type":"Point","coordinates":[-86.778585,35.57636]},"properties":{"id":"03599240","name":"DUCK RIVER ABOVE MILLTOWN, TN","county":"McMinn","huc":"06040002","drainSqMi":916,"types":"dv+iv","wired":0,"wiredTo":""}},{"type":"Feature","geometry":{"type":"Point","coordinates":[-86.87139,35.570349]},"properties":{"id":"03599419","name":"DUCK RIVER AT MILE 156 NEAR POTTSVILLE, TN","county":"McNairy","huc":"06040002","drainSqMi":1029,"types":"dv+iv","wired":0,"wiredTo":""}},{"type":"Feature","geometry":{"type":"Point","coordinates":[-87.032338,35.618086]},"properties":{"id":"03599500","name":"DUCK RIVER AT COLUMBIA, TN","county":"McNairy","huc":"06040003","drainSqMi":1208,"types":"dv+iv","wired":1,"wiredTo":"duck-river-lower"}},{"type":"Feature","geometry":{"type":"Point","coordinates":[-87.266038,35.720658]},"properties":{"id":"03601600","name":"DUCK RIVER NEAR SHADY GROVE, TN.","county":"Hickman","huc":"06040003","drainSqMi":1705,"types":"dv+iv","wired":0,"wiredTo":""}},{"type":"Feature","geometry":{"type":"Point","coordinates":[-87.460014,35.784234]},"properties":{"id":"03601990","name":"DUCK RIVER AT HWY 100 AT CENTERVILLE, TN","county":"Hickman","huc":"06040003","drainSqMi":2048,"types":"dv+iv","wired":0,"wiredTo":""}},{"type":"Feature","geometry":{"type":"Point","coordinates":[-87.5014,35.871294]},"properties":{"id":"03602500","name":"PINEY RIVER AT VERNON, TN","county":"Hickman","huc":"06040003","drainSqMi":193,"types":"dv+iv","wired":0,"wiredTo":""}},{"type":"Feature","geometry":{"type":"Point","coordinates":[-87.743074,35.930096]},"properties":{"id":"03603000","name":"DUCK RIVER ABOVE HURRICANE MILLS, TN","county":"Humphreys","huc":"06040003","drainSqMi":2557,"types":"dv+iv","wired":0,"wiredTo":""}},{"type":"Feature","geometry":{"type":"Point","coordinates":[-87.832804,35.495906]},"properties":{"id":"03604000","name":"BUFFALO RIVER NEAR FLAT WOODS, TN","county":"Perry","huc":"06040004","drainSqMi":447,"types":"dv+iv","wired":1,"wiredTo":"buffalo-river"}},{"type":"Feature","geometry":{"type":"Point","coordinates":[-87.77875,35.811843]},"properties":{"id":"03604400","name":"BUFFALO RIVER BELOW LOBELVILLE, TN","county":"Perry","huc":"06040004","drainSqMi":702,"types":"dv+iv","wired":0,"wiredTo":""}},{"type":"Feature","geometry":{"type":"Point","coordinates":[-88.075862,36.047038]},"properties":{"id":"03605078","name":"CYPRESS CREEK AT CAMDEN, TN","county":"Benton","huc":"06040005","drainSqMi":27.3,"types":"dv+iv","wired":0,"wiredTo":""}},{"type":"Feature","geometry":{"type":"Point","coordinates":[-88.229112,36.037016]},"properties":{"id":"03606500","name":"BIG SANDY RIVER AT BRUCETON, TN","county":"Carroll","huc":"06040005","drainSqMi":205,"types":"dv+iv","wired":0,"wiredTo":""}},{"type":"Feature","geometry":{"type":"Point","coordinates":[-88.810885,36.118148]},"properties":{"id":"07024500","name":"SOUTH FORK OBION RIVER NEAR GREENFIELD, TN","county":"Weakley","huc":"08010203","drainSqMi":383,"types":"dv+iv","wired":0,"wiredTo":""}},{"type":"Feature","geometry":{"type":"Point","coordinates":[-88.854762,36.405334]},"properties":{"id":"07025400","name":"NORTH FORK OBION RIVER NEAR MARTIN, TN (CE)","county":"Weakley","huc":"08010203","drainSqMi":372,"types":"dv+iv","wired":0,"wiredTo":""}},{"type":"Feature","geometry":{"type":"Point","coordinates":[-89.21764,36.240851]},"properties":{"id":"07026040","name":"OBION RIVER AT HWY 51 NEAR OBION, TN","county":"Obion","huc":"08010202","drainSqMi":1875,"types":"dv+iv","wired":0,"wiredTo":""}},{"type":"Feature","geometry":{"type":"Point","coordinates":[-89.296456,36.442308]},"properties":{"id":"07026500","name":"REELFOOT CREEK NEAR SAMBURG, TN","county":"Obion","huc":"08010202","drainSqMi":110,"types":"dv+iv","wired":0,"wiredTo":""}},{"type":"Feature","geometry":{"type":"Point","coordinates":[-89.409775,36.351489]},"properties":{"id":"07027003","name":"Reelfoot Lake Spillway nr Tiptonville","county":"Lake","huc":"08010202","drainSqMi":null,"types":"iv","wired":0,"wiredTo":""}},{"type":"Feature","geometry":{"type":"Point","coordinates":[-89.212276,35.718767]},"properties":{"id":"07027720","name":"SOUTH FORK FORKED DEER RIVER NEAR OWL CITY, TN","county":"Haywood","huc":"08010205","drainSqMi":718,"types":"dv+iv","wired":0,"wiredTo":""}},{"type":"Feature","geometry":{"type":"Point","coordinates":[-88.846442,35.744266]},"properties":{"id":"07028960","name":"MIDDLE FORK FORKED DEER RIVER NEAR FAIRVIEW","county":"Marshall","huc":"08010204","drainSqMi":211,"types":"dv+iv","wired":0,"wiredTo":""}},{"type":"Feature","geometry":{"type":"Point","coordinates":[-88.976626,35.275356]},"properties":{"id":"07029500","name":"HATCHIE RIVER AT BOLIVAR, TN","county":"Hardeman","huc":"08010208","drainSqMi":1480,"types":"dv+iv","wired":0,"wiredTo":""}},{"type":"Feature","geometry":{"type":"Point","coordinates":[-89.609455,35.637335]},"properties":{"id":"07030050","name":"HATCHIE RIVER AT RIALTO, TN","county":"Tipton","huc":"08010208","drainSqMi":2308,"types":"dv+iv","wired":0,"wiredTo":""}},{"type":"Feature","geometry":{"type":"Point","coordinates":[-89.63956,35.31095]},"properties":{"id":"07030240","name":"LOOSAHATCHIE RIVER NEAR ARLINGTON, TN","county":"Shelby","huc":"08010209","drainSqMi":262,"types":"dv+iv","wired":0,"wiredTo":""}},{"type":"Feature","geometry":{"type":"Point","coordinates":[-89.887309,35.275087]},"properties":{"id":"07030290","name":"LOOSAHATCHIE RV AT SINGLETON PKWY NR BARTLETT, TN","county":"Shelby","huc":"08010209","drainSqMi":null,"types":"dv+iv","wired":0,"wiredTo":""}},{"type":"Feature","geometry":{"type":"Point","coordinates":[-89.246736,35.03259]},"properties":{"id":"07030392","name":"WOLF RIVER AT LAGRANGE, TN","county":"Fayette","huc":"08010210","drainSqMi":210,"types":"dv+iv","wired":0,"wiredTo":""}},{"type":"Feature","geometry":{"type":"Point","coordinates":[-89.54119,35.054257]},"properties":{"id":"07030500","name":"WOLF RIVER AT ROSSVILLE, TN","county":"Fayette","huc":"08010210","drainSqMi":503,"types":"dv+iv","wired":0,"wiredTo":""}},{"type":"Feature","geometry":{"type":"Point","coordinates":[-89.650556,35.081389]},"properties":{"id":"07030600","name":"WOLF RIVER NEAR COLLIERVILLE","county":"Shelby","huc":"08010210","drainSqMi":597,"types":"dv+iv","wired":0,"wiredTo":""}},{"type":"Feature","geometry":{"type":"Point","coordinates":[-89.801471,35.116488]},"properties":{"id":"07031650","name":"WOLF RIVER AT GERMANTOWN, TN","county":"Shelby","huc":"08010210","drainSqMi":699,"types":"dv+iv","wired":1,"wiredTo":"wolf-river-west-tennessee"}},{"type":"Feature","geometry":{"type":"Point","coordinates":[-89.866123,35.169378]},"properties":{"id":"07031692","name":"FLETCHER CREEK AT SYCAMORE VIEW ROAD AT MEMPHIS","county":"Shelby","huc":"08010210","drainSqMi":30.5,"types":"dv+iv","wired":0,"wiredTo":""}},{"type":"Feature","geometry":{"type":"Point","coordinates":[-89.975643,35.187875]},"properties":{"id":"07031740","name":"WOLF RIVER AT HOLLYWOOD ST AT MEMPHIS, TN","county":"Shelby","huc":"08010210","drainSqMi":788,"types":"dv+iv","wired":0,"wiredTo":""}},{"type":"Feature","geometry":{"type":"Point","coordinates":[-90.077592,35.123146]},"properties":{"id":"07032000","name":"MISSISSIPPI RIVER AT MEMPHIS, TN","county":"Shelby","huc":"08010100","drainSqMi":932800,"types":"dv+iv","wired":0,"wiredTo":""}},{"type":"Feature","geometry":{"type":"Point","coordinates":[-89.818971,35.049823]},"properties":{"id":"07032200","name":"NONCONNAH CREEK NEAR GERMANTOWN, TN","county":"Shelby","huc":"08010211","drainSqMi":68.2,"types":"dv+iv","wired":0,"wiredTo":""}}]}
