{"type":"FeatureCollection","features":[{"type":"Feature","properties":{"id":"boone-lake","name":"Boone Lake","kind":"lake","bounds":[-82.371,36.3841,-82.3152,36.4882],"labelAnchor":[-82.3448,36.4684]},"geometry":{"type":"MultiPolygon","coordinates":[[[[-82.346,36.3971],[-82.3438,36.3984],[-82.3417,36.3993],[-82.3393,36.4005],[-82.3431,36.3983],[-82.3456,36.3973],[-82.346,36.3971]]],[[[-82.371,36.4469],[-82.369,36.4485],[-82.367,36.4504],[-82.3659,36.4525],[-82.368,36.4545],[-82.366,36.4541],[-82.3639,36.4549],[-82.3624,36.457],[-82.3611,36.4592],[-82.3588,36.4602],[-82.3577,36.4623],[-82.3584,36.4644],[-82.3562,36.4662],[-82.354,36.4666],[-82.352,36.4677],[-82.3512,36.4698],[-82.349,36.4704],[-82.3469,36.4713],[-82.3449,36.4709],[-82.3427,36.4709],[-82.3414,36.473],[-82.3404,36.475],[-82.3384,36.4769],[-82.3366,36.479],[-82.3343,36.4799],[-82.3322,36.4805],[-82.3302,36.4787],[-82.3288,36.4807],[-82.3266,36.4796],[-82.3246,36.4794],[-82.3224,36.4801],[-82.3211,36.4822],[-82.3233,36.4841],[-82.324,36.4862],[-82.3232,36.4882],[-82.3212,36.4874],[-82.3202,36.4853],[-82.3194,36.4832],[-82.3191,36.481],[-82.3214,36.4789],[-82.3235,36.4781],[-82.3256,36.4771],[-82.3278,36.477],[-82.3299,36.4767],[-82.3321,36.476],[-82.3342,36.4747],[-82.3351,36.4727],[-82.3373,36.4708],[-82.3381,36.4687],[-82.3403,36.4684],[-82.3425,36.4686],[-82.3445,36.4683],[-82.3466,36.4687],[-82.3486,36.4685],[-82.3506,36.4656],[-82.3525,36.4631],[-82.3547,36.4618],[-82.3569,36.4598],[-82.359,36.4576],[-82.3607,36.4554],[-82.3628,36.4547],[-82.3647,36.4527],[-82.3655,36.4507],[-82.3678,36.449],[-82.3699,36.4475],[-82.371,36.4469]]],[[[-82.3461,36.3971],[-82.3431,36.3983],[-82.3403,36.3996],[-82.3383,36.401],[-82.3368,36.3989],[-82.335,36.3967],[-82.3337,36.3946],[-82.3314,36.394],[-82.3294,36.3938],[-82.3265,36.394],[-82.3243,36.3941],[-82.3221,36.3932],[-82.32,36.3928],[-82.3173,36.3913],[-82.3152,36.3894],[-82.3154,36.3873],[-82.3175,36.3857],[-82.3195,36.3841],[-82.3182,36.3862],[-82.3163,36.3884],[-82.3174,36.3905],[-82.3194,36.3915],[-82.3216,36.3923],[-82.3236,36.3922],[-82.3258,36.3918],[-82.328,36.3914],[-82.3304,36.3917],[-82.3327,36.3925],[-82.3348,36.3938],[-82.3368,36.3942],[-82.3392,36.3963],[-82.3413,36.3962],[-82.3392,36.3946],[-82.3413,36.3953],[-82.3435,36.3964],[-82.3423,36.3942],[-82.3444,36.3951],[-82.3461,36.3971]],[[-82.3299,36.3926],[-82.3278,36.3925],[-82.3298,36.3928],[-82.3299,36.3926]]]]}},{"type":"Feature","properties":{"id":"great-falls-lake","name":"Great Falls Lake","kind":"lake","bounds":[-85.6974,35.7769,-85.5,35.8162],"labelAnchor":[-85.6561,35.7906]},"geometry":{"type":"MultiPolygon","coordinates":[[[[-85.5408,35.7977],[-85.5388,35.7986],[-85.5365,35.7993],[-85.5342,35.799],[-85.5317,35.7973],[-85.5284,35.7936],[-85.5241,35.7915],[-85.5213,35.7917],[-85.5191,35.7929],[-85.5206,35.795],[-85.5222,35.797],[-85.5215,35.8002],[-85.523,35.8029],[-85.5265,35.8048],[-85.5266,35.8071],[-85.5231,35.8106],[-85.5208,35.8129],[-85.5189,35.815],[-85.5138,35.8152],[-85.5116,35.8145],[-85.5089,35.8133],[-85.5051,35.8113],[-85.5028,35.8096],[-85.5,35.8073],[-85.5021,35.8081],[-85.5044,35.8099],[-85.5069,35.8114],[-85.5093,35.8127],[-85.5115,35.8138],[-85.5136,35.8145],[-85.5161,35.815],[-85.5182,35.8147],[-85.5203,35.8125],[-85.5222,35.8104],[-85.5248,35.8081],[-85.5264,35.8059],[-85.5241,35.8041],[-85.522,35.8024],[-85.5207,35.8004],[-85.5211,35.7984],[-85.5214,35.7961],[-85.5192,35.7944],[-85.5185,35.7922],[-85.5208,35.7912],[-85.5232,35.791],[-85.5241,35.7887],[-85.5244,35.7907],[-85.5268,35.7917],[-85.5289,35.7933],[-85.5309,35.7955],[-85.533,35.7974],[-85.5361,35.7989],[-85.5383,35.7984],[-85.5404,35.7972],[-85.5408,35.7977]]],[[[-85.6974,35.7776],[-85.6951,35.7774],[-85.6927,35.7777],[-85.6906,35.7779],[-85.6885,35.7782],[-85.6858,35.7792],[-85.6831,35.7807],[-85.6806,35.7817],[-85.6782,35.7825],[-85.676,35.7829],[-85.6727,35.7832],[-85.6702,35.783],[-85.6672,35.7828],[-85.6649,35.7834],[-85.6629,35.7856],[-85.6604,35.7884],[-85.6579,35.7903],[-85.6556,35.7909],[-85.6529,35.7912],[-85.6504,35.7907],[-85.648,35.7888],[-85.6455,35.7873],[-85.6435,35.7864],[-85.6413,35.7865],[-85.64,35.7894],[-85.6423,35.7911],[-85.645,35.7927],[-85.6477,35.794],[-85.6502,35.7953],[-85.6523,35.7974],[-85.6522,35.7996],[-85.6506,35.8017],[-85.6471,35.8021],[-85.645,35.8002],[-85.6429,35.7994],[-85.641,35.8016],[-85.641,35.8038],[-85.6399,35.8061],[-85.6373,35.8065],[-85.6351,35.805],[-85.6346,35.8026],[-85.635,35.8001],[-85.6342,35.7981],[-85.6329,35.7959],[-85.633,35.7938],[-85.6351,35.7956],[-85.6364,35.7983],[-85.6367,35.8005],[-85.6361,35.8031],[-85.6372,35.8052],[-85.6394,35.8043],[-85.6393,35.8021],[-85.6403,35.7996],[-85.6425,35.7983],[-85.6447,35.7986],[-85.6468,35.8009],[-85.6495,35.8011],[-85.6513,35.7989],[-85.6505,35.7968],[-85.6485,35.7955],[-85.6458,35.7943],[-85.6434,35.7929],[-85.6408,35.7911],[-85.6386,35.789],[-85.6384,35.7869],[-85.6415,35.7856],[-85.6443,35.7858],[-85.6466,35.7869],[-85.6491,35.7886],[-85.6514,35.7903],[-85.6546,35.7903],[-85.6567,35.7899],[-85.6587,35.7888],[-85.6606,35.7868],[-85.6627,35.7845],[-85.6659,35.7824],[-85.6688,35.7821],[-85.6721,35.7823],[-85.675,35.7823],[-85.677,35.782],[-85.6791,35.7813],[-85.6818,35.7805],[-85.6844,35.7792],[-85.6877,35.7779],[-85.691,35.7772],[-85.6962,35.7769],[-85.6974,35.7776]]],[[[-85.541,35.7979],[-85.5383,35.7992],[-85.5359,35.7998],[-85.5334,35.799],[-85.5309,35.7971],[-85.5291,35.7951],[-85.5271,35.793],[-85.5245,35.7921],[-85.5222,35.7921],[-85.52,35.7925],[-85.5213,35.7947],[-85.5226,35.7969],[-85.5221,35.7997],[-85.5232,35.8019],[-85.5252,35.8034],[-85.5273,35.8047],[-85.5275,35.8071],[-85.5252,35.8096],[-85.5231,35.8113],[-85.5211,35.8135],[-85.5192,35.8155],[-85.5169,35.8162],[-85.5141,35.8157],[-85.5119,35.8152],[-85.5094,35.8142],[-85.5071,35.813],[-85.5045,35.8114],[-85.5014,35.8091],[-85.5051,35.8113],[-85.5085,35.8131],[-85.5116,35.8145],[-85.5138,35.8152],[-85.5173,35.8158],[-85.5198,35.8141],[-85.5231,35.8106],[-85.5255,35.8084],[-85.527,35.8061],[-85.5248,35.8039],[-85.5216,35.8014],[-85.5219,35.7984],[-85.522,35.7964],[-85.519,35.7937],[-85.5213,35.7917],[-85.5241,35.7915],[-85.5267,35.7924],[-85.5305,35.7961],[-85.5339,35.7989],[-85.5359,35.7993],[-85.5382,35.7989],[-85.5405,35.7978],[-85.541,35.7979]]]]}},{"type":"Feature","properties":{"id":"nickajack-lake","name":"Nickajack Lake","kind":"lake","bounds":[-85.6215,34.9854,-85.5832,35.0018],"labelAnchor":[-85.6062,34.9946]},"geometry":{"type":"MultiPolygon","coordinates":[[[[-85.6215,34.9957],[-85.6186,34.9976],[-85.6197,34.9997],[-85.6207,35.0018],[-85.6183,35.0015],[-85.6161,35.001],[-85.6133,35.0005],[-85.603,35.0001],[-85.6019,34.9977],[-85.5832,35.0001],[-85.586,34.999],[-85.5884,34.9982],[-85.5909,34.9973],[-85.5931,34.9965],[-85.5969,34.9952],[-85.5991,34.9944],[-85.5974,34.9917],[-85.5982,34.9896],[-85.5981,34.9876],[-85.6002,34.9868],[-85.6022,34.9854],[-85.6044,34.9864],[-85.6068,34.9882],[-85.6089,34.9896],[-85.6112,34.9906],[-85.6127,34.9927],[-85.609,34.9933],[-85.6054,34.9931],[-85.6034,34.9931],[-85.6014,34.9934],[-85.6037,34.9936],[-85.6064,34.9937],[-85.6086,34.9938],[-85.6121,34.9943],[-85.6147,34.9946],[-85.618,34.9951],[-85.6208,34.9955],[-85.6215,34.9957]]]]}},{"type":"Feature","properties":{"id":"normandy-lake","name":"Normandy Lake","kind":"lake","bounds":[-86.2482,35.4288,-86.1641,35.5034],"labelAnchor":[-86.2196,35.4756]},"geometry":{"type":"MultiPolygon","coordinates":[[[[-86.2482,35.4712],[-86.2462,35.4731],[-86.2467,35.4751],[-86.2467,35.4771],[-86.2455,35.4792],[-86.245,35.477],[-86.2445,35.4746],[-86.2449,35.4725],[-86.2466,35.4702],[-86.2444,35.4688],[-86.2457,35.4668],[-86.2476,35.4688],[-86.2479,35.4708],[-86.2482,35.4712]]],[[[-86.2469,35.4661],[-86.2445,35.4673],[-86.2462,35.4694],[-86.2463,35.4716],[-86.244,35.4727],[-86.2447,35.4758],[-86.2452,35.4782],[-86.2431,35.4762],[-86.2411,35.4763],[-86.2403,35.4784],[-86.2382,35.4803],[-86.239,35.4755],[-86.2369,35.4742],[-86.2349,35.4754],[-86.2328,35.4743],[-86.2308,35.4748],[-86.2287,35.475],[-86.2268,35.4729],[-86.2255,35.4709],[-86.2235,35.4701],[-86.2221,35.4723],[-86.2217,35.4743],[-86.2212,35.4763],[-86.2205,35.4784],[-86.2206,35.4805],[-86.2205,35.4825],[-86.2193,35.4845],[-86.2215,35.486],[-86.2194,35.4856],[-86.2173,35.4866],[-86.2168,35.4886],[-86.2166,35.4907],[-86.2175,35.4927],[-86.2192,35.4947],[-86.2213,35.4953],[-86.2191,35.4958],[-86.217,35.4941],[-86.2149,35.4929],[-86.2131,35.4949],[-86.2128,35.497],[-86.2119,35.499],[-86.2113,35.501],[-86.2115,35.5034],[-86.2095,35.5024],[-86.2072,35.5014],[-86.2045,35.5023],[-86.2068,35.5002],[-86.2088,35.4988],[-86.2098,35.4968],[-86.2108,35.4947],[-86.2113,35.4927],[-86.2124,35.4906],[-86.2127,35.4885],[-86.2138,35.4863],[-86.2117,35.4855],[-86.2097,35.4863],[-86.2076,35.4866],[-86.2055,35.4864],[-86.2035,35.4869],[-86.2057,35.4859],[-86.2077,35.4854],[-86.2098,35.4849],[-86.212,35.484],[-86.2141,35.4835],[-86.2155,35.4813],[-86.2167,35.4792],[-86.2175,35.4767],[-86.2177,35.4742],[-86.2185,35.472],[-86.2175,35.4697],[-86.2155,35.4681],[-86.2133,35.4678],[-86.2112,35.4674],[-86.2092,35.4668],[-86.2071,35.4655],[-86.205,35.4658],[-86.2029,35.4658],[-86.2009,35.4666],[-86.1987,35.4675],[-86.1966,35.4691],[-86.1982,35.4671],[-86.2002,35.4658],[-86.2023,35.465],[-86.2044,35.4638],[-86.2067,35.4623],[-86.2093,35.4605],[-86.2073,35.4616],[-86.2097,35.4597],[-86.2119,35.4594],[-86.214,35.4583],[-86.2149,35.4562],[-86.2169,35.4545],[-86.2189,35.4545],[-86.2207,35.4565],[-86.2187,35.4577],[-86.2175,35.4597],[-86.2179,35.4617],[-86.2201,35.4637],[-86.2222,35.4638],[-86.2242,35.4627],[-86.223,35.4606],[-86.223,35.4585],[-86.2213,35.4564],[-86.2234,35.4548],[-86.2255,35.4558],[-86.2261,35.4578],[-86.2278,35.4601],[-86.2298,35.4612],[-86.2318,35.4634],[-86.2328,35.4655],[-86.2349,35.4672],[-86.237,35.4674],[-86.2422,35.4655],[-86.2449,35.4656],[-86.2469,35.4661]]],[[[-86.1855,35.4336],[-86.1846,35.4356],[-86.1824,35.4342],[-86.1828,35.4362],[-86.1828,35.4383],[-86.1809,35.4404],[-86.1788,35.4418],[-86.1767,35.443],[-86.1747,35.4435],[-86.1731,35.4415],[-86.1737,35.4395],[-86.1741,35.4375],[-86.1719,35.4366],[-86.1698,35.437],[-86.1677,35.4371],[-86.1656,35.4364],[-86.1641,35.4343],[-86.1661,35.4348],[-86.1682,35.4354],[-86.1703,35.4353],[-86.1724,35.4347],[-86.1746,35.4346],[-86.1767,35.4352],[-86.1767,35.4373],[-86.1767,35.4393],[-86.1788,35.4383],[-86.178,35.4362],[-86.1766,35.4341],[-86.1768,35.4321],[-86.177,35.43],[-86.1791,35.4299],[-86.1811,35.4288],[-86.1824,35.4309],[-86.1847,35.4324],[-86.1855,35.4336]]]]}},{"type":"Feature","properties":{"id":"parksville-lake","name":"Parksville Lake","kind":"lake","bounds":[-84.6748,35.0687,-84.6251,35.1117],"labelAnchor":[-84.6434,35.09]},"geometry":{"type":"MultiPolygon","coordinates":[[[[-84.6748,35.1117],[-84.674,35.1093],[-84.6718,35.1081],[-84.6697,35.1073],[-84.6676,35.1057],[-84.6652,35.1055],[-84.6631,35.1048],[-84.6611,35.1028],[-84.659,35.1014],[-84.6568,35.0995],[-84.6541,35.0969],[-84.652,35.096],[-84.6498,35.0953],[-84.6477,35.0958],[-84.6457,35.0972],[-84.6435,35.0988],[-84.6413,35.0997],[-84.6392,35.1006],[-84.6371,35.1022],[-84.6351,35.1023],[-84.6336,35.1044],[-84.6315,35.1034],[-84.6301,35.1014],[-84.628,35.1003],[-84.6258,35.0994],[-84.6256,35.0969],[-84.6251,35.0944],[-84.6272,35.0948],[-84.6293,35.0944],[-84.6314,35.095],[-84.6327,35.093],[-84.6332,35.0951],[-84.6352,35.0944],[-84.6361,35.0964],[-84.6387,35.0965],[-84.6367,35.095],[-84.6387,35.093],[-84.6408,35.0934],[-84.6396,35.0913],[-84.6396,35.0893],[-84.6376,35.0906],[-84.6376,35.0886],[-84.6356,35.0894],[-84.6336,35.0911],[-84.6315,35.0909],[-84.6295,35.0902],[-84.6274,35.0895],[-84.6294,35.0888],[-84.6299,35.0867],[-84.6287,35.0846],[-84.6285,35.0825],[-84.6295,35.0804],[-84.6277,35.0784],[-84.6297,35.0788],[-84.6309,35.0808],[-84.6304,35.083],[-84.6304,35.0852],[-84.6315,35.0873],[-84.631,35.0893],[-84.633,35.09],[-84.6339,35.088],[-84.635,35.0859],[-84.6372,35.0846],[-84.6392,35.0851],[-84.6399,35.0831],[-84.6387,35.0811],[-84.6408,35.0814],[-84.6425,35.0792],[-84.6425,35.077],[-84.6404,35.0762],[-84.6425,35.0762],[-84.642,35.0742],[-84.6398,35.0736],[-84.6378,35.0744],[-84.6358,35.0731],[-84.6343,35.0709],[-84.6347,35.0687],[-84.6357,35.0709],[-84.6377,35.0717],[-84.6397,35.0716],[-84.6418,35.0713],[-84.6438,35.0717],[-84.6459,35.0712],[-84.6466,35.0732],[-84.6487,35.0751],[-84.648,35.0771],[-84.646,35.0765],[-84.6462,35.0785],[-84.6482,35.0796],[-84.6462,35.0797],[-84.6482,35.0807],[-84.6503,35.082],[-84.6483,35.0818],[-84.6462,35.081],[-84.6479,35.0831],[-84.6463,35.0851],[-84.6457,35.0871],[-84.6445,35.0891],[-84.6456,35.0912],[-84.6478,35.0936],[-84.6499,35.0944],[-84.6525,35.0956],[-84.656,35.0972],[-84.6585,35.1004],[-84.6606,35.1014],[-84.6634,35.1041],[-84.6659,35.105],[-84.6683,35.1053],[-84.6712,35.1072],[-84.6732,35.1082],[-84.6747,35.1104],[-84.6748,35.1117]]]]}},{"type":"Feature","properties":{"id":"reelfoot-lake","name":"Reelfoot Lake","kind":"lake","bounds":[-89.4481,36.3515,-89.1462,36.5001],"labelAnchor":[-89.4187,36.3783]},"geometry":{"type":"MultiPolygon","coordinates":[[[[-89.3962,36.4083],[-89.3953,36.4103],[-89.3934,36.4131],[-89.3909,36.4137],[-89.3888,36.4125],[-89.3887,36.4146],[-89.3866,36.4167],[-89.3845,36.4161],[-89.3838,36.4141],[-89.3818,36.4131],[-89.3811,36.4152],[-89.3824,36.4174],[-89.3844,36.4185],[-89.386,36.4207],[-89.387,36.4227],[-89.3868,36.4207],[-89.386,36.4186],[-89.3873,36.4206],[-89.3885,36.4228],[-89.3894,36.425],[-89.3894,36.4271],[-89.3877,36.425],[-89.3864,36.4229],[-89.3865,36.4251],[-89.3838,36.4232],[-89.3831,36.4211],[-89.3804,36.4177],[-89.3851,36.4259],[-89.3769,36.4147],[-89.3751,36.4119],[-89.3775,36.4126],[-89.3765,36.4105],[-89.375,36.4078],[-89.3751,36.4032],[-89.3771,36.4037],[-89.3753,36.4017],[-89.3733,36.4009],[-89.371,36.399],[-89.3732,36.3982],[-89.3754,36.3993],[-89.3731,36.3976],[-89.371,36.3969],[-89.3686,36.3961],[-89.3704,36.3932],[-89.372,36.3908],[-89.3735,36.3884],[-89.3751,36.3859],[-89.378,36.3813],[-89.3797,36.3787],[-89.381,36.3808],[-89.3832,36.3818],[-89.3852,36.3839],[-89.3872,36.3856],[-89.3893,36.3875],[-89.3915,36.3911],[-89.393,36.3932],[-89.3939,36.3955],[-89.3947,36.3975],[-89.3951,36.3995],[-89.3957,36.4021],[-89.396,36.405],[-89.3961,36.4071],[-89.3962,36.4083]]],[[[-89.4481,36.3859],[-89.4471,36.3881],[-89.4459,36.3901],[-89.4455,36.3923],[-89.4449,36.3946],[-89.4451,36.3971],[-89.4454,36.3992],[-89.4455,36.4014],[-89.445,36.4037],[-89.4437,36.406],[-89.4417,36.407],[-89.4393,36.406],[-89.437,36.4044],[-89.4356,36.4023],[-89.4336,36.4],[-89.4324,36.3979],[-89.4303,36.396],[-89.4281,36.394],[-89.4257,36.3945],[-89.4237,36.3933],[-89.4215,36.394],[-89.4189,36.3939],[-89.4169,36.3939],[-89.4147,36.3927],[-89.4125,36.392],[-89.4122,36.39],[-89.4131,36.3879],[-89.415,36.3859],[-89.4137,36.3839],[-89.4117,36.3825],[-89.4096,36.3817],[-89.4074,36.3816],[-89.4069,36.3794],[-89.4058,36.3774],[-89.4055,36.3753],[-89.4061,36.3733],[-89.4049,36.3713],[-89.4029,36.3733],[-89.4022,36.3754],[-89.4015,36.3778],[-89.3994,36.3782],[-89.4,36.3804],[-89.3992,36.3827],[-89.3979,36.385],[-89.3958,36.3852],[-89.3937,36.3847],[-89.3914,36.3841],[-89.3893,36.3841],[-89.3872,36.3828],[-89.3867,36.3808],[-89.3846,36.3795],[-89.3839,36.3773],[-89.3816,36.3765],[-89.3836,36.3741],[-89.3906,36.3665],[-89.3925,36.3644],[-89.3948,36.3619],[-89.4004,36.3557],[-89.4023,36.3537],[-89.4044,36.3533],[-89.4066,36.3536],[-89.4087,36.3541],[-89.4115,36.3535],[-89.414,36.3532],[-89.4115,36.3536],[-89.4135,36.3544],[-89.4157,36.3538],[-89.4178,36.3531],[-89.4199,36.3523],[-89.4221,36.3515],[-89.4222,36.3536],[-89.4245,36.3536],[-89.4265,36.355],[-89.4279,36.3571],[-89.4293,36.3592],[-89.4306,36.3617],[-89.4302,36.3639],[-89.4309,36.3661],[-89.431,36.3681],[-89.4318,36.3701],[-89.4327,36.3723],[-89.4341,36.3744],[-89.4365,36.376],[-89.4386,36.378],[-89.4408,36.3796],[-89.4433,36.3805],[-89.4438,36.3826],[-89.446,36.3831],[-89.448,36.3852],[-89.4481,36.3859]]],[[[-89.366,36.4366],[-89.3643,36.4387],[-89.3629,36.4407],[-89.3617,36.4428],[-89.3593,36.4423],[-89.3589,36.4443],[-89.3581,36.4464],[-89.3577,36.4486],[-89.3556,36.4484],[-89.3536,36.4468],[-89.3515,36.4467],[-89.3498,36.4488],[-89.3513,36.4466],[-89.3523,36.4445],[-89.3526,36.4424],[-89.3537,36.4402],[-89.355,36.438],[-89.3558,36.4353],[-89.3558,36.4331],[-89.3555,36.4309],[-89.355,36.4287],[-89.3541,36.4267],[-89.3537,36.4246],[-89.3526,36.4225],[-89.3494,36.4216],[-89.3492,36.4238],[-89.3505,36.4259],[-89.3511,36.428],[-89.3505,36.4301],[-89.3484,36.4298],[-89.3492,36.4321],[-89.348,36.4341],[-89.346,36.4331],[-89.3439,36.4325],[-89.3443,36.4346],[-89.3423,36.434],[-89.3418,36.432],[-89.3414,36.43],[-89.3415,36.4279],[-89.3436,36.4293],[-89.3457,36.429],[-89.3464,36.4315],[-89.3466,36.4294],[-89.3451,36.4273],[-89.3437,36.4251],[-89.3415,36.423],[-89.342,36.4253],[-89.3403,36.4233],[-89.3398,36.4211],[-89.3396,36.419],[-89.3399,36.4169],[-89.3393,36.4148],[-89.3371,36.4137],[-89.3365,36.4111],[-89.3345,36.411],[-89.3346,36.4089],[-89.3344,36.4069],[-89.334,36.4045],[-89.3359,36.4022],[-89.3375,36.4001],[-89.3395,36.3998],[-89.34,36.3977],[-89.34,36.3953],[-89.3422,36.3947],[-89.3445,36.3949],[-89.3467,36.3933],[-89.3488,36.3926],[-89.3509,36.3937],[-89.3518,36.3957],[-89.3512,36.3979],[-89.353,36.4],[-89.354,36.4023],[-89.3553,36.4044],[-89.3573,36.4065],[-89.36,36.4127],[-89.3618,36.4165],[-89.3647,36.4211],[-89.3641,36.4234],[-89.3653,36.4257],[-89.3659,36.4287],[-89.3638,36.4297],[-89.364,36.4277],[-89.3633,36.4256],[-89.3629,36.4282],[-89.3629,36.4303],[-89.3628,36.4323],[-89.3649,36.4326],[-89.3653,36.4346],[-89.366,36.4366]],[[-89.3476,36.428],[-89.3463,36.4259],[-89.345,36.4238],[-89.3452,36.4259],[-89.3472,36.428],[-89.3476,36.428]]],[[[-89.3659,36.4437],[-89.3654,36.4459],[-89.3637,36.4486],[-89.3632,36.4511],[-89.362,36.4532],[-89.3598,36.4565],[-89.3564,36.4601],[-89.3543,36.4616],[-89.352,36.4635],[-89.3496,36.4652],[-89.3475,36.4671],[-89.3457,36.4696],[-89.3423,36.4712],[-89.3403,36.4712],[-89.3382,36.472],[-89.3355,36.4732],[-89.333,36.4737],[-89.3309,36.4747],[-89.3282,36.4766],[-89.3261,36.4777],[-89.3238,36.4796],[-89.3219,36.4819],[-89.3199,36.4818],[-89.3196,36.4798],[-89.3187,36.4771],[-89.3183,36.4751],[-89.3204,36.4752],[-89.3224,36.4736],[-89.3243,36.4715],[-89.3251,36.4694],[-89.3248,36.4673],[-89.326,36.4652],[-89.3281,36.4643],[-89.3313,36.4633],[-89.3333,36.4621],[-89.3354,36.4614],[-89.3379,36.4606],[-89.34,36.4598],[-89.342,36.4588],[-89.3441,36.4584],[-89.3462,36.456],[-89.3469,36.4539],[-89.3489,36.4523],[-89.3511,36.4515],[-89.3532,36.4531],[-89.3559,36.453],[-89.3583,36.4535],[-89.3603,36.4541],[-89.3618,36.4521],[-89.3628,36.4501],[-89.3635,36.4476],[-89.3646,36.4449],[-89.3659,36.4437]]],[[[-89.1685,36.4993],[-89.1655,36.5001],[-89.1617,36.5001],[-89.1594,36.5001],[-89.1572,36.4999],[-89.155,36.4993],[-89.1527,36.4987],[-89.1506,36.4988],[-89.1483,36.4989],[-89.1462,36.4982],[-89.149,36.4982],[-89.1469,36.497],[-89.149,36.4968],[-89.1512,36.4982],[-89.1484,36.496],[-89.1505,36.4964],[-89.1531,36.4964],[-89.1553,36.4965],[-89.1575,36.4955],[-89.1596,36.4964],[-89.1619,36.4964],[-89.1644,36.4964],[-89.1665,36.4957],[-89.1682,36.4983],[-89.1685,36.4993]]],[[[-89.4023,36.3537],[-89.4004,36.3557],[-89.3948,36.3619],[-89.393,36.3639],[-89.3906,36.3665],[-89.3836,36.3741],[-89.3814,36.3764],[-89.3793,36.3771],[-89.3788,36.38],[-89.3751,36.3859],[-89.3735,36.3884],[-89.372,36.3908],[-89.3704,36.3932],[-89.369,36.3955],[-89.3669,36.3975],[-89.3648,36.3976],[-89.3627,36.3973],[-89.3624,36.3952],[-89.3645,36.3952],[-89.3665,36.3953],[-89.3686,36.3951],[-89.369,36.3929],[-89.3668,36.3934],[-89.3647,36.3929],[-89.3625,36.3928],[-89.3594,36.3928],[-89.3571,36.3929],[-89.3546,36.3931],[-89.3526,36.3912],[-89.3505,36.3898],[-89.3505,36.3878],[-89.3519,36.3856],[-89.3522,36.3835],[-89.3543,36.3824],[-89.3564,36.3814],[-89.3584,36.3805],[-89.3608,36.3791],[-89.3629,36.3782],[-89.3671,36.3775],[-89.3694,36.3772],[-89.3716,36.3769],[-89.3737,36.3755],[-89.3756,36.3732],[-89.3775,36.3711],[-89.3796,36.3689],[-89.3816,36.3667],[-89.3835,36.3645],[-89.3849,36.3621],[-89.3863,36.36],[-89.3883,36.3586],[-89.3906,36.3573],[-89.3927,36.3565],[-89.3947,36.356],[-89.3969,36.3553],[-89.399,36.3551],[-89.4003,36.353],[-89.4023,36.3537]]]]}},{"type":"Feature","properties":{"id":"tellico-lake","name":"Tellico Lake","kind":"lake","bounds":[-84.2913,35.346,-84.0508,35.7815],"labelAnchor":[-84.1921,35.5569]},"geometry":{"type":"MultiPolygon","coordinates":[[[[-84.0942,35.554],[-84.0922,35.5523],[-84.0899,35.5499],[-84.089,35.5475],[-84.0879,35.5452],[-84.086,35.5427],[-84.0838,35.5419],[-84.0816,35.5418],[-84.0795,35.5428],[-84.0775,35.5445],[-84.0752,35.5452],[-84.0719,35.5462],[-84.0694,35.547],[-84.0672,35.5472],[-84.0651,35.5469],[-84.063,35.5466],[-84.06,35.5463],[-84.0572,35.5466],[-84.0538,35.5471],[-84.0508,35.5469],[-84.0529,35.5464],[-84.0565,35.5459],[-84.0586,35.5456],[-84.0609,35.5456],[-84.0644,35.5461],[-84.0667,35.5463],[-84.0693,35.5462],[-84.0722,35.5452],[-84.0745,35.5445],[-84.0766,35.5439],[-84.0802,35.5418],[-84.0833,35.5411],[-84.0855,35.5414],[-84.0875,35.5426],[-84.0894,35.545],[-84.0907,35.5482],[-84.0925,35.5512],[-84.0948,35.5533],[-84.0942,35.554]]],[[[-84.2662,35.6368],[-84.2642,35.6366],[-84.262,35.6378],[-84.2621,35.6399],[-84.2601,35.64],[-84.2578,35.6391],[-84.2556,35.6405],[-84.2532,35.6417],[-84.2553,35.6426],[-84.2576,35.642],[-84.2558,35.6441],[-84.256,35.6466],[-84.2538,35.6466],[-84.2518,35.6471],[-84.2498,35.6463],[-84.2516,35.6441],[-84.2498,35.6407],[-84.252,35.6397],[-84.2541,35.6386],[-84.2555,35.6366],[-84.2577,35.6348],[-84.2605,35.6347],[-84.2585,35.6368],[-84.2609,35.6378],[-84.2629,35.637],[-84.265,35.6363],[-84.2662,35.6368]]],[[[-84.2327,35.6717],[-84.2305,35.6728],[-84.2282,35.6727],[-84.2296,35.6706],[-84.2317,35.6719],[-84.2327,35.6717]]],[[[-84.2702,35.7529],[-84.2681,35.7528],[-84.2671,35.7548],[-84.2692,35.7562],[-84.2682,35.7587],[-84.267,35.7609],[-84.2657,35.7632],[-84.2637,35.7654],[-84.261,35.7663],[-84.2588,35.7666],[-84.2555,35.7664],[-84.2562,35.7686],[-84.2582,35.7686],[-84.2603,35.7686],[-84.2606,35.7706],[-84.2628,35.7714],[-84.2648,35.7725],[-84.2634,35.7746],[-84.2613,35.7749],[-84.2606,35.777],[-84.2584,35.7774],[-84.2563,35.7786],[-84.2533,35.7805],[-84.2513,35.7815],[-84.25,35.7789],[-84.2507,35.7767],[-84.2527,35.7737],[-84.2533,35.7711],[-84.2537,35.769],[-84.254,35.7663],[-84.2554,35.7643],[-84.2588,35.7641],[-84.2621,35.7623],[-84.2646,35.76],[-84.2649,35.7572],[-84.2643,35.7549],[-84.2646,35.7526],[-84.2679,35.752],[-84.2701,35.7527],[-84.2702,35.7529]],[[-84.2573,35.7709],[-84.255,35.7705],[-84.2572,35.7722],[-84.2573,35.7709]]],[[[-84.2879,35.6811],[-84.2859,35.6807],[-84.2847,35.6782],[-84.2839,35.6762],[-84.2817,35.6767],[-84.2822,35.679],[-84.2827,35.6811],[-84.283,35.6834],[-84.2815,35.6813],[-84.2803,35.6793],[-84.2794,35.6772],[-84.2772,35.6761],[-84.2751,35.6778],[-84.273,35.6764],[-84.2706,35.6757],[-84.2728,35.674],[-84.2749,35.6749],[-84.2773,35.6748],[-84.2794,35.6748],[-84.2814,35.6747],[-84.2836,35.6748],[-84.2859,35.6748],[-84.2861,35.6777],[-84.2874,35.6798],[-84.2879,35.6811]]],[[[-84.29,35.6577],[-84.2879,35.6559],[-84.2858,35.6566],[-84.2838,35.6572],[-84.2838,35.6596],[-84.2818,35.6613],[-84.2808,35.6634],[-84.2796,35.6654],[-84.2774,35.6634],[-84.2753,35.6654],[-84.2732,35.6645],[-84.2712,35.6627],[-84.2722,35.6649],[-84.2717,35.6669],[-84.2701,35.669],[-84.2713,35.671],[-84.2722,35.6732],[-84.27,35.6739],[-84.2693,35.6717],[-84.2671,35.671],[-84.2648,35.6712],[-84.2625,35.6712],[-84.2604,35.6709],[-84.2583,35.6713],[-84.256,35.6716],[-84.2536,35.6721],[-84.2514,35.6727],[-84.2488,35.6739],[-84.2472,35.6759],[-84.2489,35.678],[-84.2468,35.6798],[-84.2464,35.6819],[-84.2472,35.6841],[-84.2479,35.6867],[-84.2499,35.6889],[-84.2498,35.6911],[-84.2519,35.6922],[-84.2537,35.6943],[-84.2558,35.6949],[-84.2546,35.6969],[-84.2538,35.699],[-84.2559,35.7006],[-84.2578,35.7031],[-84.2601,35.7042],[-84.2613,35.7063],[-84.2593,35.706],[-84.2573,35.7048],[-84.2553,35.704],[-84.2537,35.7065],[-84.2538,35.7086],[-84.2529,35.7109],[-84.2549,35.7119],[-84.257,35.7114],[-84.2594,35.7132],[-84.2614,35.7151],[-84.2593,35.7153],[-84.2572,35.7147],[-84.2552,35.714],[-84.2531,35.7144],[-84.253,35.7167],[-84.2552,35.7185],[-84.2545,35.7206],[-84.2521,35.7186],[-84.2518,35.7166],[-84.2498,35.7175],[-84.249,35.7196],[-84.2479,35.722],[-84.2484,35.724],[-84.2474,35.7261],[-84.2488,35.7282],[-84.2498,35.7304],[-84.2505,35.7325],[-84.2525,35.7322],[-84.2538,35.73],[-84.256,35.7302],[-84.2579,35.7282],[-84.2603,35.7279],[-84.2582,35.7298],[-84.2574,35.7318],[-84.2552,35.7331],[-84.2573,35.7345],[-84.2551,35.7362],[-84.2536,35.7391],[-84.2558,35.7403],[-84.2561,35.7426],[-84.2581,35.743],[-84.2602,35.7418],[-84.2601,35.7396],[-84.2625,35.741],[-84.2625,35.739],[-84.264,35.737],[-84.2662,35.735],[-84.2682,35.7345],[-84.2703,35.7332],[-84.2697,35.7353],[-84.2677,35.7362],[-84.2681,35.7383],[-84.2661,35.7382],[-84.2644,35.7402],[-84.2625,35.7424],[-84.2616,35.7445],[-84.2637,35.7457],[-84.2634,35.7477],[-84.2637,35.75],[-84.2658,35.7502],[-84.2679,35.7508],[-84.2659,35.7523],[-84.2643,35.7546],[-84.2649,35.7572],[-84.2651,35.7594],[-84.2621,35.7623],[-84.2588,35.7641],[-84.2554,35.7643],[-84.254,35.7663],[-84.254,35.7683],[-84.2533,35.7708],[-84.2532,35.773],[-84.2515,35.7755],[-84.25,35.7778],[-84.2477,35.7777],[-84.2457,35.7789],[-84.2434,35.7808],[-84.2436,35.7783],[-84.2459,35.7766],[-84.2464,35.7745],[-84.2442,35.775],[-84.2421,35.7746],[-84.2415,35.7725],[-84.2437,35.7715],[-84.2427,35.7695],[-84.2404,35.7685],[-84.2405,35.7657],[-84.2381,35.7651],[-84.2399,35.7631],[-84.2421,35.762],[-84.2424,35.7598],[-84.2402,35.7582],[-84.2381,35.7568],[-84.2402,35.7569],[-84.2425,35.7583],[-84.2446,35.7588],[-84.2466,35.7573],[-84.2487,35.7562],[-84.2509,35.7552],[-84.2529,35.7544],[-84.2549,35.7551],[-84.2569,35.7573],[-84.2557,35.7595],[-84.2594,35.7578],[-84.2615,35.7591],[-84.2614,35.7569],[-84.2604,35.7548],[-84.2584,35.7527],[-84.2564,35.7536],[-84.2542,35.752],[-84.2564,35.7516],[-84.2553,35.7496],[-84.2532,35.7495],[-84.2512,35.7499],[-84.2533,35.7486],[-84.2521,35.7464],[-84.25,35.7445],[-84.2484,35.7465],[-84.2487,35.7444],[-84.2484,35.7422],[-84.2462,35.7437],[-84.2466,35.7415],[-84.2478,35.7394],[-84.2458,35.7387],[-84.2434,35.7397],[-84.2411,35.7414],[-84.2404,35.7394],[-84.2424,35.7393],[-84.2448,35.738],[-84.2459,35.7357],[-84.2434,35.7354],[-84.241,35.7353],[-84.239,35.734],[-84.2367,35.7319],[-84.2347,35.7317],[-84.2326,35.7323],[-84.2341,35.7303],[-84.2322,35.7283],[-84.2344,35.7293],[-84.2365,35.7304],[-84.2385,35.7313],[-84.2406,35.7327],[-84.2427,35.7338],[-84.2448,35.7337],[-84.2442,35.7314],[-84.2439,35.7293],[-84.2415,35.728],[-84.2432,35.7257],[-84.2431,35.7235],[-84.2435,35.7215],[-84.2426,35.7194],[-84.2448,35.7188],[-84.2456,35.7167],[-84.2462,35.7147],[-84.2441,35.7135],[-84.2419,35.7132],[-84.2398,35.7135],[-84.2374,35.7134],[-84.2368,35.7114],[-84.2345,35.7097],[-84.2365,35.7102],[-84.2386,35.711],[-84.2407,35.7115],[-84.243,35.7116],[-84.2452,35.7112],[-84.2475,35.711],[-84.2483,35.7088],[-84.247,35.7067],[-84.2478,35.7047],[-84.2485,35.7026],[-84.2463,35.7022],[-84.2475,35.7001],[-84.2454,35.6985],[-84.2431,35.6982],[-84.2452,35.6977],[-84.2463,35.6955],[-84.2453,35.6929],[-84.2451,35.6909],[-84.2437,35.6886],[-84.2415,35.6866],[-84.2421,35.6845],[-84.2419,35.6823],[-84.2398,35.6826],[-84.2371,35.6817],[-84.2396,35.6808],[-84.2416,35.6811],[-84.24,35.679],[-84.2399,35.6768],[-84.2377,35.676],[-84.2357,35.676],[-84.2335,35.6755],[-84.2315,35.676],[-84.2317,35.6737],[-84.2335,35.6712],[-84.2342,35.6691],[-84.2362,35.6702],[-84.2382,35.6706],[-84.2359,35.6725],[-84.2381,35.6738],[-84.2402,35.674],[-84.2422,35.6734],[-84.244,35.6714],[-84.2461,35.67],[-84.2481,35.6689],[-84.2457,35.6672],[-84.2437,35.6692],[-84.2415,35.6709],[-84.2395,35.6707],[-84.2415,35.6692],[-84.2413,35.6672],[-84.2434,35.6673],[-84.2455,35.6655],[-84.2435,35.6638],[-84.2414,35.6627],[-84.2435,35.6629],[-84.2456,35.6623],[-84.2436,35.6606],[-84.2416,35.6618],[-84.2396,35.663],[-84.2417,35.6613],[-84.2424,35.6592],[-84.2402,35.6583],[-84.2381,35.6578],[-84.2359,35.6566],[-84.2338,35.6559],[-84.2317,35.6574],[-84.2296,35.6579],[-84.2317,35.6568],[-84.2337,35.6555],[-84.2316,35.6541],[-84.2296,35.6546],[-84.2275,35.6546],[-84.2264,35.6567],[-84.2243,35.6585],[-84.2258,35.6565],[-84.2238,35.6558],[-84.2258,35.6544],[-84.228,35.6529],[-84.2305,35.6515],[-84.2317,35.6491],[-84.2312,35.647],[-84.231,35.6448],[-84.2323,35.6427],[-84.2321,35.6407],[-84.2341,35.6392],[-84.2325,35.6372],[-84.2349,35.6369],[-84.237,35.6363],[-84.2361,35.6341],[-84.2381,35.6345],[-84.2402,35.6341],[-84.2409,35.632],[-84.2436,35.6325],[-84.2457,35.6307],[-84.2471,35.6284],[-84.2476,35.6252],[-84.2475,35.6232],[-84.2495,35.6212],[-84.2497,35.6192],[-84.2476,35.6184],[-84.2455,35.6183],[-84.2434,35.6188],[-84.2413,35.6196],[-84.2387,35.6206],[-84.2366,35.6214],[-84.2345,35.6223],[-84.2327,35.6244],[-84.2318,35.6224],[-84.2296,35.6232],[-84.2276,35.6246],[-84.2255,35.6252],[-84.2228,35.6251],[-84.2204,35.625],[-84.2198,35.6228],[-84.2177,35.6224],[-84.2198,35.6211],[-84.2218,35.6216],[-84.224,35.6208],[-84.222,35.6193],[-84.2218,35.6172],[-84.2198,35.6165],[-84.2177,35.6176],[-84.2203,35.6155],[-84.2227,35.6168],[-84.2244,35.6188],[-84.2265,35.6209],[-84.2295,35.6224],[-84.2319,35.622],[-84.2349,35.6216],[-84.2381,35.6203],[-84.2403,35.6193],[-84.2425,35.6184],[-84.2451,35.6176],[-84.2479,35.6172],[-84.2499,35.6172],[-84.2522,35.6175],[-84.2542,35.6195],[-84.2545,35.6218],[-84.2543,35.6247],[-84.2533,35.6276],[-84.252,35.6302],[-84.2499,35.6315],[-84.2476,35.6338],[-84.2499,35.6347],[-84.2478,35.6352],[-84.2457,35.6361],[-84.2436,35.6372],[-84.2415,35.6385],[-84.2394,35.6396],[-84.2377,35.6418],[-84.237,35.6444],[-84.2384,35.6465],[-84.2366,35.6486],[-84.2389,35.6493],[-84.2388,35.6515],[-84.2401,35.6539],[-84.2421,35.6556],[-84.2441,35.6563],[-84.2461,35.6558],[-84.2483,35.6567],[-84.25,35.6536],[-84.2513,35.6516],[-84.2518,35.6536],[-84.2526,35.6556],[-84.2546,35.6567],[-84.2567,35.6558],[-84.2585,35.6533],[-84.2601,35.6512],[-84.2611,35.6491],[-84.2632,35.6482],[-84.2653,35.648],[-84.2633,35.649],[-84.2608,35.6515],[-84.2602,35.6536],[-84.2607,35.6557],[-84.2628,35.6556],[-84.2648,35.6549],[-84.2669,35.6542],[-84.2651,35.6562],[-84.2628,35.6573],[-84.262,35.6594],[-84.2643,35.6579],[-84.2665,35.6571],[-84.2672,35.6593],[-84.2652,35.6596],[-84.2636,35.6616],[-84.265,35.6638],[-84.267,35.6659],[-84.269,35.6659],[-84.2689,35.6639],[-84.2694,35.6619],[-84.2714,35.6604],[-84.2733,35.6625],[-84.2754,35.6614],[-84.2776,35.6617],[-84.2799,35.6597],[-84.282,35.6591],[-84.2827,35.6569],[-84.2849,35.6575],[-84.2871,35.6555],[-84.2892,35.6571],[-84.29,35.6577]],[[-84.26,35.6643],[-84.2573,35.6628],[-84.2552,35.6629],[-84.2532,35.6631],[-84.2511,35.6631],[-84.249,35.6639],[-84.2506,35.6659],[-84.253,35.667],[-84.2555,35.6669],[-84.2575,35.6667],[-84.2595,35.6654],[-84.26,35.6643]]],[[[-84.2186,35.6157],[-84.2166,35.6164],[-84.2146,35.6171],[-84.2124,35.6178],[-84.2103,35.6182],[-84.2127,35.6168],[-84.2152,35.616],[-84.2175,35.6157],[-84.2186,35.6157]]],[[[-84.2508,35.4664],[-84.2486,35.4651],[-84.2463,35.4654],[-84.2442,35.4654],[-84.2419,35.4658],[-84.2414,35.468],[-84.2421,35.4702],[-84.2425,35.4723],[-84.2433,35.4743],[-84.2458,35.4753],[-84.2478,35.4741],[-84.2478,35.4763],[-84.2482,35.4783],[-84.2462,35.4804],[-84.2442,35.4814],[-84.2422,35.4807],[-84.2405,35.4828],[-84.2405,35.485],[-84.2426,35.4855],[-84.2447,35.4868],[-84.2467,35.4868],[-84.2452,35.489],[-84.2472,35.4911],[-84.2493,35.4911],[-84.2499,35.4933],[-84.2493,35.4955],[-84.247,35.4958],[-84.245,35.4965],[-84.247,35.4985],[-84.2477,35.5005],[-84.2455,35.5011],[-84.2435,35.5009],[-84.2457,35.5009],[-84.2446,35.4988],[-84.2435,35.4966],[-84.2456,35.4946],[-84.2479,35.4949],[-84.2475,35.4927],[-84.2452,35.4922],[-84.243,35.4927],[-84.2405,35.4942],[-84.2428,35.4923],[-84.244,35.4902],[-84.2434,35.4879],[-84.2409,35.4863],[-84.2388,35.4854],[-84.2386,35.4834],[-84.2364,35.4823],[-84.235,35.4803],[-84.2371,35.4818],[-84.2393,35.4819],[-84.2416,35.48],[-84.2439,35.4803],[-84.2459,35.4793],[-84.2462,35.4773],[-84.2442,35.4763],[-84.2422,35.4746],[-84.241,35.4723],[-84.2405,35.4702],[-84.2399,35.4677],[-84.2406,35.4656],[-84.2427,35.4648],[-84.2449,35.4649],[-84.2471,35.4648],[-84.2493,35.4646],[-84.2508,35.4664]]],[[[-84.1979,35.5498],[-84.1957,35.5511],[-84.1972,35.549],[-84.1979,35.5498]]],[[[-84.2734,35.4578],[-84.2714,35.4599],[-84.267,35.4615],[-84.2649,35.4627],[-84.2624,35.4605],[-84.2601,35.4587],[-84.2574,35.4588],[-84.2561,35.4612],[-84.2543,35.4634],[-84.2519,35.4647],[-84.2515,35.4667],[-84.2502,35.4634],[-84.2528,35.464],[-84.2548,35.4613],[-84.2558,35.4592],[-84.258,35.4582],[-84.26,35.4583],[-84.2622,35.46],[-84.2651,35.4614],[-84.2689,35.4602],[-84.2728,35.4584],[-84.2697,35.456],[-84.2718,35.4564],[-84.2734,35.4578]]],[[[-84.2913,35.346],[-84.289,35.3474],[-84.2869,35.348],[-84.2848,35.3472],[-84.2869,35.3464],[-84.2889,35.3462],[-84.291,35.346],[-84.2913,35.346]]],[[[-84.2696,35.4556],[-84.2676,35.4543],[-84.267,35.4516],[-84.2648,35.4502],[-84.2626,35.4516],[-84.2606,35.45],[-84.2615,35.4477],[-84.2615,35.4455],[-84.2628,35.4426],[-84.2628,35.4404],[-84.262,35.4383],[-84.2621,35.4359],[-84.2629,35.4389],[-84.2635,35.4424],[-84.263,35.4447],[-84.2628,35.447],[-84.2612,35.4496],[-84.2638,35.45],[-84.2663,35.4497],[-84.2684,35.4522],[-84.2685,35.4544],[-84.2696,35.4556]]],[[[-84.1629,35.5786],[-84.1608,35.5791],[-84.1606,35.5811],[-84.1594,35.5833],[-84.1589,35.5811],[-84.1596,35.579],[-84.1586,35.577],[-84.1609,35.5759],[-84.1609,35.5779],[-84.1629,35.5785],[-84.1629,35.5786]]],[[[-84.1699,35.5427],[-84.1677,35.5446],[-84.1656,35.5434],[-84.1662,35.5413],[-84.1675,35.5392],[-84.1666,35.5414],[-84.1665,35.5434],[-84.1685,35.5435],[-84.1699,35.5427]]],[[[-84.2614,35.5878],[-84.2599,35.59],[-84.2597,35.592],[-84.2576,35.5933],[-84.2551,35.595],[-84.2564,35.597],[-84.2542,35.5974],[-84.252,35.5975],[-84.2499,35.5981],[-84.2499,35.6001],[-84.251,35.6022],[-84.2498,35.6042],[-84.2478,35.6054],[-84.2499,35.6059],[-84.2524,35.604],[-84.2527,35.6063],[-84.2506,35.6081],[-84.2498,35.6101],[-84.2518,35.6091],[-84.2513,35.6111],[-84.2497,35.6132],[-84.2517,35.6138],[-84.2541,35.6147],[-84.2562,35.6143],[-84.2584,35.614],[-84.2563,35.6155],[-84.2542,35.6159],[-84.254,35.6183],[-84.2547,35.6203],[-84.255,35.6225],[-84.2542,35.6197],[-84.2528,35.6176],[-84.2505,35.6172],[-84.2479,35.6172],[-84.2451,35.6176],[-84.2425,35.6184],[-84.2403,35.6193],[-84.2381,35.6203],[-84.2361,35.6212],[-84.2333,35.6219],[-84.2306,35.6223],[-84.2284,35.6221],[-84.2252,35.6198],[-84.2235,35.6177],[-84.2215,35.6153],[-84.2193,35.6151],[-84.2163,35.6158],[-84.2143,35.6161],[-84.2165,35.6147],[-84.2155,35.6126],[-84.2171,35.6106],[-84.2151,35.611],[-84.2129,35.6101],[-84.2107,35.6113],[-84.2087,35.6117],[-84.2067,35.6134],[-84.2045,35.6137],[-84.2025,35.6149],[-84.2004,35.6157],[-84.2021,35.6137],[-84.2042,35.6121],[-84.2062,35.6104],[-84.2083,35.6088],[-84.2105,35.6069],[-84.2121,35.6049],[-84.21,35.604],[-84.2079,35.6034],[-84.2072,35.6013],[-84.2073,35.5991],[-84.2051,35.5995],[-84.2028,35.5997],[-84.2031,35.6017],[-84.2019,35.6038],[-84.1997,35.604],[-84.1991,35.6061],[-84.2004,35.6083],[-84.1981,35.6089],[-84.196,35.6106],[-84.1944,35.6127],[-84.1922,35.6136],[-84.1905,35.6115],[-84.1884,35.6107],[-84.1906,35.6108],[-84.1926,35.611],[-84.1942,35.609],[-84.1963,35.6086],[-84.1961,35.6066],[-84.1947,35.6043],[-84.1969,35.6059],[-84.1987,35.6039],[-84.2007,35.6023],[-84.2009,35.6002],[-84.1993,35.5982],[-84.1969,35.5974],[-84.1945,35.5957],[-84.1923,35.5937],[-84.1902,35.5918],[-84.1882,35.5897],[-84.1867,35.5875],[-84.1843,35.586],[-84.1853,35.5839],[-84.1836,35.5819],[-84.1821,35.5799],[-84.1801,35.5796],[-84.1779,35.5806],[-84.1758,35.5811],[-84.1778,35.5802],[-84.1799,35.5785],[-84.1778,35.5765],[-84.1756,35.5761],[-84.1736,35.5758],[-84.1715,35.5755],[-84.1695,35.5751],[-84.1671,35.5749],[-84.1651,35.5745],[-84.1627,35.5732],[-84.1615,35.5752],[-84.1595,35.5751],[-84.1593,35.5731],[-84.1586,35.5711],[-84.1566,35.5717],[-84.1557,35.5737],[-84.1537,35.5742],[-84.1516,35.5751],[-84.1495,35.5766],[-84.1475,35.5779],[-84.1454,35.5791],[-84.147,35.577],[-84.1491,35.5755],[-84.1513,35.5741],[-84.1533,35.5728],[-84.1554,35.5712],[-84.1575,35.5696],[-84.1586,35.5675],[-84.1565,35.5654],[-84.1544,35.5648],[-84.1541,35.5627],[-84.152,35.5634],[-84.1515,35.5613],[-84.1494,35.5614],[-84.1497,35.5592],[-84.1476,35.5581],[-84.1478,35.5561],[-84.1473,35.554],[-84.1469,35.5518],[-84.1459,35.5498],[-84.1436,35.5486],[-84.1414,35.5471],[-84.1393,35.5482],[-84.1374,35.5502],[-84.1376,35.5526],[-84.1385,35.5547],[-84.1391,35.5567],[-84.1407,35.5588],[-84.1428,35.5606],[-84.1436,35.5627],[-84.1435,35.5652],[-84.1426,35.5672],[-84.1406,35.5687],[-84.1396,35.5707],[-84.1372,35.571],[-84.1352,35.571],[-84.1327,35.5712],[-84.1307,35.5724],[-84.1291,35.5703],[-84.127,35.5694],[-84.125,35.5688],[-84.1223,35.5686],[-84.1202,35.5688],[-84.118,35.5686],[-84.1158,35.5674],[-84.1135,35.5664],[-84.1114,35.5657],[-84.1109,35.5677],[-84.1073,35.5667],[-84.1096,35.5673],[-84.1084,35.5652],[-84.1058,35.5636],[-84.108,35.5646],[-84.1103,35.5649],[-84.1123,35.5653],[-84.1146,35.5663],[-84.1168,35.5673],[-84.1189,35.5685],[-84.1166,35.5667],[-84.1145,35.565],[-84.1129,35.5629],[-84.1104,35.5608],[-84.108,35.5584],[-84.1059,35.558],[-84.1036,35.558],[-84.1013,35.5574],[-84.0984,35.5563],[-84.096,35.5552],[-84.0937,35.5524],[-84.0917,35.5502],[-84.09,35.5468],[-84.0892,35.5445],[-84.0868,35.5421],[-84.0845,35.5412],[-84.0816,35.5412],[-84.078,35.5433],[-84.0753,35.5443],[-84.0728,35.545],[-84.0704,35.546],[-84.0681,35.5464],[-84.0649,35.5461],[-84.0627,35.5458],[-84.0606,35.5456],[-84.0572,35.5458],[-84.0541,35.5463],[-84.0518,35.5464],[-84.0547,35.5454],[-84.0571,35.5448],[-84.0596,35.5445],[-84.0626,35.5448],[-84.0647,35.5453],[-84.0676,35.5456],[-84.0705,35.5451],[-84.0736,35.5435],[-84.0714,35.5433],[-84.0736,35.5416],[-84.0758,35.5411],[-84.0782,35.5406],[-84.0808,35.5397],[-84.0835,35.5394],[-84.0855,35.5394],[-84.0877,35.5406],[-84.0893,35.5427],[-84.0913,35.5434],[-84.0899,35.5413],[-84.0919,35.5413],[-84.0892,35.5401],[-84.0869,35.5393],[-84.0848,35.5393],[-84.0869,35.5391],[-84.0893,35.5396],[-84.0914,35.5404],[-84.0938,35.542],[-84.096,35.5409],[-84.095,35.5388],[-84.0983,35.5379],[-84.1007,35.5413],[-84.0989,35.5434],[-84.101,35.5449],[-84.1023,35.5475],[-84.1037,35.5495],[-84.1053,35.5516],[-84.1074,35.5537],[-84.1095,35.5539],[-84.1117,35.5539],[-84.1138,35.555],[-84.1159,35.5544],[-84.1164,35.5569],[-84.1188,35.5595],[-84.121,35.562],[-84.1222,35.5641],[-84.1244,35.5651],[-84.1268,35.5654],[-84.1288,35.5655],[-84.1296,35.5634],[-84.1307,35.5654],[-84.1328,35.5662],[-84.1348,35.5662],[-84.1368,35.5665],[-84.1392,35.565],[-84.1399,35.5628],[-84.1376,35.5605],[-84.1355,35.5592],[-84.1335,35.5576],[-84.1319,35.5555],[-84.1317,35.5576],[-84.1297,35.5576],[-84.1276,35.5561],[-84.126,35.5539],[-84.1264,35.5518],[-84.1275,35.5498],[-84.1276,35.5477],[-84.1296,35.5457],[-84.1326,35.543],[-84.1347,35.5415],[-84.1379,35.5413],[-84.14,35.5416],[-84.1422,35.5424],[-84.1443,35.5419],[-84.1463,35.543],[-84.1477,35.5451],[-84.15,35.5451],[-84.1494,35.5473],[-84.1504,35.5498],[-84.1508,35.5518],[-84.1501,35.5539],[-84.1522,35.5552],[-84.1542,35.5542],[-84.1521,35.5559],[-84.1543,35.5574],[-84.1558,35.5594],[-84.158,35.5596],[-84.1602,35.5596],[-84.1622,35.5584],[-84.1625,35.5605],[-84.1645,35.5613],[-84.1667,35.5619],[-84.1688,35.5618],[-84.171,35.5615],[-84.1732,35.5612],[-84.1712,35.5591],[-84.1691,35.559],[-84.1698,35.557],[-84.1689,35.5549],[-84.1679,35.5529],[-84.1687,35.5508],[-84.1666,35.5497],[-84.1645,35.5509],[-84.1624,35.5497],[-84.1607,35.5476],[-84.1594,35.5456],[-84.1574,35.5436],[-84.1546,35.5358],[-84.1567,35.5381],[-84.1583,35.5402],[-84.1583,35.5422],[-84.1594,35.5443],[-84.1603,35.5464],[-84.1624,35.5482],[-84.1645,35.5495],[-84.1667,35.5479],[-84.1674,35.5459],[-84.1694,35.5469],[-84.1714,35.5457],[-84.1694,35.5477],[-84.1703,35.5498],[-84.1697,35.5519],[-84.1717,35.5521],[-84.1737,35.5508],[-84.1722,35.5528],[-84.1728,35.5551],[-84.175,35.5569],[-84.1777,35.5563],[-84.1799,35.5545],[-84.182,35.5533],[-84.1843,35.5536],[-84.181,35.5558],[-84.1832,35.5579],[-84.1854,35.5589],[-84.1871,35.561],[-84.1891,35.5614],[-84.1912,35.5608],[-84.1891,35.5626],[-84.1907,35.5649],[-84.1928,35.5639],[-84.1912,35.566],[-84.1933,35.5676],[-84.1938,35.5655],[-84.1958,35.5661],[-84.1979,35.5675],[-84.1985,35.5696],[-84.1965,35.5699],[-84.1985,35.5709],[-84.198,35.5729],[-84.197,35.5749],[-84.1963,35.5771],[-84.1943,35.5788],[-84.1925,35.5808],[-84.1911,35.5828],[-84.1904,35.5849],[-84.192,35.587],[-84.1941,35.587],[-84.1964,35.5868],[-84.1985,35.5878],[-84.2012,35.5875],[-84.2037,35.5847],[-84.2056,35.5815],[-84.2064,35.579],[-84.2085,35.5793],[-84.2113,35.5795],[-84.2088,35.5782],[-84.2109,35.5762],[-84.213,35.5752],[-84.2152,35.5746],[-84.2176,35.5742],[-84.2197,35.5742],[-84.2194,35.5722],[-84.2223,35.5707],[-84.2244,35.5697],[-84.2262,35.5676],[-84.2245,35.5656],[-84.2241,35.5635],[-84.222,35.5632],[-84.224,35.5617],[-84.2217,35.5599],[-84.2197,35.5608],[-84.2176,35.5603],[-84.2156,35.5595],[-84.2135,35.5613],[-84.2115,35.5612],[-84.2094,35.5602],[-84.2116,35.5599],[-84.213,35.5578],[-84.2141,35.5558],[-84.2121,35.556],[-84.2129,35.554],[-84.2107,35.5542],[-84.2113,35.552],[-84.2112,35.5499],[-84.2092,35.5513],[-84.2071,35.5533],[-84.2086,35.5512],[-84.2091,35.5492],[-84.21,35.547],[-84.2095,35.5449],[-84.2083,35.5469],[-84.2064,35.549],[-84.2043,35.5478],[-84.2025,35.5498],[-84.2005,35.5489],[-84.1984,35.5472],[-84.1969,35.5452],[-84.199,35.5469],[-84.201,35.5477],[-84.2031,35.5469],[-84.2055,35.5463],[-84.2075,35.5447],[-84.2082,35.5427],[-84.2061,35.5434],[-84.208,35.5414],[-84.2058,35.5401],[-84.2038,35.5405],[-84.2052,35.5384],[-84.2031,35.5376],[-84.2012,35.5355],[-84.199,35.5372],[-84.197,35.5369],[-84.199,35.5369],[-84.2008,35.5348],[-84.2015,35.5327],[-84.2005,35.5307],[-84.2004,35.5284],[-84.2025,35.5303],[-84.2056,35.5283],[-84.207,35.5262],[-84.205,35.5249],[-84.2025,35.5231],[-84.2004,35.5232],[-84.198,35.5233],[-84.1955,35.5243],[-84.1977,35.5231],[-84.1978,35.5207],[-84.1954,35.5189],[-84.1934,35.5199],[-84.1912,35.5206],[-84.189,35.5189],[-84.1868,35.5196],[-84.1891,35.5186],[-84.1917,35.5196],[-84.1942,35.5185],[-84.1938,35.5165],[-84.1925,35.5145],[-84.1905,35.5127],[-84.1884,35.5105],[-84.1862,35.5091],[-84.1883,35.5078],[-84.1871,35.5058],[-84.1856,35.5036],[-84.1834,35.5022],[-84.1814,35.5007],[-84.1811,35.4987],[-84.1832,35.5005],[-84.1854,35.5012],[-84.1875,35.5027],[-84.1896,35.5043],[-84.1916,35.506],[-84.1925,35.508],[-84.192,35.5102],[-84.1931,35.5122],[-84.1952,35.5141],[-84.1973,35.5139],[-84.1995,35.5129],[-84.1974,35.5144],[-84.1971,35.5165],[-84.1991,35.5175],[-84.1995,35.5195],[-84.2015,35.5213],[-84.2024,35.5192],[-84.2028,35.5212],[-84.2048,35.5225],[-84.2069,35.5231],[-84.2086,35.521],[-84.2107,35.5195],[-84.212,35.5174],[-84.21,35.5161],[-84.2094,35.514],[-84.2073,35.5136],[-84.2073,35.5116],[-84.2093,35.5124],[-84.2113,35.5123],[-84.2133,35.511],[-84.2154,35.5101],[-84.2175,35.5095],[-84.2196,35.5075],[-84.2193,35.5055],[-84.2172,35.504],[-84.2156,35.5019],[-84.2135,35.5015],[-84.2115,35.5005],[-84.2093,35.4998],[-84.207,35.4978],[-84.2091,35.4982],[-84.2113,35.4996],[-84.2134,35.4999],[-84.2157,35.4997],[-84.2166,35.4975],[-84.2161,35.4954],[-84.2191,35.4947],[-84.2176,35.4967],[-84.2169,35.4989],[-84.2169,35.5009],[-84.2181,35.5031],[-84.2202,35.5038],[-84.2222,35.5027],[-84.2245,35.5017],[-84.2224,35.5034],[-84.2214,35.5054],[-84.2221,35.5075],[-84.2199,35.5092],[-84.2192,35.5114],[-84.2213,35.5124],[-84.2234,35.514],[-84.2249,35.5119],[-84.2269,35.51],[-84.2289,35.5085],[-84.2311,35.51],[-84.2332,35.5085],[-84.2349,35.5064],[-84.2369,35.5062],[-84.239,35.507],[-84.2406,35.509],[-84.242,35.5068],[-84.2432,35.5047],[-84.2455,35.5037],[-84.2469,35.5016],[-84.2449,35.5013],[-84.2469,35.5008],[-84.2483,35.5031],[-84.2461,35.5048],[-84.2438,35.5068],[-84.2426,35.5089],[-84.2447,35.5092],[-84.2427,35.5102],[-84.2409,35.5123],[-84.2393,35.5103],[-84.2381,35.5082],[-84.236,35.5073],[-84.2348,35.5093],[-84.2325,35.5109],[-84.23,35.512],[-84.2279,35.5122],[-84.2279,35.5145],[-84.2291,35.5168],[-84.2313,35.5166],[-84.2337,35.5162],[-84.2325,35.5183],[-84.2303,35.5178],[-84.2281,35.5163],[-84.2261,35.5152],[-84.2241,35.5171],[-84.2219,35.5167],[-84.2199,35.5164],[-84.2197,35.5142],[-84.2179,35.5121],[-84.2156,35.5112],[-84.2135,35.5124],[-84.2134,35.5144],[-84.2133,35.5165],[-84.2132,35.519],[-84.2113,35.521],[-84.2099,35.5231],[-84.2093,35.5251],[-84.2115,35.5272],[-84.2139,35.5283],[-84.2161,35.5281],[-84.2185,35.527],[-84.2161,35.5288],[-84.2141,35.5288],[-84.2119,35.5284],[-84.2096,35.5276],[-84.2076,35.529],[-84.2055,35.5302],[-84.205,35.5323],[-84.2071,35.5331],[-84.2092,35.5335],[-84.2112,35.5323],[-84.2092,35.5343],[-84.2072,35.5339],[-84.2051,35.5339],[-84.2052,35.5362],[-84.2073,35.5361],[-84.2079,35.5382],[-84.21,35.5376],[-84.2121,35.5381],[-84.21,35.5388],[-84.2103,35.5408],[-84.2117,35.5429],[-84.2137,35.5428],[-84.2131,35.5448],[-84.2152,35.5453],[-84.2173,35.5451],[-84.2193,35.5455],[-84.2173,35.5459],[-84.2175,35.548],[-84.2154,35.5473],[-84.2175,35.5493],[-84.2197,35.5492],[-84.2176,35.5499],[-84.2196,35.5519],[-84.2218,35.5514],[-84.2224,35.5494],[-84.2204,35.549],[-84.2221,35.547],[-84.2242,35.5473],[-84.2229,35.5453],[-84.225,35.5447],[-84.2241,35.5427],[-84.2262,35.5446],[-84.2282,35.5434],[-84.2279,35.5414],[-84.2279,35.5392],[-84.2296,35.5413],[-84.2318,35.5409],[-84.2323,35.5389],[-84.2317,35.5368],[-84.2338,35.5354],[-84.2352,35.5333],[-84.2376,35.5335],[-84.2391,35.5315],[-84.2411,35.5297],[-84.2428,35.5277],[-84.2448,35.5265],[-84.2469,35.5262],[-84.2486,35.5241],[-84.2504,35.5219],[-84.2527,35.5222],[-84.2547,35.5221],[-84.255,35.5241],[-84.2528,35.5244],[-84.2507,35.5256],[-84.2486,35.5268],[-84.2466,35.5283],[-84.2446,35.5299],[-84.2425,35.5315],[-84.241,35.5336],[-84.2389,35.5351],[-84.2391,35.5372],[-84.24,35.5392],[-84.2386,35.5364],[-84.2351,35.5371],[-84.2362,35.5393],[-84.2364,35.5416],[-84.2367,35.5439],[-84.2351,35.546],[-84.233,35.5444],[-84.2318,35.5465],[-84.2318,35.5485],[-84.2298,35.5491],[-84.2277,35.5503],[-84.2281,35.5523],[-84.2269,35.5544],[-84.2252,35.5564],[-84.226,35.5584],[-84.228,35.5592],[-84.2303,35.5577],[-84.2325,35.5568],[-84.2346,35.5569],[-84.2362,35.5548],[-84.2383,35.554],[-84.2405,35.5528],[-84.2427,35.5519],[-84.2448,35.5504],[-84.2468,35.5528],[-84.2443,35.5528],[-84.2419,35.5527],[-84.2399,35.5541],[-84.2378,35.555],[-84.2364,35.5572],[-84.2356,35.5593],[-84.2335,35.5587],[-84.2314,35.5591],[-84.2293,35.56],[-84.2276,35.5622],[-84.2269,35.5643],[-84.2281,35.5664],[-84.2285,35.5685],[-84.2268,35.5706],[-84.2254,35.5727],[-84.2234,35.5739],[-84.2247,35.5759],[-84.2267,35.5754],[-84.2289,35.5737],[-84.2284,35.5758],[-84.2283,35.5778],[-84.2282,35.5798],[-84.2303,35.5795],[-84.2323,35.5786],[-84.2345,35.5774],[-84.2365,35.5759],[-84.2387,35.575],[-84.2408,35.5744],[-84.2429,35.5737],[-84.2449,35.572],[-84.2469,35.5699],[-84.2493,35.5686],[-84.2477,35.5706],[-84.2455,35.5726],[-84.2436,35.5748],[-84.2415,35.5757],[-84.2392,35.5767],[-84.2374,35.5788],[-84.2353,35.5797],[-84.233,35.5814],[-84.2309,35.5821],[-84.2289,35.5844],[-84.2269,35.5866],[-84.2255,35.5888],[-84.2276,35.589],[-84.226,35.5912],[-84.2239,35.5922],[-84.223,35.5943],[-84.222,35.5963],[-84.22,35.5982],[-84.2178,35.5992],[-84.2159,35.6015],[-84.214,35.6035],[-84.2161,35.603],[-84.2182,35.6031],[-84.2188,35.6052],[-84.2193,35.6074],[-84.2208,35.6053],[-84.2228,35.6063],[-84.2209,35.6084],[-84.223,35.6097],[-84.2251,35.6086],[-84.2271,35.6101],[-84.2292,35.6106],[-84.2312,35.6106],[-84.2334,35.6121],[-84.2357,35.6118],[-84.2378,35.6119],[-84.2399,35.6124],[-84.2415,35.6104],[-84.2408,35.6084],[-84.2415,35.6063],[-84.2394,35.6059],[-84.2408,35.6038],[-84.2386,35.6025],[-84.2366,35.6027],[-84.2387,35.6011],[-84.2366,35.5999],[-84.2389,35.5989],[-84.2411,35.5981],[-84.2434,35.5972],[-84.2456,35.5951],[-84.2471,35.593],[-84.245,35.5917],[-84.2471,35.5906],[-84.2489,35.5927],[-84.2509,35.5935],[-84.2531,35.5916],[-84.2554,35.5897],[-84.2576,35.5894],[-84.2589,35.5874],[-84.261,35.5878],[-84.2614,35.5878]],[[-84.2248,35.5869],[-84.2227,35.586],[-84.2206,35.5841],[-84.2204,35.5817],[-84.22,35.5797],[-84.218,35.5776],[-84.2158,35.5776],[-84.2137,35.5787],[-84.2119,35.5811],[-84.2113,35.5831],[-84.2108,35.5854],[-84.2108,35.5874],[-84.2095,35.5895],[-84.2091,35.5915],[-84.2081,35.5936],[-84.2061,35.5952],[-84.204,35.5964],[-84.202,35.596],[-84.204,35.5972],[-84.2062,35.5967],[-84.2082,35.5957],[-84.2097,35.5978],[-84.2093,35.5999],[-84.2103,35.602],[-84.2124,35.6024],[-84.2127,35.6004],[-84.2137,35.5981],[-84.2159,35.5962],[-84.217,35.5941],[-84.2174,35.592],[-84.22,35.5903],[-84.2201,35.5882],[-84.2208,35.5862],[-84.2233,35.5868],[-84.2248,35.5869]],[[-84.2241,35.5787],[-84.2221,35.5773],[-84.2242,35.5788],[-84.2241,35.5787]],[[-84.1158,35.5631],[-84.1146,35.561],[-84.1122,35.559],[-84.1138,35.5612],[-84.1158,35.5632],[-84.1158,35.5631]],[[-84.1036,35.5507],[-84.1026,35.5486],[-84.101,35.5461],[-84.099,35.544],[-84.0986,35.5467],[-84.101,35.5491],[-84.1031,35.5508],[-84.1036,35.5507]],[[-84.0884,35.5421],[-84.0862,35.5399],[-84.0842,35.5398],[-84.0868,35.5411],[-84.0884,35.5421]],[[-84.0833,35.5404],[-84.0809,35.5403],[-84.0786,35.5412],[-84.0766,35.5418],[-84.0749,35.5439],[-84.0772,35.5431],[-84.08,35.5411],[-84.0821,35.5405],[-84.0833,35.5404]]]]}},{"type":"Feature","properties":{"id":"watauga-lake","name":"Watauga Lake","kind":"lake","bounds":[-82.132,36.2954,-81.9285,36.3792],"labelAnchor":[-82.0639,36.3268]},"geometry":{"type":"MultiPolygon","coordinates":[[[[-82.0092,36.3074],[-82.0071,36.3078],[-82.0053,36.3098],[-82.0036,36.3118],[-82.0016,36.3125],[-81.9999,36.3085],[-81.9999,36.3064],[-81.9999,36.3043],[-82.0021,36.3057],[-82.0032,36.3077],[-82.0052,36.3078],[-82.0073,36.3069],[-82.0092,36.3074]]],[[[-82.0051,36.3157],[-82.0031,36.3149],[-82.001,36.315],[-82.003,36.3144],[-82.0053,36.3158],[-82.0051,36.3157]]],[[[-82.132,36.3014],[-82.131,36.3034],[-82.1287,36.3055],[-82.1267,36.3075],[-82.1288,36.3077],[-82.1273,36.3097],[-82.1253,36.3107],[-82.1238,36.3128],[-82.1243,36.3148],[-82.1223,36.3152],[-82.1228,36.3172],[-82.1238,36.3193],[-82.1232,36.3214],[-82.1211,36.3232],[-82.1198,36.3206],[-82.1176,36.3194],[-82.1157,36.3219],[-82.1144,36.3239],[-82.1123,36.3235],[-82.1122,36.3255],[-82.11,36.3268],[-82.108,36.3251],[-82.106,36.3265],[-82.1039,36.3263],[-82.1017,36.3254],[-82.0996,36.3265],[-82.0974,36.326],[-82.0953,36.3272],[-82.0933,36.3283],[-82.0925,36.3304],[-82.0904,36.3319],[-82.0884,36.3311],[-82.0863,36.3318],[-82.0841,36.3321],[-82.0819,36.3324],[-82.0805,36.3345],[-82.0784,36.3334],[-82.0764,36.3333],[-82.0743,36.3331],[-82.0723,36.3333],[-82.0715,36.3355],[-82.0714,36.3376],[-82.0704,36.3355],[-82.0692,36.3376],[-82.0677,36.3355],[-82.0687,36.3335],[-82.0664,36.3341],[-82.0664,36.3361],[-82.0665,36.3383],[-82.0644,36.3386],[-82.0622,36.3378],[-82.063,36.3403],[-82.0636,36.3425],[-82.0615,36.3406],[-82.0595,36.3394],[-82.0579,36.3373],[-82.0559,36.3369],[-82.0537,36.3363],[-82.0541,36.3384],[-82.0562,36.3406],[-82.0584,36.3402],[-82.06,36.3423],[-82.058,36.342],[-82.056,36.342],[-82.0566,36.3441],[-82.0546,36.344],[-82.053,36.346],[-82.0509,36.348],[-82.0489,36.3466],[-82.0469,36.3466],[-82.047,36.3444],[-82.0466,36.3423],[-82.0477,36.3403],[-82.0456,36.341],[-82.0437,36.3431],[-82.0428,36.3451],[-82.0443,36.3472],[-82.0437,36.3492],[-82.0416,36.3508],[-82.042,36.3488],[-82.0426,36.3467],[-82.0409,36.3447],[-82.0388,36.3469],[-82.0394,36.3444],[-82.0421,36.343],[-82.0438,36.3407],[-82.0456,36.3387],[-82.0478,36.337],[-82.0499,36.3352],[-82.052,36.3333],[-82.0495,36.3323],[-82.0474,36.3326],[-82.0453,36.3328],[-82.0431,36.3323],[-82.0411,36.3326],[-82.0389,36.3318],[-82.0362,36.3332],[-82.0342,36.3344],[-82.0347,36.3365],[-82.0325,36.3377],[-82.0324,36.3356],[-82.0302,36.3362],[-82.0305,36.3338],[-82.0285,36.3338],[-82.0259,36.3334],[-82.0237,36.3311],[-82.0216,36.3295],[-82.0195,36.3307],[-82.0166,36.333],[-82.0142,36.3327],[-82.0108,36.3317],[-82.0071,36.3314],[-82.0022,36.3334],[-81.9998,36.3315],[-81.9998,36.3289],[-81.9998,36.3229],[-81.9998,36.3199],[-81.9998,36.317],[-82.0003,36.3191],[-82.0015,36.3214],[-82.0015,36.3234],[-82.0037,36.3245],[-82.0016,36.3266],[-82.0037,36.3272],[-82.0058,36.3273],[-82.008,36.3271],[-82.0091,36.3292],[-82.0113,36.3305],[-82.0124,36.3284],[-82.0131,36.3262],[-82.0131,36.3283],[-82.0152,36.3282],[-82.0171,36.3261],[-82.0154,36.324],[-82.0143,36.3219],[-82.0163,36.3216],[-82.0168,36.3238],[-82.019,36.3238],[-82.0211,36.3231],[-82.0232,36.3227],[-82.0254,36.322],[-82.0233,36.3238],[-82.0212,36.3249],[-82.0192,36.3252],[-82.0186,36.3272],[-82.0207,36.3274],[-82.0233,36.3292],[-82.0253,36.3311],[-82.0274,36.3309],[-82.0296,36.3313],[-82.0317,36.3314],[-82.0341,36.3316],[-82.0352,36.3295],[-82.0372,36.3296],[-82.0393,36.3283],[-82.0414,36.3295],[-82.0431,36.3273],[-82.0453,36.3288],[-82.0473,36.3279],[-82.0489,36.3256],[-82.0506,36.3234],[-82.0499,36.3256],[-82.052,36.3254],[-82.0503,36.3274],[-82.0526,36.329],[-82.0546,36.3294],[-82.0568,36.3298],[-82.0589,36.3307],[-82.0601,36.3286],[-82.0615,36.3266],[-82.0636,36.326],[-82.0658,36.3277],[-82.0678,36.3284],[-82.0681,36.3262],[-82.066,36.3255],[-82.066,36.3234],[-82.064,36.3235],[-82.0647,36.3213],[-82.0668,36.3206],[-82.0684,36.3226],[-82.0704,36.3237],[-82.0725,36.3226],[-82.0745,36.3216],[-82.0749,36.3196],[-82.0735,36.3176],[-82.0721,36.3156],[-82.0732,36.3135],[-82.0751,36.3156],[-82.0759,36.3177],[-82.0775,36.3198],[-82.0773,36.3219],[-82.0795,36.3237],[-82.0815,36.3247],[-82.0823,36.3226],[-82.083,36.3206],[-82.0851,36.3213],[-82.0873,36.3207],[-82.0857,36.3186],[-82.0878,36.3186],[-82.0899,36.3176],[-82.0919,36.3179],[-82.0941,36.3165],[-82.0962,36.3155],[-82.0984,36.3153],[-82.0982,36.3133],[-82.1003,36.3126],[-82.1023,36.3118],[-82.1045,36.3102],[-82.1066,36.3098],[-82.1057,36.3119],[-82.1038,36.314],[-82.1036,36.3161],[-82.1059,36.3145],[-82.1081,36.3132],[-82.1102,36.312],[-82.1123,36.3109],[-82.1144,36.3099],[-82.1137,36.3119],[-82.1158,36.3129],[-82.118,36.3141],[-82.1186,36.3121],[-82.1175,36.3099],[-82.1177,36.3078],[-82.118,36.3055],[-82.12,36.3059],[-82.1221,36.3048],[-82.1242,36.3034],[-82.1262,36.3036],[-82.1283,36.3026],[-82.1304,36.3016],[-82.132,36.3014]],[[-82.0829,36.3281],[-82.0809,36.3276],[-82.0788,36.3276],[-82.0808,36.3287],[-82.0828,36.3284],[-82.0829,36.3281]]],[[[-82.0297,36.3345],[-82.0276,36.3342],[-82.0255,36.3341],[-82.0235,36.3329],[-82.0215,36.3311],[-82.0194,36.3318],[-82.0173,36.3332],[-82.0194,36.3346],[-82.0214,36.3361],[-82.0222,36.3381],[-82.0219,36.3402],[-82.0211,36.3423],[-82.0223,36.3445],[-82.0244,36.3459],[-82.0251,36.348],[-82.027,36.3502],[-82.029,36.3519],[-82.0288,36.354],[-82.0268,36.3555],[-82.028,36.3535],[-82.0266,36.3513],[-82.0252,36.3493],[-82.0231,36.3479],[-82.0209,36.3498],[-82.0189,36.3515],[-82.0168,36.3523],[-82.0147,36.3541],[-82.0164,36.3521],[-82.0184,36.3505],[-82.0195,36.3483],[-82.0211,36.3463],[-82.0204,36.3441],[-82.0183,36.3424],[-82.0163,36.3429],[-82.0142,36.3442],[-82.0161,36.3421],[-82.0162,36.34],[-82.0164,36.338],[-82.0142,36.3393],[-82.0126,36.3413],[-82.0135,36.3392],[-82.015,36.3372],[-82.013,36.3367],[-82.0109,36.3374],[-82.0087,36.339],[-82.0065,36.3407],[-82.0045,36.3407],[-82.0065,36.3397],[-82.0084,36.3377],[-82.0063,36.336],[-82.0043,36.337],[-82.0022,36.3386],[-82,36.3402],[-81.9979,36.342],[-81.9959,36.3433],[-81.9969,36.3453],[-81.9949,36.344],[-81.9929,36.344],[-81.9907,36.3447],[-81.9887,36.3453],[-81.9867,36.3458],[-81.9847,36.3468],[-81.9826,36.3481],[-81.9806,36.3492],[-81.9784,36.3504],[-81.9763,36.3523],[-81.9742,36.3533],[-81.9722,36.3545],[-81.9727,36.3565],[-81.9707,36.3582],[-81.9687,36.3602],[-81.9666,36.3615],[-81.9645,36.3632],[-81.9623,36.3648],[-81.9603,36.3656],[-81.9582,36.3665],[-81.9561,36.3674],[-81.954,36.3689],[-81.9517,36.371],[-81.9497,36.3723],[-81.9477,36.3733],[-81.9456,36.3737],[-81.9435,36.3745],[-81.9429,36.377],[-81.9426,36.3791],[-81.9404,36.3792],[-81.9392,36.3771],[-81.9371,36.3758],[-81.9349,36.3771],[-81.9327,36.3778],[-81.9307,36.3774],[-81.9285,36.3781],[-81.9299,36.3761],[-81.9319,36.375],[-81.934,36.3751],[-81.9362,36.3747],[-81.9385,36.3737],[-81.9405,36.3724],[-81.9426,36.3713],[-81.9447,36.37],[-81.9469,36.3691],[-81.9489,36.3687],[-81.9511,36.3666],[-81.9531,36.3654],[-81.9552,36.3636],[-81.9572,36.3624],[-81.9593,36.3612],[-81.9606,36.3588],[-81.9613,36.3568],[-81.9614,36.3548],[-81.9626,36.3527],[-81.9643,36.3507],[-81.9637,36.3487],[-81.9617,36.3482],[-81.9597,36.3476],[-81.9617,36.3473],[-81.9642,36.3479],[-81.9664,36.3485],[-81.9678,36.3465],[-81.9683,36.3444],[-81.9703,36.344],[-81.9721,36.3419],[-81.9701,36.3403],[-81.9722,36.341],[-81.9743,36.3408],[-81.9764,36.3399],[-81.9786,36.3392],[-81.9811,36.3389],[-81.9788,36.3372],[-81.9767,36.3368],[-81.9775,36.3348],[-81.9773,36.3326],[-81.9784,36.3348],[-81.9804,36.3365],[-81.9825,36.3373],[-81.9846,36.3375],[-81.9867,36.3365],[-81.9865,36.3344],[-81.9889,36.3361],[-81.991,36.3348],[-81.993,36.3333],[-81.9952,36.3321],[-81.9959,36.33],[-81.9938,36.3297],[-81.9916,36.3283],[-81.9896,36.3283],[-81.9875,36.3274],[-81.9896,36.3278],[-81.9917,36.327],[-81.9916,36.325],[-81.9934,36.323],[-81.9925,36.321],[-81.9917,36.3189],[-81.9897,36.3172],[-81.9875,36.3165],[-81.9855,36.3177],[-81.9834,36.3182],[-81.9813,36.3182],[-81.9834,36.3178],[-81.9853,36.3158],[-81.9842,36.3138],[-81.9821,36.3128],[-81.98,36.3134],[-81.978,36.3146],[-81.98,36.3127],[-81.9809,36.3106],[-81.9788,36.3097],[-81.9767,36.3098],[-81.9787,36.3089],[-81.9778,36.3068],[-81.9756,36.3061],[-81.9735,36.3074],[-81.9711,36.3094],[-81.9691,36.3106],[-81.967,36.3115],[-81.9649,36.3122],[-81.9629,36.3127],[-81.9608,36.3128],[-81.9586,36.3124],[-81.9565,36.3131],[-81.9575,36.3151],[-81.9563,36.3172],[-81.9543,36.318],[-81.9523,36.3187],[-81.9502,36.3188],[-81.9481,36.3189],[-81.9457,36.3197],[-81.9435,36.3213],[-81.9413,36.3223],[-81.9392,36.3226],[-81.9413,36.3212],[-81.9433,36.32],[-81.9455,36.3189],[-81.9461,36.3167],[-81.9444,36.3147],[-81.9454,36.3127],[-81.9438,36.3107],[-81.9416,36.3104],[-81.9396,36.3103],[-81.9374,36.3099],[-81.9354,36.3104],[-81.9333,36.3095],[-81.9324,36.3075],[-81.9325,36.3055],[-81.9326,36.3034],[-81.9328,36.3014],[-81.9327,36.2994],[-81.933,36.2973],[-81.931,36.2954],[-81.933,36.2968],[-81.9351,36.298],[-81.9341,36.3001],[-81.9335,36.3022],[-81.934,36.3042],[-81.9353,36.3062],[-81.9374,36.307],[-81.9394,36.3084],[-81.9415,36.3087],[-81.9435,36.3091],[-81.9456,36.3095],[-81.9476,36.311],[-81.9471,36.3131],[-81.9461,36.3151],[-81.9481,36.3157],[-81.9502,36.3151],[-81.9522,36.3127],[-81.9522,36.3107],[-81.9517,36.3086],[-81.9533,36.3107],[-81.9556,36.3108],[-81.9576,36.3103],[-81.9597,36.3097],[-81.9618,36.3095],[-81.9638,36.3092],[-81.9659,36.3086],[-81.968,36.3083],[-81.9689,36.3063],[-81.9709,36.3067],[-81.973,36.3049],[-81.9747,36.3028],[-81.9752,36.3006],[-81.9761,36.3026],[-81.9783,36.3026],[-81.9794,36.3047],[-81.9807,36.3067],[-81.9829,36.3083],[-81.9842,36.3103],[-81.9863,36.3112],[-81.9885,36.3103],[-81.9871,36.3123],[-81.9888,36.3146],[-81.991,36.316],[-81.9937,36.3174],[-81.996,36.3183],[-81.9985,36.319],[-81.999,36.3228],[-81.9994,36.3255],[-81.9976,36.3278],[-81.9969,36.3299],[-81.9998,36.3315],[-82.002,36.3333],[-82.0051,36.3321],[-82.0088,36.3314],[-82.0122,36.332],[-82.0148,36.3329],[-82.0177,36.3323],[-82.0204,36.3299],[-82.0228,36.33],[-82.0244,36.3323],[-82.0265,36.3335],[-82.0286,36.3338],[-82.0297,36.3345]],[[-82.0133,36.3356],[-82.011,36.3351],[-82.0132,36.3359],[-82.0133,36.3356]]]]}},{"type":"Feature","properties":{"id":"woods-reservoir","name":"Woods Reservoir","kind":"lake","bounds":[-86.1126,35.2941,-85.9841,35.3338],"labelAnchor":[-86.0536,35.313]},"geometry":{"type":"MultiPolygon","coordinates":[[[[-86.0048,35.3168],[-86.0037,35.3189],[-86.0038,35.321],[-86.0028,35.3231],[-86.0014,35.3251],[-86.0007,35.3231],[-86.0014,35.321],[-85.9993,35.32],[-85.9971,35.3194],[-85.9965,35.3169],[-85.9943,35.3157],[-85.9921,35.3154],[-85.99,35.3149],[-85.9921,35.3141],[-85.9947,35.3153],[-85.9975,35.3148],[-85.9996,35.3148],[-86.0019,35.3147],[-86.0022,35.3169],[-86.0045,35.316],[-86.0048,35.3168]]],[[[-86.1126,35.3301],[-86.1107,35.328],[-86.1099,35.326],[-86.1079,35.3245],[-86.1059,35.3228],[-86.1079,35.3213],[-86.1099,35.3222],[-86.1112,35.3243],[-86.1119,35.3263],[-86.1125,35.3283],[-86.1126,35.3301]]],[[[-86.1078,35.3209],[-86.1058,35.3221],[-86.1037,35.3204],[-86.1025,35.3183],[-86.1015,35.3162],[-86.1008,35.3141],[-86.0993,35.3163],[-86.0987,35.3185],[-86.0967,35.3183],[-86.0946,35.3198],[-86.0925,35.3212],[-86.0904,35.322],[-86.0883,35.3225],[-86.0861,35.3222],[-86.0852,35.3243],[-86.0832,35.3223],[-86.081,35.3226],[-86.0787,35.3222],[-86.0766,35.3225],[-86.0745,35.3225],[-86.0725,35.3226],[-86.0709,35.3247],[-86.0706,35.3226],[-86.0699,35.3205],[-86.0709,35.3185],[-86.0689,35.3179],[-86.0668,35.3191],[-86.0652,35.3211],[-86.0637,35.3231],[-86.0629,35.3252],[-86.0623,35.3272],[-86.062,35.3293],[-86.0608,35.3313],[-86.0597,35.3334],[-86.059,35.3313],[-86.0596,35.3293],[-86.0575,35.3296],[-86.0555,35.33],[-86.0534,35.3301],[-86.0513,35.331],[-86.0485,35.3326],[-86.0465,35.3338],[-86.0477,35.3317],[-86.0497,35.3299],[-86.0518,35.3285],[-86.0541,35.3283],[-86.0561,35.3274],[-86.0582,35.3264],[-86.0588,35.3242],[-86.0596,35.3222],[-86.0575,35.3212],[-86.0562,35.3192],[-86.054,35.319],[-86.0544,35.3169],[-86.0535,35.3149],[-86.0517,35.3128],[-86.0512,35.3106],[-86.0529,35.3085],[-86.0551,35.3066],[-86.0542,35.3046],[-86.0581,35.301],[-86.056,35.3024],[-86.0538,35.3043],[-86.0517,35.3046],[-86.0505,35.3067],[-86.0484,35.3081],[-86.0464,35.3094],[-86.0441,35.3101],[-86.0419,35.3111],[-86.0408,35.3132],[-86.0391,35.3152],[-86.038,35.3175],[-86.0361,35.3196],[-86.034,35.3198],[-86.0318,35.3199],[-86.0298,35.3185],[-86.0276,35.319],[-86.0255,35.3182],[-86.0235,35.3185],[-86.0221,35.3164],[-86.02,35.3172],[-86.018,35.3182],[-86.0159,35.3178],[-86.0139,35.3191],[-86.0118,35.3199],[-86.0112,35.3179],[-86.0092,35.3178],[-86.007,35.3178],[-86.0048,35.3194],[-86.0047,35.3173],[-86.0025,35.3173],[-86.0023,35.3152],[-86.0003,35.3147],[-85.9979,35.3147],[-85.9957,35.3152],[-85.9936,35.3154],[-85.9912,35.3133],[-85.9892,35.3136],[-85.9868,35.3146],[-85.9847,35.3155],[-85.9841,35.3135],[-85.9861,35.3148],[-85.9892,35.3132],[-85.9914,35.3112],[-85.9935,35.3109],[-85.9928,35.3064],[-85.9945,35.3085],[-85.9965,35.3094],[-85.9997,35.3084],[-86.0017,35.3083],[-86.0023,35.3103],[-86.0027,35.3123],[-86.0047,35.3141],[-86.0069,35.3141],[-86.0089,35.3136],[-86.0111,35.3142],[-86.0131,35.3155],[-86.0153,35.315],[-86.0173,35.3143],[-86.0195,35.3134],[-86.0215,35.3128],[-86.0242,35.3124],[-86.0263,35.3123],[-86.0286,35.3123],[-86.0306,35.3125],[-86.0328,35.3122],[-86.0348,35.3119],[-86.0355,35.3097],[-86.0363,35.3077],[-86.0362,35.3057],[-86.0375,35.3037],[-86.036,35.3016],[-86.038,35.3006],[-86.04,35.3012],[-86.042,35.302],[-86.0422,35.3],[-86.0443,35.3013],[-86.0464,35.3007],[-86.0484,35.2992],[-86.0504,35.2972],[-86.0508,35.2951],[-86.0528,35.2959],[-86.0548,35.2955],[-86.0569,35.2953],[-86.0589,35.2963],[-86.0597,35.2983],[-86.0618,35.3004],[-86.0638,35.3009],[-86.0658,35.3028],[-86.0679,35.304],[-86.0699,35.3052],[-86.072,35.3066],[-86.0738,35.3088],[-86.0759,35.3089],[-86.0779,35.3108],[-86.0799,35.3118],[-86.082,35.3118],[-86.0841,35.312],[-86.0851,35.3099],[-86.0856,35.3077],[-86.0843,35.3057],[-86.0822,35.3038],[-86.0801,35.3049],[-86.0779,35.3034],[-86.0799,35.3032],[-86.0819,35.3029],[-86.084,35.3032],[-86.086,35.3023],[-86.0836,35.3005],[-86.0814,35.3006],[-86.082,35.2986],[-86.0842,35.2998],[-86.0862,35.2983],[-86.0883,35.2975],[-86.0903,35.2961],[-86.0895,35.2941],[-86.0916,35.2958],[-86.0938,35.295],[-86.0958,35.2966],[-86.0972,35.2987],[-86.0985,35.3007],[-86.0984,35.3027],[-86.1001,35.3048],[-86.0993,35.3068],[-86.1002,35.3091],[-86.1022,35.3076],[-86.1031,35.3096],[-86.1051,35.31],[-86.1064,35.312],[-86.1043,35.3114],[-86.106,35.3135],[-86.1054,35.3156],[-86.1065,35.3178],[-86.1075,35.3198],[-86.1078,35.3209]],[[-86.073,35.3103],[-86.071,35.3091],[-86.069,35.3082],[-86.0674,35.3103],[-86.0694,35.3115],[-86.0715,35.3109],[-86.073,35.3103]],[[-86.0631,35.3128],[-86.061,35.3121],[-86.0631,35.3129],[-86.0631,35.3128]],[[-86.0294,35.3175],[-86.0273,35.3167],[-86.0293,35.3176],[-86.0294,35.3175]],[[-86.0043,35.3148],[-86.0024,35.3169],[-86.0043,35.3149],[-86.0043,35.3148]],[[-86.0017,35.3091],[-85.999,35.3089],[-85.997,35.3096],[-85.9991,35.3093],[-86.0014,35.3093],[-86.0017,35.3091]],[[-85.997,35.3114],[-85.995,35.3102],[-85.997,35.3116],[-85.997,35.3114]],[[-85.9959,35.3144],[-85.9937,35.3146],[-85.9958,35.3146],[-85.9959,35.3144]]]]}}]}
